SiteNumber,SiteCode,Type,LocationID,Region,City,FacilityName,Ownership,Use,Owner,OwnerAddress,OwnerCityStateZIP,OwnerPhone,Manager,ManagerPhone
50009,A,AIRPORT,'ADK,ALEUTIAN ISLANDS,ADAK ISLAND,ADAK,PUBLIC,PUBLIC,ALASKA DOT&PF SOUTHCOAST REGION,PO BOX 196900,"ANCHORAGE, AK 99519",907-269-0751,INNOCENT DUSHKIN,907-592-8026
50016.1,A,AIRPORT,'AKK,KODIAK ISLAND,AKHIOK,AKHIOK,PUBLIC,PUBLIC,ALASKA DOT&PF SOUTHCOAST REGION,PO BOX 196900,"ANCHORAGE, AK 99519",907-269-0760,ROBERT GREENE,907-487-4952
50017,A,AIRPORT,'Z13,BETHEL,AKIACHAK,AKIACHAK,PUBLIC,PUBLIC,ALASKA DOT&PF CENTRAL REGION,PO BOX 196900,"ANCHORAGE, AK 99519",907-269-0770,LAWRENCE DAVIS,907-543-2498
50017.1,C,SEAPLANE BASE,'KKI,BETHEL,AKIACHAK,AKIACHAK,PUBLIC,PUBLIC,PUBLIC DOMAIN,,,,,
50020,A,AIRPORT,'AKI,BETHEL,AKIAK,AKIAK,PUBLIC,PUBLIC,ALASKA DOT&PF CENTRAL REGION,PO BOX 196900,"ANCHORAGE, AK 99519",907-269-0760,LAWERENCE DAVIS,907-543-2498
50022,C,SEAPLANE BASE,'KQA,ALEUTIAN ISLANDS,AKUTAN,AKUTAN,PUBLIC,PUBLIC,CITY OF AKUTAN,PO BOX 109,"AKUTAN, AK 99553",907-698-2228,JOE BERESKIN,907-698-2241
50022.1,A,AIRPORT,'7AK,ALEUTIAN ISLANDS,AKUTAN,AKUTAN,PUBLIC,PUBLIC,ALASKA DOT&PF SOUTHCOAST REGION,PO BOX 112506,"JUNEAU, AK 99811",907-465-1779,DALE RUCKMAN,907-581-1786
50024.1,A,AIRPORT,'AUK,KUSILVAK,ALAKANUK,ALAKANUK,PUBLIC,PUBLIC,ALASKA DOT&PF NORTHERN REGION,2301 PEGER RD,"FAIRBANKS, AK 99709",907-451-2200,JOHN WILSON,907-625-1025
50027.52,C,SEAPLANE BASE,'Z33,BRISTOL BAY,ALEKNAGIK,ALEKNAGIK,PRIVATE,PUBLIC,MOODY,PO BOX 67,"ALEKNAGIK, AK 99555",,ROLAND OR BEVERLY MOODY,907-842-5988
50027.53,A,AIRPORT,'5A8,BRISTOL BAY,ALEKNAGIK,ALEKNAGIK /NEW,PUBLIC,PUBLIC,ALASKA DOT&PF CENTRAL REGION,PO BOX 196900,"ANCHORAGE, AK 99519",907-269-0760,NORMAN HEYANO,907-842-5511
50027.6,A,AIRPORT,'4AK7,BRISTOL BAY,ALEKNAGIK,ALEKNAGIK MISSION STRIP,PRIVATE,PRIVATE,WOODRIVER HEIGHTS,3665 AIRCRAFT DR,"ANCHORAGE, AK 99502",907-242-4173,RON SMITH,907-242-4173
50027.51,A,AIRPORT,'Z25,BRISTOL BAY,ALEKNAGIK,TRIPOD,PUBLIC,PUBLIC,PUBLIC DOMAIN,,,,,
50029.1,A,AIRPORT,'6A8,YUKON-KOYUKUK,ALLAKAKET,ALLAKAKET,PUBLIC,PUBLIC,ALASKA DOT&PF NORTHERN REGION,2301 PEGER RD,"FAIRBANKS, AK 99709",907-451-5280,TOM WILLIAMS,907-451-5280
50029.61,A,AIRPORT,'AFM,NORTHWEST ARCTIC,AMBLER,AMBLER,PUBLIC,PUBLIC,ALASKA DOT&PF NORTHERN REGION,2301 PEGER RD,"FAIRBANKS, AK 99709",907-451-2200,ALVIN WERNEKE,907-442-3147
50031,A,AIRPORT,'80A,YUKON-KOYUKUK,AMERICAN CREEK,AMERICAN CREEK,PUBLIC,PUBLIC,"DNR-DIV. OF MINING, LAND, WATER",3700 AIRPORT WAY,"FAIRBANKS, AK 99709",907-451-2740,,
50031.5,C,SEAPLANE BASE,'AK81,KODIAK ISLAND,AMOOK BAY,AMOOK BAY,PRIVATE,PRIVATE,MIKE MUNSEY,AMOOK PASS,"KODIAK, AK 99615",,MIKE MUNSEY,907-847-2203
50032,A,AIRPORT,'AKP,YUKON-KOYUKUK,ANAKTUVUK PASS,ANAKTUVUK PASS,PUBLIC,PUBLIC,NORTH SLOPE BOROUGH,PO BOX 69,"BARROW, AK 99723",907-852-2611,TOM D. NICOLOS,907-852-0371
50037.3,A,AIRPORT,'AK00,KENAI PENINSULA,ANCHOR POINT,ANCHOR RIVER AIRPARK,PRIVATE,PRIVATE,ANCHOR RIVER AIRPARK OWNERS ASSOC,PO BOX 913,"ANCHOR POINT, AK 99556",907-235-0789,JIM DRESS,907-235-0789
50037.31,A,AIRPORT,'00AK,SEWARD,ANCHOR POINT,LOWELL FIELD,PRIVATE,PRIVATE,DAN PRESLEY,24436 MISTY LN,"ANCHOR POINT, AK 99556",907-398-6664,DAN PRESLEY,907-567-3986
50033.1,H,HELIPORT,'2OK,ANCHORAGE,ANCHORAGE,ALASKA RGNL HOSPITAL,PUBLIC,PUBLIC,MUNICIPALITY OF ANCHORAGE,800 MERRILL FIELD DR,"ANCHORAGE, AK 99501",907-343-6303,"PAUL BOWERS, A.A.E.",907-343-6305
50033.24,H,HELIPORT,'99AA,ANCHORAGE,ANCHORAGE,ANCHORAGE LOFTS HOTEL HELIPORT,PRIVATE,PRIVATE,H.P. HOLDINGS INC.,239 W 4TH AVE,"ANCHORAGE, AK 99501",907-440-9000,RANDY COMER,907-793-5555
50033.5,A,AIRPORT,'A13,ANCHORAGE,ANCHORAGE,BOLD,PUBLIC,PUBLIC,STATE OF AK DNR,18620 SEWARD HWY,"ANCHORAGE, AK 99516",907-688-0910,"KEITH WILSON, PARK RANGER",907-688-0910
50033,A,AIRPORT,'CSR,ANCHORAGE,ANCHORAGE,CAMPBELL AIRSTRIP,PUBLIC,PRIVATE,US BUREAU OF LAND MANAGEMENT,4700 BLM RD,"ANCHORAGE, AK 99507",907-267-1357,DAVE DOUCET,907-267-1357
50033.2,H,HELIPORT,'AK82,ANCHORAGE,ANCHORAGE,CAMPBELL BLM,PUBLIC,PRIVATE,US BUREAU OF LAND MANAGEMENT,4700 BLM RD,"ANCHORAGE, AK 99507",907-267-1357,DAVE DOUCET,907-267-1357
50035.2,C,SEAPLANE BASE,'3C3,ANCHORAGE,ANCHORAGE,CAMPBELL LAKE SPB,PRIVATE,PUBLIC,CAMPBELL LAKE OWNERS INC,9500 INDEPENDENCE DR,"ANCHORAGE, AK 99507",907-522-5000,DR. JOHN SPARAGA,907-522-5000
50036,A,AIRPORT,'EDF,ANCHORAGE,ANCHORAGE,ELMENDORF AFB,US AIR FORCE,PRIVATE,US AIR FORCE,30SS/DOFJ,"ELMENDORF AFB, AK 99506",907-552-2107,AIRFIELD MGR,907-552-2444
50036.01,H,HELIPORT,'AK91,ANCHORAGE,ANCHORAGE,ELMENDORF HOSPITAL,US AIR FORCE,PRIVATE,US AIR FORCE,3OSS/DOF,"ELMENDORF AFB, AK 99506",907-552-2444,AIRFIELD MANAGER,907-552-2444
50036.02,A,AIRPORT,'6AK5,ANCHORAGE,ANCHORAGE,FIRE ISLAND,PUBLIC,PRIVATE,US FEDERAL AVIATION ASSOCIATION,700 N BONIFACE PKWY,"ANCHORAGE, AK 99506",,DISTRICT OFFICE MANAGER,907-269-1138
50033.4,A,AIRPORT,'AK12,ANCHORAGE,ANCHORAGE,FLYING CROWN,PRIVATE,PRIVATE,FLYING CROWN/OCEANVIEW NORTH,910 HARBOR CIR,"ANCHORAGE, AK 99515",907-245-1932,CHARLES FRYER,907-245-1932
50037,C,SEAPLANE BASE,'LHD,ANCHORAGE,ANCHORAGE,LAKE HOOD,PUBLIC,PUBLIC,STATE OF AK -- DOT&PF,PO BOX 196960,"ANCHORAGE, AK 99519",907-266-2741,TIM COONS,907-266-2741
50035,A,AIRPORT,'MRI,ANCHORAGE,ANCHORAGE,MERRILL FIELD,PUBLIC,PUBLIC,MUNICIPALITY OF ANCHORAGE,800 MERRIL FIELD DR,"ANCHORAGE, AK 99501",907-343-6303,"PAUL BOWERS, A.A.E.",907-343-6303
50033.01,H,HELIPORT,'AK38,ANCHORAGE,ANCHORAGE,PROVIDENCE HOSPITAL,PRIVATE,PRIVATE,PROVIDENCE HEALTH SYSTEM,3200 PROVIDENCE DR,"ANCHORAGE, AK 99508",907-562-2211,VICKI FACIANE,907-212-5840
50033.02,A,AIRPORT,'AA06,ANCHORAGE,ANCHORAGE,SIXMILE LAKE,PRIVATE,PRIVATE,US AIR FORCE,"10471 20TH ST, SUITE 160","ELMENDORF AFB, AK 99506",907-552-2107, MAJOR ROBERT PECK,907-552-2107
50036.1,A,AIRPORT,'9AK5,ANCHORAGE,ANCHORAGE,SKY HARBOR,PRIVATE,PRIVATE,SKY HBR PRPTY OWNER ASSOC,11641 BARR RD,"ANCHORAGE, AK 99516",,GORDON A. LEONARD,907-345-4896
50034,A,AIRPORT,'ANC,ANCHORAGE,ANCHORAGE,TED STEVENS ANCHORAGE INTL,PUBLIC,PUBLIC,STATE OF ALASKA DOTPF,BOX 196960,"ANCHORAGE, AK 99519",907-266-2525,JOHN PARROTT,907-266-2525
50033.03,H,HELIPORT,'AA04,ANCHORAGE,ANCHORAGE,VIKING,PRIVATE,PRIVATE,PRUHS CORPORATION,2193 VIKING DR,"ANCHORAGE, AK 99501",907-250-8385,DANA PRUHS,907-250-8385
50037.6,C,SEAPLANE BASE,'AGN,SITKA,ANGOON,ANGOON,PUBLIC,PUBLIC,ALASKA DOT&PF SOUTHCOAST REGION,6860 GLACIER HWY,"JUNEAU, AK 99801",907-465-1786,PAUL KHERA,907-465-1786
50038,A,AIRPORT,'ANI,KUSKOKWIM,ANIAK,ANIAK,PUBLIC,PUBLIC,ALASKA DOT&PF CENTRAL REGION,PO BOX 196900,"ANCHORAGE, AK 99519",907-269-0749,RICHARD CILETTI,907-675-4345
50039,A,AIRPORT,'ANN,KETCHIKAN GATEWAY,ANNETTE,ANNETTE ISLAND,PRIVATE,PRIVATE,METLAKATLA INDIAN COMM,PO BOX 8,"METLAKATLA, AK 99926",907-886-4441,MAYOR AUDREY M. L. HUDSON,907-886-4441
50039.01,C,SEAPLANE BASE,'Z43,KETCHIKAN GATEWAY,ANNETTE,TAMGAS HARBOR,PUBLIC,PUBLIC,COUNCIL OF ANNETTE IS,PO BOX 8,"METLAKATLA, AK 99926",907-886-4441,CHIEF OF POLICE,907-886-4011
50039.1,A,AIRPORT,'ANV,KUSKOKWIM,ANVIK,ANVIK,PUBLIC,PUBLIC,ALASKA DOT&PF NORTHERN REGION,2301 PEGER RD,"FAIRBANKS, AK 99709",907-451-2200,ERIK WEINGARTH,907-438-2416
50039.11,C,SEAPLANE BASE,'K40,KUSKOKWIM,ANVIK,ANVIK,PUBLIC,PUBLIC,PUBLIC DOMAIN,,,,,
50039.8,A,AIRPORT,'ARC,UPPER YUKON,ARCTIC VILLAGE,ARCTIC VILLAGE,PUBLIC,PUBLIC,VENETIE TRIBAL GOVN,PO BOX 81080,"VENETIE, AK 97781",907-849-8165,JONATHAN JOHNS,907-587-5523
50040.5,A,AIRPORT,'AKA,ALEUTIAN ISLANDS,ATKA,ATKA,PUBLIC,PUBLIC,ALASKA DOT&PF SOUTHCOAST REGION,PO BOX 112506,"JUNEAU, AK 99811",907-465-1779,DALE RUCKMAN,907-581-1786
50044,A,AIRPORT,'4A2,BETHEL,ATMAUTLUAK,ATMAUTLUAK,PUBLIC,PUBLIC,ALASKA DOT&PF CENTRAL REGION,PO BOX 196900,"ANCHORAGE, AK 99519",907-269-0760,LAWRENCE DAVIS,907-543-2498
50044.5,A,AIRPORT,'ATK,NORTH SLOPE,ATQASUK,ATQASUK EDWARD BURNELL SR MEMORIAL,PUBLIC,PUBLIC,NORTH SLOPE BOROUGH,PO BOX 69,"BARROW, AK 99723",907-852-2611,TOM D. NICOLOS,907-852-2611
50046,A,AIRPORT,'ATU,ALEUTIAN ISLANDS,ATTU,CASCO COVE CGS,,PRIVATE,US COAST GUARD,PO BOX 3-5000,"JUNEAU, AK 99802",907-392-3315,COMMANDER LORAN STATION,907-463-2970
50053,C,SEAPLANE BASE,'BNF,WRANGELL-PETERSBURG,BARANOF,BARANOF WARM SPRINGS FLOAT AND SEAPLANE FL,PUBLIC,PUBLIC,CITY AND BOROUGH OF SITKA,100 LINCOLN STREET,"SITKA, AK 99835",907-747-3439,HARBORMASTER,907-747-3439
50054.3,A,AIRPORT,'BRW,NORTH SLOPE,BARROW,WILEY POST-WILL ROGERS MEMORIAL,PUBLIC,PUBLIC,ALASKA DOT&PF NORTHERN REGION,2301 PEGER RD,"FAIRBANKS, AK 99701",907-451-2206,JOHN OLSEN,907-852-6199
50055.5,A,AIRPORT,'BTI,UPPER YUKON,BARTER ISLAND LRRS,BARTER ISLAND,PUBLIC,PUBLIC,NORTH SLOPE BOROUGH,PO BOX 69,"BARROW, AK 99723",907-852-2611,TOM NICOLOS,907-852-2611
50056,C,SEAPLANE BASE,'BQV,SKAGWAY-YAKUTAT,BARTLETT COVE,BARTLETT COVE,PUBLIC,PUBLIC,NPS GLACIER BAY NATL PARK & PRES,NATL PARK SVC BOX 1781,"JUNEAU, AK 99801",,SUPERINTENDANT OF GLACIER BAY,907-697-2685
50056.5,A,AIRPORT,'Z47,NOME,BASIN CREEK,BASIN CREEK,PRIVATE,PUBLIC,ENGSTROM DREDGING CO,PO BOX 536,"NOME, AK 99762",907-443-2586,RON ENGSTROM,907-443-2586
50057,A,AIRPORT,'AK02,KOBUK,BEAR CREEK,BEAR CREEK 1,PUBLIC,PRIVATE,PUBLIC DOMAIN,,,,,
50057.2,A,AIRPORT,'Z48,KUSKOKWIM,BEAR CREEK,BEAR CREEK 3,PUBLIC,PUBLIC,PUBLIC DOMAIN,,,,,
50057.4,A,AIRPORT,'Z52,ALEUTIAN ISLANDS,BEAR LAKE,JOHNSONS LANDING,PUBLIC,PUBLIC,PUBLIC DOMAIN,PO BOX 1267,"KENAI, AK 99611",907-283-4117.,WARREN JOHNSON,907-283-4117
50058,A,AIRPORT,'WBQ,UPPER YUKON,BEAVER,BEAVER,PUBLIC,PUBLIC,ALASKA DOT&PF NORTHERN REGION,2301 PEGER RD,"FAIRBANKS, AK 99709",907-451-5280,TOM WILLIAMS,907-451-5280
50059.9,C,SEAPLANE BASE,'KBE,KETCHIKAN GATEWAY,BELL ISLAND,BELL ISLAND HOT SPRINGS,PRIVATE,PRIVATE,DONALD PETERSON,,"BELL ISLAND, AK 99901",,DONALD PETERSON,
50059.95,A,AIRPORT,'BLG,KENAI-COOK INLET,BELUGA,BELUGA,PRIVATE,PRIVATE,"HILCORP ALASKA, LLC","3800 CENTERPOINT DR, SUITE 1400","ANCHORAGE, AK 99503",907-777-8300,"HILCORP ALASKA, LLC",907-777-8300
50060.2,C,SEAPLANE BASE,'Z59,BETHEL,BETHEL,BETHEL,PUBLIC,PUBLIC,PUBLIC DOMAIN,,,,,
50061.1,A,AIRPORT,'BET,BETHEL,BETHEL,BETHEL,PUBLIC,PUBLIC,ALASKA DOT&PF CENTRAL REGION,PO BOX 196900,"ANCHORAGE, AK 99519",907-269-0749,LJ DAVIS,907-543-2495
50060.1,C,SEAPLANE BASE,'Z58,BETHEL,BETHEL,HANGAR LAKE,PUBLIC,PUBLIC,PUBLIC DOMAIN,,,,,
50062,A,AIRPORT,'BTT,YUKON-KOYUKUK,BETTLES,BETTLES,PUBLIC,PUBLIC,ALASKA DOT&PF NORTHERN REGION,2301 PEGER RD,"FAIRBANKS, AK 99709",907-451-5280,TOM WILLIAMS,907-451-5280
50062.01,C,SEAPLANE BASE,'2A4,YUKON-KOYUKUK,BETTLES,VOR LAKE WATERLANE,PUBLIC,PUBLIC,STATE OF AK DOTPF N REG,2301 PEGER RD,"FAIRBANKS, AK 99709",907-451-5230,JEREMY WORRALL,907-451-5230
50068.65,C,SEAPLANE BASE,'D71,MATANUSKA-SUSITNA,BIG LAKE,BEAVER LAKE,PUBLIC,PUBLIC,"STATE OF ALASKA, DNR","550 W 7TH AVE, SUITE 900","ANCHORAGE, AK 99501",907-269-8400,BILLY CRANFORD,907-892-7575
50068.6,A,AIRPORT,'BGQ,MATANUSKA-SUSITNA,BIG LAKE,BIG LAKE,PUBLIC,PUBLIC,ALASKA DOT&PF CENTRAL REGION,PO BOX 196900,"ANCHORAGE, AK 99519",907-269-0770,STEVE BANSE,907-745-2159
50068.69,C,SEAPLANE BASE,'6A7,MATANUSKA-SUSITNA,BIG LAKE,BROCKER LAKE,PUBLIC,PUBLIC,STATE OF AK DNR,"550 W 7TH AVE, STE 900","ANCHORAGE, AK 99501",907-269-8400,JOSEPH FISCHER,907-376-0227
50068.681,A,AIRPORT,'95AK,MATANUSKA-SUSITNA,BIG LAKE,BROWN'S HOMESTEAD,PRIVATE,PRIVATE,BILL & KAYLENE BROWN,4405 FAIRMONT RD,"ANCHORAGE, AK 99516",907-345-0403,BILL & KAYLENE BROWN,907-345-0403
50068.66,H,HELIPORT,'68AK,MATANUSKA-SUSITNA,BIG LAKE,COWELL'S,PRIVATE,PRIVATE,FULLER A. COWELL,927 1ST STREET,"FAIRBANKS, AK 99701",907-227-7333,FULLER A. COWELL,907-227-7333
50068.63,A,AIRPORT,'9AK7,MATANUSKA-SUSITNA,BIG LAKE,CUBDIVISION,PRIVATE,PRIVATE,CUBDIVISION LOT OWNERS,PO BOX 521795,"BIG LAKE, AK 99652",907-892-8244,LEE BUDDE,907-892-8244
50068.71,A,AIRPORT,'AA10,MATANUSKA-SUSITNA,BIG LAKE,EAGLES ROOST,PRIVATE,PRIVATE,GUY TURNER,6960 E BEACHCRAFT RD,"WASILLA, AK 99654",928-231-0249,GUY TURNER,928-231-0249
50068.58,A,AIRPORT,'08AK,MATANUSKA-SUSITNA,BIG LAKE,FISHER,PRIVATE,PRIVATE,ROBERT B. FISHER,BOX 520209,"BIG LAKE, AK 99652",907-892-8209,ROBERT B. FISHER,907-892-8209
50068.5,A,AIRPORT,'02AA,MATANUSKA-SUSITNA,BIG LAKE,H & H FIELD,PRIVATE,PRIVATE,ROBERT HUTCHISON,18302 W JENNY LN,"BIG LAKE, AK 99652",907-892-4523,ROBERT HUTCHISON,907-892-4523
50068.72,C,SEAPLANE BASE,'AK48,MATANUSKA-SUSITNA,BIG LAKE,HAGGARDS LANDING SEAPLANE BASE,PRIVATE,PRIVATE,WES ERB,PO BOX 520493,"BIG LAKE, AK 99652",907-441-2382,,
50068.53,C,SEAPLANE BASE,'86AK,MATANUSKA-SUSITNA,BIG LAKE,HOPPE'S,PRIVATE,PRIVATE,GREG M. HOPPE,PO BOX 520636,"BIG LAKE, AK 99652",907-892-7169,GREG M. HOPPE,907-892-7169
50068.52,C,SEAPLANE BASE,'AA02,MATANUSKA-SUSITNA,BIG LAKE,HORSESHOE LAKE,PRIVATE,PRIVATE,WILLIAM L. KRAMER,PO BOX 521783,"BIG LAKE, AK 99652",907-440-5000,WILLIAM L. KRAMER,907-440-5000
50068.67,C,SEAPLANE BASE,'L95,MATANUSKA-SUSITNA,BIG LAKE,JONES LANDING,PUBLIC,PUBLIC,STATE OF AK DNR,"550 W 7TH AVE, SUITE 900","ANCHORAGE, AK 99652",907-269-8400,ROBERT JONES,907-892-7369
50068.57,A,AIRPORT,'AK86,MATANUSKA-SUSITNA,BIG LAKE,KRAMER,PRIVATE,PRIVATE,WILLIAM L. KRAMER,PO BOX 521783,"BIG LAKE, AK 99652",907-440-5000,WILLIAM L. KRAMER,907-440-5000
50068.54,C,SEAPLANE BASE,'91AK,MATANUSKA-SUSITNA,BIG LAKE,KUCERA,PRIVATE,PRIVATE,GRACE WHEDBEE,PO BOX 520045,"BIG LAKE, AK 99652",907-892-5556,GRACE WHEDBEE,907-892-5556
50068.64,A,AIRPORT,'63AK,MATANUSKA-SUSITNA,BIG LAKE,KUCERA RESIDENCE,PRIVATE,PRIVATE,GRACE WHEDBEE,PO BOX 520045,"BIG LAKE, AK 99652",907-892-5556,GRACE WHEDBEE,907-892-5556
50068,C,SEAPLANE BASE,'85AK,ALEUTIAN ISLANDS,BIG LAKE,MARION,PRIVATE,PRIVATE,MIKE GRAVES,PO BOX 520815,"BIG LAKE, AK 99602",907-841-1977,MIKE GRAVES,907-841-1977
50068.56,A,AIRPORT,'20AK,MATANUSKA-SUSITNA,BIG LAKE,OWEN FIELD,PRIVATE,PRIVATE,MIKE GRAVES,PO BOX 520815,"BIG LAKE, AK 99602",907-841-1977,MIKE GRAVES,907-841-1977
50068.68,H,HELIPORT,'AA07,ANCHORAGE,BIG LAKE,SADDLEBACK ISLAND,PRIVATE,PRIVATE,FULLER A. COWELL,927 1ST ST,"FAIRBANKS, AK 99701",907-227-7333,FULLER  A. COWELL,907-227-7333
50068.61,H,HELIPORT,'AK87,MATANUSKA-SUSITNA,BIG LAKE,TEAM LEVINE,PRIVATE,PRIVATE,LARRY A. LEVINE,3301 PRINCETON WAY,"ANCHORAGE, AK 99508",907-727-1963,LARRY A. LEVINE,907-727-1963
50068.62,A,AIRPORT,'AK95,MATANUSKA-SUSITNA,BIG LAKE,TWIN LAKE,PRIVATE,PRIVATE,EDMUND MONT MAHONEY,PO BOX 190905,"ANCHORAGE, AK 99519",907-360-6190,EDMUND MONT MAHONEY,907-360-6190
50068.59,A,AIRPORT,'09AK,MATANUSKA-SUSITNA,BIG LAKE,WEST BEAVER,PRIVATE,PRIVATE,KEN THORALL,1010 N ROGERS RD,"BIG LAKE, AK 99762",907-232-5711,KEN THORALL,907-232-5711
50068.51,C,SEAPLANE BASE,'AA01,MATANUSKA-SUSITNA,BIG LAKE,WEST BEAVER,PRIVATE,PRIVATE,KEN THORALL,6830 BEECHCRAFT RD,"WASILLA, AK 99654",907-232-5711,KEN THORALL,907-232-5711
50068.7,A,AIRPORT,'37AK,KODIAK ISLAND,BIG MOUNTAIN,BIG MOUNTAIN,US AIR FORCE,PRIVATE,US AIR FORCE,"10471 20TH ST, SUITE 361","ELMENDORF AFB, AK 99506",907-552-3442,JOHN SMITH,907-552-8757
50068.78,A,AIRPORT,'Z91,FAIRBANKS NORTH STAR,BIRCH CREEK,BIRCH CREEK,PUBLIC,PUBLIC,ALASKA DOT&PF NORTHERN REGION,2301 PEGER RD,"FAIRBANKS, AK 99709",907-451-5280,TOM WILLIAMS,907-451-5280
50069,A,AIRPORT,'BCV,ANCHORAGE,BIRCHWOOD,BIRCHWOOD,PUBLIC,PUBLIC,ALASKA DOT&PF CENTRAL REGION,PO BOX 196900,"ANCHORAGE, AK 99519",907-269-0770,TOM GRMAN,907-338-1432
50070,A,AIRPORT,'5BK,FAIRBANKS NORTH STAR,BLACK RAPIDS,BLACK RAPIDS,PUBLIC,PUBLIC,BUREAU OF LAND MGMT,PO BOX 147,"GLENALLEN, AK 99588",907-822-3217,BRENDA BECKER,907-822-3217
50071.72,A,AIRPORT,'AK97,CORDOVA-MCCARTHY,BOSWELL BAY,BOSWELL BAY,PUBLIC,PRIVATE,US FOREST SERVICE,CORDOVA AK 99574,"ELMENDORF AFB, AK 99506",,UNKNOWN,
50072,A,AIRPORT,'BYA,UPPER YUKON,BOUNDARY,BOUNDARY,PUBLIC,PUBLIC,ALASKA DOT&PF NORTHERN REGION,2301 PEGER RD,"FAIRBANKS, AK 99709",907-451-2200,DENNIS BISHOP,907-883-5128
50072.5,A,AIRPORT,'KTS,NOME,BREVIG MISSION,BREVIG MISSION,PUBLIC,PUBLIC,ALASKA DOT&PF NORTHERN REGION,2301 PEGER RD,"FAIRBANKS, AK 99701",907-451-2200,JOSEPH JOHNSON,907-443-2500
50073,A,AIRPORT,'AK98,NOME,BUCK CREEK,BUCK CREEK,PUBLIC,PRIVATE,PUBLIC DOMAIN,,,,,
50073.1,A,AIRPORT,'BVK,UNORGANIZED,BUCKLAND,BUCKLAND,PUBLIC,PUBLIC,ALASKA DOT&PF NORTHERN REGION,2301 PEGER ROAD,"FAIRBANKS, AK 99701",907-451-2200,ALVIN WERNEKE,907-442-3147
50075.1,A,AIRPORT,'AK75,UNORGANIZED,CANDLE,CANDLE 2,PRIVATE,PRIVATE,ELITE PORTFOLIO LLC,"50 W BROADWAY, SUITE 900","SALT LAKE CITY, UT 84101",801-983-2180,DAVID THACKER,801-455-5200
50078,A,AIRPORT,'TTW,MATANUSKA-SUSITNA,CANTWELL,CANTWELL,PRIVATE,PUBLIC,BILL SIMMS,3851 CHINIAK BAY DR,"ANCHORAGE, AK 99515",907-522-3355,RAY ATKINS,907-768-2143
50078.12,A,AIRPORT,'15AK,YUKON-KOYUKUK,CANTWELL,GOLDEN NORTH AIRFIELD,PRIVATE,PRIVATE,DALE NORD,PO BOX 129,"CANTWELL, AK 99729",907-768-2162,DALE NORD,907-768-2162
50080.6,H,HELIPORT,'CDE,WRANGELL-PETERSBURG,CAPE DECISION,CAPE DECISION LIGHTHOUSE,PUBLIC,PRIVATE,CAPE DECISION LIGHTHOUSE SOCIETY,224 KATLIAN ST,"SITKA, AK 99835",253-678-5303,CAPE DECISION LIGHTHOUSE SOCIETY,907-747-7803
50082,A,AIRPORT,'LUR,BARROW,CAPE LISBURNE,CAPE LISBURNE LRRS,US AIR FORCE,PRIVATE,US AIR FORCE,11 AIR FORCE ELMENDORF AFB,"ANCHORAGE, AK 99506",,US AIR FORCE,907-552-9730
50084,A,AIRPORT,'EHM,BETHEL,CAPE NEWENHAM,CAPE NEWENHAM LRRS,US AIR FORCE,PRIVATE,US AIR FORCE,"11 ACW, ELMENDORF AFB","ANCHORAGE, AK 99506",,COMMANDER,907-552-5105
50086,C,SEAPLANE BASE,'Z71,PRINCE OF WALES,CAPE POLE,CAPE POLE,PRIVATE,PUBLIC,L.O.G. LOG CO.,CAPE POLE SEAPLANE BASE,"CAPE POLE, AK",,,
50088,A,AIRPORT,'CZF,KUSILVAK,CAPE ROMANZOF,CAPE ROMANZOF LRRS,US AIR FORCE,PRIVATE,US AIR FORCE,"10471 20TH ST, SUITE 361","ELMENDORF AFB, AK 99506",907-552-3442,NICK HILTON,907-552-4400
50088.3,A,AIRPORT,'26AK,ALEUTIAN ISLANDS,CAPE SARICHEF,CAPE SARICHEF,PUBLIC,PRIVATE,US FISH AND WILDLIFE SERVICE,1011 E TUDOR,"ANCHORAGE, AK 99503",,IZEMBEK NATIONAL WILDLIFE REFUGE,907-532-2445
50088.53,H,HELIPORT,'CSP,SKAGWAY-YAKUTAT,CAPE SPENCER,CAPE SPENCER C G,PUBLIC,PRIVATE,US GOVT,USCG 17TH DIST BOX 3-5000,"JUNEAU, AK 99801",,O I C,907-586-7351
50090,A,AIRPORT,'CEM,UPPER YUKON,CENTRAL,CENTRAL,PUBLIC,PUBLIC,ALASKA DOT&PF NORTHERN REGION,2301 PEGER RD,"FAIRBANKS, AK 99709",907-451-2200,TOM WILLIAMS,907-451-5276
50092,A,AIRPORT,'CIK,UPPER YUKON,CHALKYITSIK,CHALKYITSIK,PUBLIC,PUBLIC,ALASKA DOT&PF NORTHERN REGION,2301 PEGER RD,"FAIRBANKS, AK 99709",907-451-5280,TOM WILLIAMS,907-451-5280
50093.95,A,AIRPORT,'5CD,UPPER YUKON,CHANDALAR CAMP,CHANDALAR SHELF,PUBLIC,PUBLIC,ALASKA DOT&PF NORTHERN REGION,2301 PEGER RD,"FAIRBANKS, AK 99709",907-451-2200,JEFF RUSSELL,907-451-2207
50094.3,A,AIRPORT,'WCR,UPPER YUKON,CHANDALAR LAKE,CHANDALAR LAKE,PUBLIC,PUBLIC,ALASKA DOT&PF NORTHERN REGION,2301 PEGER RD,"FAIRBANKS, AK 99709",907-451-2200,JEFF RUSSELL,907-452-2207
50095,C,SEAPLANE BASE,'CYM,SITKA,CHATHAM,CHATHAM,PRIVATE,PUBLIC,CHATHAM CANNERY LTD,8991 YANDUKIN DR,"JUNEAU, AK 99801",,AVRUM GROSS,
50095.12,A,AIRPORT,'CFK,BETHEL,CHEFORNAK,CHEFORNAK,PUBLIC,PUBLIC,ALASKA DOT&PF CENTRAL REGION,PO BOX 196000,"ANCHORAGE, AK 99519",907-269-0760,LJ DAVIS,907-543-2495
50095.4,A,AIRPORT,'AK13,FAIRBANKS NORTH STAR,CHENA HOT SPRINGS,CHENA HOT SPRINGS,PRIVATE,PRIVATE,RESORT AT CHENA HOT SPRINGS,PO BOX 58055,"FAIRBANKS, AK 99711",907-451-8104,WILLIAM JOHNSON,907-451-8104
50095.7,A,AIRPORT,'C05,SEWARD,CHENEGA,CHENEGA BAY,PUBLIC,PUBLIC,ALASKA DOT&PF CENTRAL REGION,PO BOX 196900,"ANCHORAGE, AK 99519",907-269-0760,SEAN MONTGOMERY/CARL HIGH,907-262-2199
50096.22,A,AIRPORT,'VAK,KUSILVAK,CHEVAK,CHEVAK,PUBLIC,PUBLIC,ALASKA DOT&PF CENTRAL REGION,PO BOX 196900,"ANCHORAGE, AK 99519",907-269-0749,LAWRENCE DAVIS,907-543-2498
50096.9,A,AIRPORT,'48AK,MATANUSKA-SUSITNA,CHICKALOON,CASTLE MOUNTAIN AIRSTRIP,PRIVATE,PRIVATE,ERIC A. FEIGE,PO BOX 1208,"CHICKALOON, AK 99674",907-745-7818,ERIC A. FEIGE,907-745-7818
50097,A,AIRPORT,'CKX,UPPER YUKON,CHICKEN,CHICKEN,PUBLIC,PUBLIC,ALASKA DOT&PF NORTHERN REGION,2301 PEGER RD,"FAIRBANKS, AK 99709",907-451-2200,DENNIS BISHOP,907-883-5128
50097.53,A,AIRPORT,'AJC,LAKE AND PENINSULA,CHIGNIK,CHIGNIK,PUBLIC,PUBLIC,ALASKA DOT&PF SOUTHCOAST REGION,PO BOX 196900,"ANCHORAGE, AK 99519",907-269-0760,KYLER HYLTON,907-246-3325
50097.5,C,SEAPLANE BASE,'Z78,ALEUTIAN ISLANDS,CHIGNIK,CHIGNIK BAY,PUBLIC,PUBLIC,PUBLIC DOMAIN,,,,,
50097.51,A,AIRPORT,'KCL,LAKE AND PENINSULA,CHIGNIK LAGOON,CHIGNIK LAGOON,PUBLIC,PUBLIC,ALASKA DOT&PF SOUTHCOAST REGION,PO BOX 112506,"JUNEAU, AK 99811",907-465-1779,KYLER HYLTON,907-246-3325
50097.54,A,AIRPORT,'A79,ALEUTIAN ISLANDS,CHIGNIK LAKE,CHIGNIK LAKE,PUBLIC,PUBLIC,ALASKA DOT&PF SOUTHCOAST REGION,PO BOX 196900,"ANCHORAGE, AK 99519",907-269-0760,KYLER HYLTON,907-246-3325
50099,A,AIRPORT,'CZN,VALDEZ-CORDOVA,CHISANA,CHISANA,PUBLIC,PUBLIC,ALASKA DOT&PF NORTHERN REGION,2301 PEGER RD,"FAIRBANKS, AK 99709",907-451-2200,JOHN HOFFMAN,907-822-3222
50101,A,AIRPORT,'CZO,VALDEZ-CHITNA-WHITIE,CHISTOCHINA,CHISTOCHINA,PUBLIC,PUBLIC,ALASKA DOT&PF NORTHERN REGION,2301 PEGER RD,"FAIRBANKS, AK 99709",907-451-2200,JOHN HOFFMAN,907-822-3222
50103,A,AIRPORT,'CXC,VALDEZ-CHITNA-WHITIE,CHITINA,CHITINA,PUBLIC,PUBLIC,ALASKA DOT&PF NORTHERN REGION,2301 PEGER RD,"FAIRBANKS, AK 99709",907-451-2200,JOHN HOFFMAN,907-822-3222
50104.37,A,AIRPORT,'9A3,KUSKOKWIM,CHUATHBALUK,CHUATHBALUK,PUBLIC,PUBLIC,ALASKA DOT&PF CENTRAL REGION,PO BOX 196900,"ANCHORAGE, AK 99519",907-269-0760,RICHARD CILETTI,907-675-4345
50104.45,A,AIRPORT,'AK24,ANCHORAGE,CHUGIAK,HILLTOP,PRIVATE,PRIVATE,CHANDELLE ACRES PROP OWNERS ASSOC,PO BOX 92130,"ANCHORAGE, AK 99509",907-562-2929,SCOTT HATTENBURG,907-564-2111
50106.5,A,AIRPORT,'CRC,UPPER YUKON,CIRCLE,CIRCLE CITY,PUBLIC,PUBLIC,ALASKA DOT&PF NORTHERN REGION,2301 PEGER RD,"FAIRBANKS, AK 99709",907-451-5280,TOM WILLIAMS,907-451-5280
50108,A,AIRPORT,'CHP,UPPER YUKON,CIRCLE HOT SPRINGS,CIRCLE HOT SPRINGS,PUBLIC,PUBLIC,ALASKA DOT&PF NORTHERN REGION,2301 PEGER RD,"FAIRBANKS, AK 99709",907-451-2200,TOM WILLIAMS,907-451-5276
50108.1,C,SEAPLANE BASE,'96AK,KENAI PENINSULA,CLAM GULCH,HACKNEY LANDING,PRIVATE,PRIVATE,DNR,"550 W 7TH AVE, SUITE 1260","ANCHORAGE, AK 99524",907-269-8400,MIKE HACKNEY,907-262-2364
50108.3,A,AIRPORT,'CLP,BRISTOL BAY,CLARKS POINT,CLARKS POINT,PUBLIC,PUBLIC,ALASKA DOT&PF CENTRAL REGION,PO BOX 196900,"ANCHORAGE, AK 99519",907-269-0760,NORMAN HEYANO,907-842-5511
50109.01,A,AIRPORT,'Z84,YUKON-KOYUKUK,CLEAR,CLEAR,PUBLIC,PUBLIC,ALASKA DOT&PF NORTHERN REGION,2301 PEGER RD,"FAIRBANKS, AK 99709",907-451-5280,TOM WILLIAMS,907-451-5280
50109.11,A,AIRPORT,'CLF,YUKON-KOYUKUK,CLEAR,CLEAR SKY LODGE,PRIVATE,PUBLIC,RABIDEAU'S CLEAR SKY LODGE,"MILE 280, PARKS HWY","CLEAR, AK 99504",907-582-2251,SANDY RABIDEAU,907-582-2251
50112.6,C,SEAPLANE BASE,'KCC,PRINCE OF WALES,COFFMAN COVE,COFFMAN COVE,PUBLIC,PUBLIC,ALASKA DOT&PF SOUTHCOAST REGION,PO BOX 112506,"JUNEAU, AK 99811",907-465-1786,TIM LACOUR,907-755-2229
50114.01,C,SEAPLANE BASE,'Z87,ALEUTIAN ISLANDS,COLD BAY,BLINN LAKE,PUBLIC,PUBLIC,PUBLIC DOMAIN,,,,,
50114,A,AIRPORT,'CDB,ALEUTIAN ISLANDS,COLD BAY,COLD BAY,PUBLIC,PUBLIC,ALASKA DOT&PF SOUTHCOAST REGION,PO BOX 112506,"JUNEAU, AK 99811",907-465-1788,HAROLD KREMER,907-532-5000
50114.02,A,AIRPORT,'1AK3,ALEUTIAN ISLANDS,COLD BAY,PORT MOLLER,PUBLIC,PRIVATE,US BUREAU OF LAND MANAGEMENT,4700 BLM RD,"ANCHORAGE, AK 99507",907-267-1252,BLM ANCHORAGE FIELD OFFICE,907-267-1252
50114.35,A,AIRPORT,'CXF,UPPER YUKON,COLDFOOT,COLDFOOT,PUBLIC,PUBLIC,ALASKA DOT&PF NORTHERN REGION,2301 PEGER RD,"FAIRBANKS, AK 99709",907-451-2200,JEFF RUSSELL,907-451-2207
50116,A,AIRPORT,'KCR,KUSKOKWIM,COLORADO CREEK,COLORADO CREEK,PRIVATE,PRIVATE,TOLVO ROSANDER,12700 SW 67TH CT,"MIAMI, FL 33156",,,
50121.5,A,AIRPORT,'JLA,KENAI-COOK INLET,COOPER LANDING,QUARTZ CREEK,PUBLIC,PUBLIC,ALASKA DOT&PF CENTRAL REGION,PO BOX 196900,"ANCHORAGE, AK 99519",907-269-0770,SEAN MONTGOMERY/CARL HIGH,907-262-2199
50122.1,A,AIRPORT,'Z93,VALDEZ-CHITNA-WHITIE,COPPER CENTER,COPPER CENTER 2,PUBLIC,PUBLIC,ALASKA DOT&PF NORTHERN REGION,2301 PEGER RD,"FAIRBANKS, AK 99709",907-451-2200,JOHN HOFFMAN,907-822-3222
50125,A,AIRPORT,'CKU,CORDOVA-MCCARTHY,CORDOVA,CORDOVA MUNI,PUBLIC,PUBLIC,ALASKA DOT&PF NORTHERN REGION,2301 PEGER RD,"FAIRBANKS, AK 99709",907-451-2200,ROBERT MATTSON,907-424-3202
50124,A,AIRPORT,'CDV,CORDOVA-MCCARTHY,CORDOVA,MERLE K (MUDHOLE) SMITH,PUBLIC,PUBLIC,ALASKA DOT&PF NORTHERN REGION,2301 PEGER RD,"FAIRBANKS, AK 99709",907-451-5250,ROB MATTSON,907-424-3202
50124.5,A,AIRPORT,'AK30,CORDOVA-MCCARTHY,CORDOVA,STRAWBERRY POINT,PRIVATE,PRIVATE,EYAK CORP.,PO BOX 340,"CORDOVA, AK 99574",907-424-7161,DAVID L. MCDANIEL,907-424-7161
50127,A,AIRPORT,'K29,NOME,COUNCIL,COUNCIL,PUBLIC,PUBLIC,ALASKA DOT&PF NORTHERN REGION,2301 PEGER RD,"FAIRBANKS, AK 99701",907-451-5230,JOSEPH JOHNSON,907-443-2500
50130,C,SEAPLANE BASE,'CGA,PRINCE OF WALES,CRAIG,CRAIG,PUBLIC,PUBLIC,CITY OF CRAIG,BOX 725,"CRAIG, AK 99221",907-826-3275,JON BOLLING,907-826-3275
50130.1,H,HELIPORT,'1AK0,PRINCE OF WALES,CRAIG,CRAIG CG,COAST GUARD,PRIVATE,US COAST GUARD,USCG 17TH DIST BOX 3-5000,"JUNEAU, AK 99801",,,907-586-7351
50130.01,C,SEAPLANE BASE,'5C5,KETCHIKAN GATEWAY,CRAIG,EL CAPITAN LODGE,PRIVATE,PUBLIC,SCOTT VAN VALIN,PO BOX 1174,"CRAIG, AK 99921",800-770-5464,SCOTT VAN VALIN,800-770-5464
50130.4,A,AIRPORT,'1AK1,YUKON-KOYUKUK,CREVICE CREEK,CREVICE CREEK,PRIVATE,PRIVATE,WM P FICKUS,CREVICE CREEK,"BETTLES, AK 99126",,MM P FICKUS,
50132.1,A,AIRPORT,'CJX,KUSKOKWIM,CROOKED CREEK,CROOKED CREEK,PUBLIC,PUBLIC,ALASKA DOT&PF CENTRAL REGION,PO BOX 196900,"ANCHORAGE, AK 99519",907-269-0760,RICHARD CILETTI,907-675-4345
50132.11,A,AIRPORT,'01AA,BETHEL,CROOKED CREEK,DONLIN CREEK,PRIVATE,PRIVATE,"DONLIN GOLD, LLC","482 BISOMESS PARK BLVD, STE G-25","ANCHORAGE, AK 99503",907-273-0200,"DONLIN GOLD, LLC",907-273-0200
50132.4,A,AIRPORT,'1AK2,VALDEZ-CHITNA-WHITIE,CROSSWIND LAKE,CROSSWIND LAKE,PRIVATE,PRIVATE,KIRK AND JULIE WILSON,HC 1 BOX 1960,"GLENNALLEN, AK 99588",,KIRK AND JULIE WILSON,
50135.1,A,AIRPORT,'DCK,KOBUK,DAHL CREEK,DAHL CREEK,PUBLIC,PUBLIC,ALASKA DOT&PF NORTHERN REGION,2301 PEGER RD,"FAIRBANKS, AK 99709",907-451-2200,ALVIN WERNEKE,907-442-3147
50140.72,A,AIRPORT,'AK15,NORTH SLOPE,DEADHORSE,ALPINE AIRSTRIP,PRIVATE,PRIVATE,"CONOCO PHILLIPS, INC",PO BOX 100360,"ANCHORAGE, AK 99501",907-670-4005,JOHN MURRY,907-670-4005
50140.73,A,AIRPORT,'AK78,NORTH SLOPE,DEADHORSE,BADAMI,PRIVATE,PRIVATE,SAVANT ALASKA LLC,PO BOX 112212,"ANCHORAGE, AK 99511",907-659-1349,WAYNE KUYKENDALL,907-659-1349
50140.75,H,HELIPORT,'AA03,NORTH SLOPE,DEADHORSE,CENTRAL PAD,PRIVATE,PRIVATE,FAIRWEATHER INC,"301 CALISTA CT, SUITE A","ANCHORAGE, AK 99518",907-346-3247,SHERRON G. PERRY,907-346-3247
50140.7,A,AIRPORT,'SCC,NORTH SLOPE,DEADHORSE,DEADHORSE,PUBLIC,PUBLIC,ALASKA DOT&PF NORTHERN REGION,2301 PEGER RD,"FAIRBANKS, AK 99709",907-451-2200,TIM PARAULT,907-659-2553
50140.8,A,AIRPORT,'4AK1,NORTH SLOPE,DEADHORSE,INIGOK,PRIVATE,PRIVATE,BUREAU OF LAND MANAGEMENT,"222 W 7TH AVENUE, #13","ANCHORAGE, AK 99513",907-271-5555,ARCTIC FLD OFFICE MANAGER,907-474-2200
50140.76,A,AIRPORT,'37AA,NORTH SLOPE,DEADHORSE,POINT THOMSON AIRSTRIP,PRIVATE,PRIVATE,EXXON MOBIL,"3700 CENTERPOINT DR, SUITE 600","ANCHORAGE, AK 99503",907-561-5331,ANDREW BRICKER,907-561-5331
50145.1,A,AIRPORT,'DEE,KOBUK,DEERING,DEERING,PUBLIC,PUBLIC,ALASKA DOT&PF NORTHERN REGION,2301 PEGER RD,"FAIRBANKS, AK 99709",907-451-2200,ALVIN WERNEKE,907-442-3147
50146.09,A,AIRPORT,'AK77,FAIRBANKS NORTH STAR,DELTA JUNCTION,ALL WEST,PRIVATE,PRIVATE,ALL WEST FREIGHT,PO BOX 708,"DELTA JUNCTION, AK 99737",907-895-9800,BARBIE FOSTER,907-895-9800
50146.06,A,AIRPORT,'9AK4,FAIRBANKS NORTH STAR,DELTA JUNCTION,ARCTIC ANGEL,PRIVATE,PRIVATE,RICHARD M. CARPENTER,HC-60-BOX 4740,"DELTA JUNCTION, AK 99737",907-895-1005,RICHARD M. CARPENTER,907-895-1005
50146.07,H,HELIPORT,'AK35,FAIRBANKS NORTH STAR,DELTA JUNCTION,BUFFALO ROW,PRIVATE,PRIVATE,THOMAS GILBERTSON,PO BOX 1069,"DELTA JUNCTION, AK 99737",907-895-4663,THOMAS GILBERTSON,907-895-4663
50146.04,A,AIRPORT,'45AK,FAIRBANKS NORTH STAR,DELTA JUNCTION,CHEROKEE,PRIVATE,PRIVATE,ROBERT M. AND KIMBERLY ADAMS,PO BOX 1374,"DELTA JUNCTION, AK 99737",907-895-5160,ROBERT M. AND KIMBERLY ADAMS,907-895-5160
50146.022,A,AIRPORT,'AA22,FAIRBANKS NORTH STAR,DELTA JUNCTION,DELTA DAVES,PRIVATE,PRIVATE,DAVID AND TWYLA WEBBER,PO BOX 31,"DELTA JUNCTION, AK 99737",907-895-4887,DAVID WEBBER,907-895-4887
50146.02,A,AIRPORT,'D66,FAIRBANKS NORTH STAR,DELTA JUNCTION,DELTA JUNCTION,PUBLIC,PUBLIC,CITY OF DELTA JUNCTION,PO BOX 229,"DELTA JUNCTION, AK 99737",907-895-4656,JACK MORRIS,907-895-4876
50146.1,A,AIRPORT,'76AK,FAIRBANKS NORTH STAR,DELTA JUNCTION,POGO MINE AIRSTRIP,PRIVATE,PRIVATE,SUMITOMO METAL MINING POGO LLC,3204 INTERNATIONAL ST,"FAIRBANKS, AK 99701",907-895-2685,CHRIS KENNEDY,
50146.03,A,AIRPORT,'29AK,FAIRBANKS NORTH STAR,DELTA JUNCTION,REMINGTON FIELD,PRIVATE,PRIVATE,BRETT HULEN,4137 SE BANBRIDGE LP,"OLYMPIA, WA 98501",,BRETT HULEN,
50146.012,A,AIRPORT,'11AK,FAIRBANKS NORTH STAR,DELTA JUNCTION,ROCKING T RANCH,PRIVATE,PRIVATE,GREG & PEGGY TURNER,PO BOX 684,"DELTA JUNCTION, AK 99737",907-895-4207,GREG & PEGGY TURNER,907-895-4207
50146.08,H,HELIPORT,'72AK,FAIRBANKS NORTH STAR,DELTA JUNCTION,TROPHY LODGE,PRIVATE,PRIVATE,THOMAS ROY GILBERTSON,PO BOX 1069,"DELTA JUNCTION, AK 99737",907-895-4663,JANELL GILBERTS0N,907-895-4663
50146.05,A,AIRPORT,'AK09,FAIRBANKS NORTH STAR,DELTA JUNCTION,WINGSONG ESTATES,PRIVATE,PRIVATE,GARY & LORI HALL,PO BOX 1481,"DELTA JUNCTION, AK 99737",907-895-5311,GARY & LORI HALL,907-895-5311
50146,A,AIRPORT,'BIG,FAIRBANKS NORTH STAR,DELTA JUNCTION FT GREELY,ALLEN AAF,US ARMY,PRIVATE,US ARMY,US ARMY FORCES COMMAND,"ATLANTA, GA",,HQ 172 INFANTRY BRIGADE,907-873-7400
50153,A,AIRPORT,'DLG,BRISTOL BAY,DILLINGHAM,DILLINGHAM,PUBLIC,PUBLIC,ALASKA DOT&PF CENTRAL REGION,PO BOX 196900,"ANCHORAGE, AK 99519",907-269-0749,NORMAN HEYANO,907-842-5511
50153.01,A,AIRPORT,'AK21,BRISTOL BAY,DILLINGHAM,NUSHAGAK,PRIVATE,PRIVATE,NUSHAGAK SHORES HOMEOWNERS ASSOC.,19239 ADRIAN AVE,"CHUGIAK, AK 99567",907-688-2084,BURT BOMHOFF,907-688-2084
50154,C,SEAPLANE BASE,'0Z3,BRISTOL BAY,DILLINGHAM,SHANNONS POND,PUBLIC,PUBLIC,STATE OF ALASKA/DIV OF LANDS,323 E 4TH AVE,"ANCHORAGE, AK 99501",,ERIC SHADE,907-842-2735
50156.5,H,HELIPORT,'DM2,ALEUTIAN ISLANDS,DIOMEDE,DIOMEDE,PUBLIC,PUBLIC,ALASKA DOT&PF NORTHERN REGION,2301 PEGER RD,"FAIRBANKS, AK 99709",907-451-2200,JOSEPH JOHNSON,907-443-2500
50165,A,AIRPORT,'AK23,ALEUTIAN ISLANDS,DUTCH HARBOR,DRIFTWOOD BAY AIR FORCE STATION,US AIR FORCE,PRIVATE,US AIR FORCE,"10471 20TH ST, SUITE 302","ELMENDORF AFB, AK 99506",907-552-8757,RPO,907-552-8757
50175,A,AIRPORT,'EAA,UPPER YUKON,EAGLE,EAGLE,PUBLIC,PUBLIC,ALASKA DOT&PF NORTHERN REGION,2301 PEGER RD,"FAIRBANKS, AK 99709",907-451-2200,DENNIS BISHOP,907-883-5128
50176.03,C,SEAPLANE BASE,'D72,ANCHORAGE,EAGLE RIVER,D&C FIRE LAKE FLYING CLUB,PRIVATE,PUBLIC,CHRISTOPHER & DEBBY HUDSON,14111 W LAKE RIDGE DR,"EAGLE RIVER, AK 99577",907-696-1037,CHRISTOPHER HUDSON,907-250-7834
50175.01,A,AIRPORT,'47AK,ANCHORAGE,EAGLE RIVER,HIGHLAND,PRIVATE,PRIVATE,RICHARD WIGHT,205 E DIMOND BLVD,"ANCHORAGE, AK 99515",,RICHARD WIGHT,
50177,A,AIRPORT,'EEK,BETHEL,EEK,EEK,PUBLIC,PUBLIC,ALASKA DOT&PF CENTRAL REGION,PO BOX 196900,"ANCHORAGE, AK 99519",907-269-0760,DAVID CUMMINGS,907-543-2495
50178.1,A,AIRPORT,'EII,BRISTOL BAY,EGEGIK,EGEGIK,PUBLIC,PUBLIC,CITY OF EGEGIK,PO BOX 189,"EGEGIK, AK 99579",907-233-2400,DON STRAND,907-233-2400
50181.7,A,AIRPORT,'KKU,BRISTOL BAY,EKUK,EKUK,PRIVATE,PRIVATE,EKUK VILLAGE COUNCIL,PO BOX 530,"DILLINGHAM, AK 99576",907-842-5218,,
50182,A,AIRPORT,'KEK,BRISTOL BAY,EKWOK,EKWOK,PUBLIC,PUBLIC,ALASKA DOT&PF CENTRAL REGION,PO BOX 196900,"ANCHORAGE, AK 99519",907-269-0760,NORMAN HEYANO,907-842-5511
50195.7,H,HELIPORT,'ERO,SKAGWAY-YAKUTAT,ELDRED ROCK,ELDRED ROCK CG,PUBLIC,PRIVATE,US GOVT,USCG 17TH DIST BOX 3-5000,"JUNEAU, AK 99801",,O I C,907-586-7351
50196.3,C,SEAPLANE BASE,'ELV,SKAGWAY-YAKUTAT,ELFIN COVE,ELFIN COVE,PUBLIC,PUBLIC,ALASKA DOT&PF SOUTHCOAST REGION,6860 GLACIER HWY,"JUNEAU, AK 99801",907-465-1786,PAUL KHERA,907-465-1786
50197,A,AIRPORT,'ELI,NOME,ELIM,ELIM,PUBLIC,PUBLIC,ALASKA DOT&PF NORTHERN REGION,2301 PEGER RD,"FAIRBANKS, AK 99701",907-451-2200,JOHN WILSON,907-625-1025
50197.01,A,AIRPORT,'MOS,NOME,ELIM,MOSES POINT,PRIVATE,PRIVATE,ELIM NATIVE CORP,PO BOX 39010,"ELIM, AK 99739",907-890-3741,PRES ELIM NATIVE CORP,907-890-3741
50197.3,C,SEAPLANE BASE,'1Z9,VALDEZ-CHITNA-WHITIE,ELLAMAR,ELLAMAR,PUBLIC,PUBLIC,PUBLIC DOMAIN,,,,,
50198.61,A,AIRPORT,'ENM,KUSILVAK,EMMONAK,EMMONAK,PUBLIC,PUBLIC,ALASKA DOT&PF NORTHERN REGION,2301 PEGER RD,"FAIRBANKS, AK 99709",907-451-2200,JOHN WILSON,907-625-1025
50199.6,C,SEAPLANE BASE,'2Z1,WRANGELL-PETERSBURG,ENTRANCE ISLAND,ENTRANCE ISLAND,PUBLIC,PUBLIC,STATE OF AK DOTPF-SE RGN,6860 GLACIER HWY,"JUNEAU, AK 99801",907-465-1786,PAUL KHERA,907-465-1786
50200.19,A,AIRPORT,'3AK1,VALDEZ-CHITNA-WHITIE,EUREKA,SKELTON,PRIVATE,PRIVATE,SKELTON AIRPORT LLC,2738 SNUG HARBOR CIR,"ANCHORAGE, AK 99507",907-522-1800,TRAVIS C. FRISK,907-522-1800
50202,A,AIRPORT,'2Z2,YUKON-KOYUKUK,EUREKA CREEK,EUREKA CREEK,PUBLIC,PUBLIC,UNKNOWN,,,,,
50203,A,AIRPORT,'2Z3,FAIRBANKS NORTH STAR,EVA CREEK,EVA CREEK,PUBLIC,PUBLIC,STATE OF AK DNR,3700 AIRPORT WAY,"FAIRBANKS, AK 99709",907-451-2728,"DIANA LEINBERGER, MANAGER",
50208,C,SEAPLANE BASE,'EXI,SKAGWAY-YAKUTAT,EXCURSION INLET,EXCURSION INLET,PUBLIC,PUBLIC,ALASKA DOT&PF SOUTHCOAST REGION,6860 GLACIER HWY,"JUNEAU, AK 99801",907-465-1786,PAUL KHERA,907-465-1786
50215.01,A,AIRPORT,'AK28,FAIRBANKS NORTH STAR,FAIRBANKS,CHENA MARINA,PRIVATE,PRIVATE,CHENA MARINA FLOATPOND & RWY ASSOC,PO BOX 83658,"FAIRBANKS, AK 99708",907-479-2141,DONALD D KIRK,907-479-2141
50215,C,SEAPLANE BASE,'2Z5,FAIRBANKS NORTH STAR,FAIRBANKS,CHENA RIVER,PUBLIC,PUBLIC,PUBLIC DOMAIN,,,,,
50215.2,A,AIRPORT,'31AK,FAIRBANKS NORTH STAR,FAIRBANKS,DALRYMPLE'S,PRIVATE,PRIVATE,JEFF CROLL,PORTER AVE,"NORTH POLE, AK 99705",907-488-7558,JEFF CROLL,907-488-7558
50217,A,AIRPORT,'EIL,FAIRBANKS NORTH STAR,FAIRBANKS,EIELSON AFB,US AIR FORCE,PRIVATE,US AIR FORCE,5010 CSGP,"EIELSON AFB, AK 99702",,CHIEF AIRFIELD MANAGEMENT,907-377-3201
50219,A,AIRPORT,'FAI,FAIRBANKS NORTH STAR,FAIRBANKS,FAIRBANKS INTL,PUBLIC,PUBLIC,STATE OF ALASKA DOTPF,"6450 AIRPORT WAY, SUITE 1","FAIRBANKS, AK 99709",907-474-2500,JEFF ROACH,907-474-2500
50216.32,A,AIRPORT,'AK7,FAIRBANKS NORTH STAR,FAIRBANKS,GOLD KING CREEK,PUBLIC,PUBLIC,ALASKA DOT&PF NORTHERN REGION,2301 PEGER RD,"FAIRBANKS, AK 99709",907-451-2200,JEREMY WORRALL,907-451-5250
50215.04,A,AIRPORT,'32AK,FAIRBANKS NORTH STAR,FAIRBANKS,HARDROCK FIELD,PRIVATE,PRIVATE,WILLIAM LENTSCH,PO BOX 81063,"FAIRBANKS, AK 99708",907-455-6472,WILLIAM LENTSCH,907-455-6472
50215.03,A,AIRPORT,'AK22,FAIRBANKS NORTH STAR,FAIRBANKS,LAKLOEY AIR PARK,PRIVATE,PRIVATE,"LAKLOEY AIR PARK, INC",PO BOX 58388,"FAIRBANKS, AK 99711",907-456-1566,RICK SCHIKORA,907-488-1724
50215.1,A,AIRPORT,'MTF,FAIRBANKS NORTH STAR,FAIRBANKS,METRO FLD,PRIVATE,PRIVATE,METRO CO,PO BOX 70787,"FAIRBANKS, AK 99707",907-452-5191,METRO CO,907-452-5191
50215.21,A,AIRPORT,'AK52,FAIRBANKS NORTH STAR,FAIRBANKS,MOEN'S RANCH,PRIVATE,PRIVATE,DENNIS J. MOEN,PO BOX 10869,"FAIRBANKS, AK 99710",907-488-4236,DENNIS J. MOEN,907-488-4236
50215.05,A,AIRPORT,'25AA,FAIRBANKS NORTH STAR,FAIRBANKS,SKYFLIGHT,PRIVATE,PRIVATE,DANIEL AND GINA GRAHAM,1669 SKYFLIGHT AVE,"FAIRBANKS, AK 99709",907-474-3647,DANIEL GRAHAM,907-474-3647
50218,A,AIRPORT,'83AK,FAIRBANKS NORTH STAR,FAIRBANKS,TOLOVANA HOT SPRINGS,PRIVATE,PRIVATE,TOLOVANA HOT SPRINGS LTD,PO BOX 83058,"FAIRBANKS, AK 99708",907-455-6706,PRESIDENT-TOLOVANA HOT SPRINGS LTD,907-455-6706
50215.02,H,HELIPORT,'1AK9,FAIRBANKS NORTH STAR,FAIRBANKS,TUNDRA COPTER,PRIVATE,PRIVATE,TUNDRA COPTERS INC,PO BOX 60670,"FAIRBANKS, AK 99706",907-474-0429,,907-474-0394
50216.3,A,AIRPORT,'2AK1,FAIRBANKS NORTH STAR,FAIRBANKS /FT WAINWRIGHT/,BLAIR LAKE,US ARMY,PRIVATE,US ARMY,DPTSM,"FT. RICHARDSON, AK 99505",907-384-2230,OPNS OFFICER,907-353-6320
50216.31,A,AIRPORT,'2AK2,FAIRBANKS NORTH STAR,FAIRBANKS /FT WAINWRIGHT/,CLEAR CREEK,US ARMY,PRIVATE,US ARMY,DPTSM,"FT. RICHARDSON, AK 99505",907-384-2230,OPNS OFFICER,907-353-6320
50216,A,AIRPORT,'FBK,FAIRBANKS NORTH STAR,FAIRBANKS/FT WAINWRIGHT,LADD AAF,US ARMY,PRIVATE,US ARMY,US ARMY FORCES COMMAND,"ATLANTA, GA",,HQ 172 INFANTRY BRIGADE,907-353-7022
50221.3,C,SEAPLANE BASE,'2Z6,SITKA,FALSE ISLAND,FALSE ISLAND,PUBLIC,PUBLIC,US FOREST SERVICE,204 SIGINAKA WAY,"SITKA, AK 99835",,HANS VON REKOWSKI,907-747-4217
50221.5,A,AIRPORT,'KFP,ALEUTIAN ISLANDS,FALSE PASS,FALSE PASS,PUBLIC,PUBLIC,ALASKA DOT&PF SOUTHCOAST REGION,PO BOX 196900,"ANCHORAGE, AK 99519",907-269-0760,JEFF DOERNING,907-532-5000
50222,A,AIRPORT,'0AA4,KUSKOKWIM,FAREWELL,FAREWELL,PUBLIC,PRIVATE,US FEDERAL AVIATION ASSOCIATION,301 E 56TH ST,"ANCHORAGE, AK 99518",907-271-2205,"US GOV FAA, SW AK SSC",907-271-2205
50223.1,C,SEAPLANE BASE,'FKK,KUSKOKWIM,FAREWELL LAKE,FAREWELL LAKE,PUBLIC,PUBLIC,PUBLIC DOMAIN,,,,CATHY FROST,907-783-2636
50223,A,AIRPORT,'TNW,KUSKOKWIM,FAREWELL LAKE,TIN CREEK,PUBLIC,PUBLIC,PUBLIC DOMAIN,,,,CATHY FROST,907-783-2636
50225.7,A,AIRPORT,'3Z1,NOME,FEATHER RIVER,FEATHER RIVER,PUBLIC,PUBLIC,PUBLIC DOMAIN,,,,,
50228.4,H,HELIPORT,'2AK3,JUNEAU,FIVE FINGER,FIVE FINGER CG,PUBLIC,PRIVATE,US GOVT,USCG 17TH DIST BOX 3-5000,"JUNEAU, AK 99801",,O I C,907-586-7351
50230,A,AIRPORT,'FLT,KUSKOKWIM,FLAT,FLAT,PUBLIC,PUBLIC,ALASKA DOT&PF CENTRAL REGION,PO BOX 196900,"ANCHORAGE, AK 99519",907-745-2102,DOUG LYMAN,907-524-3241
50036.5,A,AIRPORT,'FRN,ANCHORAGE,FORT RICHARDSON(ANCHORAGE),BRYANT AAF,US ARMY,PRIVATE,US GOVT,HEADQUARTERS,"FT. RICHARDSON, AK 99505",907-384-7868,BRYANT ARMY AIRFIELD,907-428-6561
50233.02,H,HELIPORT,'8AK0,FAIRBANKS NORTH STAR,FORT WAINWRITE,BACH HELIPAD,US ARMY,PRIVATE,US ARMY,"1046 MARKS RD, #6000","FORT WAINWRIGHT, AK 99703",907-353-7094,"US ARMY, FT WAINWRIGHT",907-353-7094
50235,A,AIRPORT,'FYU,UPPER YUKON,FORT YUKON,FORT YUKON,PUBLIC,PUBLIC,ALASKA DOT&PF NORTHERN REGION,2301 PEGER RD,"FAIRBANKS, AK 99709",907-451-5280,TOM WILLIAMS,907-451-5280
50250,C,SEAPLANE BASE,'FNR,ANGOON,FUNTER BAY,FUNTER BAY,PUBLIC,PUBLIC,ALASKA DOT&PF SOUTHCOAST REGION,6860 GLACIER HWY,"JUNEAU, AK 99801",907-465-1786,PAUL KHERA,907-465-1786
50257.5,A,AIRPORT,'GBH,NOME,GALBRAITH LAKE,GALBRAITH LAKE,PUBLIC,PUBLIC,ALASKA DOT&PF NORTHERN REGION,2301 PEGER RD,"FAIRBANKS, AK 99701",907-451-2207,"CASEY AHKVALUK, AVIATION COORINATOR",907-787-8964
50258,A,AIRPORT,'GAL,YUKON-KOYUKUK,GALENA,EDWARD G PITKA SR,PUBLIC,PUBLIC,ALASKA DOT&PF NORTHERN REGION,2301 PEGER RD,"FAIRBANKS, AK 99701",907-451-52200,MARVIN THURMOND,907-656-1236
50260,A,AIRPORT,'GAM,NOME,GAMBELL,GAMBELL,PUBLIC,PUBLIC,ALASKA DOT&PF NORTHERN REGION,2301 PEGER RD,"FAIRBANKS, AK 99709",907-451-2200,JOSEPH JOHNSON,907-443-2500
50270.01,H,HELIPORT,'AK42,ANCHORAGE,GIRDWOOD,ALYESKA RESORT,PRIVATE,PRIVATE,HOTEL ALYSESKA LLC,"1000 ARLEBERG AVE, PO BOX 249","GIRDWOOD, AK 99587",907-754-1111,BRIAN BURNETT,907-754-2131
50270.1,A,AIRPORT,'AQY,ANCHORAGE,GIRDWOOD,GIRDWOOD,PUBLIC,PUBLIC,ALASKA DOT&PF CENTRAL REGION,PO BOX 196900,"ANCHORAGE, AK 99519",907-269-0770,PAUL BERTHOLL,907-783-2232
50272,A,AIRPORT,'KGZ,CORDOVA-MCCARTHY,GLACIER CREEK,GLACIER CREEK,PUBLIC,PUBLIC,NPS WRANGELL-ST ELIAS,BOX 493,"COPPER CENTER, AK 99573",907-822-7250,DANNY ROSENKRANS,907-822-7240
50730.01,A,AIRPORT,'28AK,MATANUSKA-SUSITNA,GLACIER VIEW,GATES RANCH,PRIVATE,PRIVATE,BARRY L. GATES,34494 W PINOCHLE LN,"SUTTON, AK 99674",407-765-4303,BARRY L. GATES,407-765-4303
50272.36,A,AIRPORT,'5AK4,UNORGANIZED,GLENNALLEN,SNOWSHOE LAKE AIRPORT AND SEAPLANE BASE,PRIVATE,PRIVATE,JIM AND MARY ODDEN,HC 01 BOX 2520,"GLENNALLEN, AK 99588",907-822-3727,JIM AND MARY ODDEN,907-822-3727
50274.2,C,SEAPLANE BASE,'3Z8,BRISTOL BAY,GOLDEN HORN LODGE,GOLDEN HORN LODGE,PRIVATE,PUBLIC,GOLDEN HORN LODGE,PO BOX 44,"DILLINGHAM, AK 99576",,R W MAVES,907-842-8260
50275.01,A,AIRPORT,'GLV,NOME,GOLOVIN,GOLOVIN,PUBLIC,PUBLIC,ALASKA DOT&PF NORTHERN REGION,2301 PEGER RD,"FAIRBANKS, AK 99709",907-451-2200,JOSEPH JOHNSON,907-443-2500
50277,A,AIRPORT,'GNU,BETHEL,GOODNEWS,GOODNEWS,PUBLIC,PUBLIC,ALASKA DOT&PF CENTRAL REGION,PO BOX 196900,"ANCHORAGE, AK 99519",907-269-0760,LAWRENCE DAVIS,907-543-2498
50278.6,A,AIRPORT,'Z40,ANCHORAGE,GOOSE BAY,GOOSE BAY,PUBLIC,PUBLIC,ALASKA DOT&PF CENTRAL REGION,PO BOX 196900,"ANCHORAGE, AK 99519",907-269-0782,STEVE BANSE,907-745-2159
50280.2,A,AIRPORT,'GSZ,NOME,GRANITE MOUNTAIN,GRANITE MOUNTAIN AS,US AIR FORCE,PRIVATE,USAF 611TH AIR SPPT GRP,"20TH ST, SUITE 302","JBER, AK 99506",907-552-3442,"LAURA KEISER, REALTY OFFICER",907- 552-8757
50280.69,A,AIRPORT,'KGX,KUSKOKWIM,GRAYLING,GRAYLING,PUBLIC,PUBLIC,ALASKA DOT&PF NORTHERN REGION,2301 PEGER RD,"FAIRBANKS, AK 99709",907-451-2200,ERIC WEINGARTH,907-438-2416
50281,A,AIRPORT,'GKN,VALDEZ-CHITNA-WHITIE,GULKANA,GULKANA,PUBLIC,PUBLIC,ALASKA DOT&PF NORTHERN REGION,2301 PEGER RD,"FAIRBANKS, AK 99701",907-451-2200,JOHN HOFFMAN,907-822-3222
50281.01,A,AIRPORT,'8AK1,VALDEZ-CORDOVA,GULKANA,JACOBUS FIELD,PRIVATE,PRIVATE,MITCHELL JACOBUS,HC01 BOX 1974,"GLENN ALLEN, AK 99588",907-350-0047,MITCHELL JACOBUS,907-350-0047
50284,A,AIRPORT,'GST,SKAGWAY-YAKUTAT,GUSTAVUS,GUSTAVUS,PUBLIC,PUBLIC,ALASKA DOT&PF SOUTHCOAST REGION,6860 GLACIER HWY,"JUNEAU, AK 99801",907-465-1786,JEFF JARVIS,907-697-2251
50296.01,A,AIRPORT,'18AA,HAINES,HAINES,18 MEADOWS AERODROME,PRIVATE,PRIVATE,GERALD & NANCY FILIPEK,59734 GLACIER CLUB DR,"WASHINGTON, MI 48094",907-767-5776,NO ON SITE PERSONNEL,907-767-5776
50296.02,H,HELIPORT,'AA35,HAINES,HAINES,35 MILE LODGE,PRIVATE,PRIVATE,MICHAEL WILSON,8484 DURAN CT,"JUNEAU, AK 99801",907-209-0845,MICHAEL WILSON,907-209-0845
50296.2,H,HELIPORT,'0AA6,HAINES,HAINES,BIG SALMON,PRIVATE,PRIVATE,SCOTT SUNDBERG & NICHOLAS TRIMBLE,BIG SALMON VENTURES LLC BOX 1368,"HAINES, AK 99827",907-314-0445,,
50296.1,C,SEAPLANE BASE,'3Z9,HAINES,HAINES,HAINES,PUBLIC,PUBLIC,HAINES BOROUGH,PO BOX 1209,"JUNEAU, AK 99827",907-465-1786,HARBORMASTER,907-766-2448
50296,A,AIRPORT,'HNS,HAINES,HAINES,HAINES,PUBLIC,PUBLIC,ALASKA DOT&PF SOUTHCOAST REGION,PO BOX 112506,"JUNEAU, AK 99811",907-465-1786,MATT BORON,907-766-2340
50300.1,A,AIRPORT,'AK74,KOBUK,HANNUM CREEK,UPPER HANNUM CREEK,PRIVATE,PRIVATE,NEAL FOSTER,PO BOX 1633,"NOME, AK 99762",907-443-5036,NEAL FOSTER,907-443-5036
50303,C,SEAPLANE BASE,'HWI,SKAGWAY-YAKUTAT,HAWK INLET,HAWK INLET,PRIVATE,PRIVATE,HECLA GREENS CREEK MINING COMPANY,PO BOX 32199,"JUNEAU, AK 99803",907-790-8474,JENNIFER SARAN,907-790-8474
50308.01,H,HELIPORT,'7AK7,YUKON-KOYUKUK,HEALY,ERA DENALI,PRIVATE,PRIVATE,ERA HELICOPTERS LLC,6160 CARL BRADY DR,"ANCHORAGE, AK 99502",907-550-8600,ERA HELICOPTERS LLC,907-550-8600
50308,A,AIRPORT,'HRR,YUKON-KOYUKUK,HEALY,HEALY RIVER,PUBLIC,PUBLIC,ALASKA DOT&PF NORTHERN REGION,2301 PEGER RD,"FAIRBANKS, AK 99709",907-451-2200,TOM WILLIAMS,907-451-5280
50310.15,A,AIRPORT,'AK33,ALEUTIAN ISLANDS,HERENDEEN BAY,HERENDEEN BAY,PRIVATE,PRIVATE,MILDRED JOHNSON,GENERAL DELIVERY,"NELSON LAGOON, AK 99571",,HAROLD JOHNSON,
50310.4,A,AIRPORT,'2AK5,CORDOVA-MCCARTHY,HINCHINBROOK,JOHNSTONE POINT,PUBLIC,PRIVATE,US GOVT DOT FAA,"222 W 7TH AVE, PO BOX 14","ANCHORAGE, AK 99513",,FAA CORDOVA,907-424-3527
50312.5,A,AIRPORT,'2AK6,YUKON-KOYUKUK,HOGATZA,HOG RIVER,PRIVATE,PRIVATE,TAIGA MINING COMPANY INC.,PO BOX 113108,"ANCHORAGE, AK 99511",907-349-4644,"TAIGA MINING COMPANY, INC.",907-349-4644
50317.3,C,SEAPLANE BASE,'HYL,PRINCE OF WALES,HOLLIS,CLARK BAY,PUBLIC,PUBLIC,ALASKA DOT&PF SOUTHCOAST REGION,6860 GLACIER HWY,"JUNEAU, AK 99801",904-465-1786,TIM LACOUR,907-755-2229
50318,A,AIRPORT,'HCA,KUSKOKWIM,HOLY CROSS,HOLY CROSS,PUBLIC,PUBLIC,ALASKA DOT&PF NORTHERN REGION,2301 PEGER RD,"FAIRBANKS, AK 99709",907-451-2200,ERIK WEINGARTH,907-438-2416
50320.2,A,AIRPORT,'46AK,KENAI PENINSULA,HOMER,BEAR COVE FARM,PRIVATE,PRIVATE,"JACK C. FARNSWORTH, RES TRUST",PO BOX 330,"SOLDOTNA, AK 99669",907-262-4024,NINA F. KERSTEN,480-298-2236
50320.14,A,AIRPORT,'2AK4,KENAI-COOK INLET,HOMER,BOOTLEGGERS COVE,PRIVATE,PRIVATE,DONALD M & MARYANN FELL,BOX 615,"HOMER, AK 99603",907-235-8038,DONALD M FELL,907-235-7771
50320.21,A,AIRPORT,'0AK7,KENAI PENINSULA,HOMER,BRADLEY LAKE HYDROELECTRIC PROJECT AIRSTRI,PRIVATE,PRIVATE,THE ALASKAN ENERGY AUTH,813 W NORTHERN LIGHTS BLVD,"ANCHORAGE, AK 99503",907-771-3000,BRYAN CAREY,907-771-3000
50320.13,A,AIRPORT,'AK18,KENAI-COOK INLET,HOMER,CAMP POINT,PRIVATE,PRIVATE,ERVIN A WITBRD,BOX 150,"KENAI, AK 99611",907-283-3349,,
50320.15,A,AIRPORT,'98AK,KENAI-COOK INLET,HOMER,EASTLAND,PRIVATE,PRIVATE,GLACIERVIEW RANCH LTD PARTNERSHIP,35250 SCHADE DR,"HOMER, AL 99603",907-235-8949,DOUGLAS SCHADE,907-235-8949
50320.12,A,AIRPORT,'AK17,KENAI-COOK INLET,HOMER,GLACIERVIEW STRIP,PRIVATE,PRIVATE,GLACIERVIEW FARM LTD PARTNERSHIP,35250 SHADY DR,"HOMER, AK 99603",907-235-8949,DOUGLAS B. SCHADE,907-235-8949
50320,A,AIRPORT,'HOM,KENAI-COOK INLET,HOMER,HOMER,PUBLIC,PUBLIC,ALASKA DOT&PF CENTRAL REGION,PO BOX 196900,"ANCHORAGE, AK 99519",907-269-0783,KEVIN JONES,907-235-8872
50320.1,C,SEAPLANE BASE,'5BL,KENAI-COOK INLET,HOMER,HOMER-BELUGA LAKE,PUBLIC,PUBLIC,ALASKA DOT&PF CENTRAL REGION,PO BOX 196900,"ANCHORAGE, AK 99519",907-269-0555,KEVIN JONES,907-235-8872
50320.16,H,HELIPORT,'4AA4,KENAI PENINSULA,HOMER,SOUTH PENINSULA HOSPITAL,PRIVATE,PRIVATE,KENAI PENINSULA BOROUGH,144 N BINKLEY ST,"SOLDOTNA, AK 99669",907-262-4441,SOUITH PENINSULA HOSPITAL,907-235-0351
50321,C,SEAPLANE BASE,'OOH,SKAGWAY-YAKUTAT,HOONAH,HOONAH,PUBLIC,PUBLIC,ALASKA DOT&PF SOUTHCOAST REGION,6860 GLACIER HWY,"JUNEAU, AK 99801",907-945-3222,KEN MESERVE,907-945-3423
50321.01,A,AIRPORT,'HNH,JUNEAU,HOONAH,HOONAH,PUBLIC,PUBLIC,ALASKA DOT&PF SOUTHCOAST REGION,PO BOX 112506,"JUNEAU, AK 99811",907-465-1786,KEN MESERVE,907-945-3426
50322,A,AIRPORT,'HPB,KUSILVAK,HOOPER BAY,HOOPER BAY,PUBLIC,PUBLIC,ALASKA DOT&PF CENTRAL REGION,PO BOX 196900,"ANCHORAGE, AK 99519",907-269-0749,LAWRENCE DAVIS,907-543-2498
50324,A,AIRPORT,'5HO,SEWARD,HOPE,HOPE,PUBLIC,PUBLIC,ALASKA DOT&PF CENTRAL REGION,PO BOX 196900,"ANCHORAGE, AK 99519",907-338-1466,DREW MOTSINGER,907-269-5672
50324.6,A,AIRPORT,'4Z5,SOUTHEAST FAIRBANKS,HORSFELD,HORSFELD,PUBLIC,PUBLIC,PUBLIC DOMAIN,,,,,
50325.02,A,AIRPORT,'AK89,MATANUSKA-SUSITNA,HOUSTON,BLACK SPRUCE,PRIVATE,PRIVATE,WILLIAM & SHELLY STEWART,PO BOX 669,"WILLOW, AK 99688",907-892-0312,WILLIAM & SHELLY STEWART,907-892-0312
50325.03,A,AIRPORT,'AA33,MATANUSKA-SUSITNA,HOUSTON,GUS LANDING,PRIVATE,PRIVATE,RICHARD NOBLE,275 HOYT ST,"ANCHORAGE, AK 99508",907-529-9803,DOYLE REYNOLDS,907-232-4819
50325.05,C,SEAPLANE BASE,'80AK,MATANUSKA-SUSITNA,HOUSTON,MORVRO LAKE,PRIVATE,PRIVATE,LINDA & GLEN TILGHMAN,PO BOX 940262,"HOUSTON, AK 99694",907-892-3608,GLEN TILGHMANN,907-892-3608
50325.01,A,AIRPORT,'AK29,MATANUSKA-SUSITNA,HOUSTON,REIDS LANDING,PRIVATE,PRIVATE,ROBERT REID,PO BOX 520802,"BIG LAKE, AK 99652",907-892-6192,ROBERT REID,907-892-6192
50325,A,AIRPORT,'13AK,MATANUSKA-SUSITNA,HOUSTON,SATTERBERGS,PRIVATE,PRIVATE,WILLIAM R SATTERBERG,709 4TH AVE," FAIRBANKS, AK 99701",907-452-4454,WILLIAM R SATTERBERG,907-452-4454
50325.04,A,AIRPORT,'AA30,MATANUSKA-SUSITNA,HOUSTON,TRIO ESTATES,PRIVATE,PRIVATE,OLGA ROGERS,7657 E 20TH AVE,"ANCHORAGE, AK 99504",907-337-3304,OLGA  ROGERS,907-317-8992
50328,A,AIRPORT,'HUS,YUKON-KOYUKUK,HUGHES,HUGHES,PUBLIC,PUBLIC,ALASKA DOT&PF NORTHERN REGION,2301 PEGER RD,"FAIRBANKS, AK 99709",907-451-5280,TOM WILLIAMS,907-451-5280
50330.1,A,AIRPORT,'HLA,YUKON-KOYUKUK,HUSLIA,HUSLIA,PUBLIC,PUBLIC,ALASKA DOT&PF NORTHERN REGION,2301 PEGER RD,"FAIRBANKS, AK 99709",907-451-5280,TOM WILLIAMS,907-451-5280
50335,C,SEAPLANE BASE,'HYG,PRINCE OF WALES,HYDABURG,HYDABURG,PUBLIC,PUBLIC,ALASKA DOT&PF SOUTHCOAST REGION,6860 GLACIER HWY,"JUNEAU, AK 99801",907-465-1786,TIM LACOUR,907-755-2229
50336,C,SEAPLANE BASE,'4Z7,KETCHIKAN GATEWAY,HYDER,HYDER,PUBLIC,PUBLIC,ALASKA DOT&PF SOUTHCOAST REGION,6860 GLACIER HWY,"JUNEAU, AK 99801",907-465-1786,PAUL KHERA,907-465-1786
50336.6,A,AIRPORT,'19AK,SKAGWAY-YAKUTAT,ICY BAY,ICY BAY,PUBLIC,PRIVATE,ALASKA MENTAL HEALTH TRUST,"2600 CORDOVA ST, SUITE 100","ANCHORAGE, AK 99503",907-269-8658,TRUST LAND OFFICE,907-269-8658
50337,A,AIRPORT,'2AK8,BARROW,ICY CAPE,ICY CAPE AFS,PUBLIC,PRIVATE,US OFFICE OF NAVAL RESEARCH,ARCTIC RESEARCH SITE,"POINT BARROW, AK 99723",,ARCTIC RESEARCH LAB,
50338,A,AIRPORT,'IGG,BRISTOL BAY,IGIUGIG,IGIUGIG,PUBLIC,PUBLIC,ALASKA DOT&PF SOUTHCOAST REGION,PO BOX 196900,"ANCHORAGE, AK 99519",907-269-0760,CLINT ANELON,907-571-1261
50340,A,AIRPORT,'ILI,BRISTOL BAY,ILIAMNA,ILIAMNA,PUBLIC,PUBLIC,ALASKA DOT&PF SOUTHCOAST REGION,PO BOX 112506,"JUNEAU, AK 99811",907-465-1779,CLINT ANELON,907-571-1261
50340.8,A,AIRPORT,'2AK9,KOBUK,INDEPENDENCE CREEK,INDEPENDENCE CREEK,PRIVATE,PRIVATE,REINHART BERG,,"CANDLE, AK",,,
50353,C,SEAPLANE BASE,'KIB,LAKE AND PENINSULA,IVANOF BAY,IVANOF BAY,PUBLIC,PUBLIC,PUBLIC DOMAIN,,,,,
50360,A,AIRPORT,'4Z9,KENAI-COOK INLET,JAKOLOF BAY,JAKOLOF BAY,PUBLIC,PUBLIC,PUBLIC DOMAIN,,,,,
50363,A,AIRPORT,'AK60,BRISTOL BAY,JENSENS,FORT JENSEN,PRIVATE,PRIVATE,RICHARD JENSEN,4230 EDINBURGH DR,"ANCHORAGE, AK 99502",,RICHAND JENSEN,907-243-6667
50385.01,H,HELIPORT,'AK94,JUNEAU,JUNEAU,ALASCOM/COASTAL LENA POINT,PRIVATE,PRIVATE,ALASCOM,8995 YANDUKIN DR,"JUNEAU, AK 99801",907-789-5318,MIKE RAWSON,907-789-5600
50385.02,H,HELIPORT,'AA44,JUNEAU,JUNEAU,BARLETT REGIONAL HOSPITAL,PUBLIC,PRIVATE,CITY/BOROUGH OF JUNEAU,3260 HOSPITAL DR,"JUNEAU, AK 99801",907-796-8900,"MARC WALKER, FACILITES MGR",907-796-8900
50385.05,C,SEAPLANE BASE,'5Z1,JUNEAU,JUNEAU,JUNEAU HARBOR,PUBLIC,PUBLIC,CITY AND BOROUGH OF JUNEAU,155 S SEWARD ST,"JUNEAU, AK 99801",907-586-5240,DAVID BORG--HARBOR MASTER,907-586-5255
50385,A,AIRPORT,'JNU,JUNEAU,JUNEAU,JUNEAU INTL,PUBLIC,PUBLIC,CITY OF JUNEAU,155 S SEWARD ST,"JUNEAU, AK 99801",907-789-7821,PATTY WAHTO,907-789-7821
50385.2,H,HELIPORT,'18AK,JUNEAU,JUNEAU,NORTH DOUGLAS,PRIVATE,PRIVATE,ERA HELICOPTERS LLC,6160 CARL BRADY DR,"ANCHORAGE, AK 99502",907-550-8600,ANCHORAGE OPERATIONS,907-550-8600
50385.06,H,HELIPORT,'73AK,ALEUTIAN ISLANDS,JUNEAU,YANKEE COVE,PRIVATE,PRIVATE,MARION HOBBS,PO BOX 210447,"AUKE BAY, AK 99821",907-723-9800,NAOMI HOBBS,907-723-8245
50393,C,SEAPLANE BASE,'KAE,WRANGELL-PETERSBURG,KAKE,KAKE,PUBLIC,PUBLIC,CITY OF KAKE,PO BOX 500,"KAKE, AK 99830",907-785-3804,CITY OF KAKE HARBORMASTER,907-785-3804
50393.01,A,AIRPORT,'AFE,WRANGELL-PETERSBURG,KAKE,KAKE,PUBLIC,PUBLIC,ALASKA DOT&PF SOUTHCOAST REGION,PO BOX 112506,"JUNEAU, AK 99811",907-465-1786,PAUL KHERA,907-465-1786
50395,A,AIRPORT,'8AK7,NORTH SLOPE,KAKTOVIK,BULLEN POINT AIR FORCE STATION,US AIR FORCE,PRIVATE,US AIR FORCE,"10471 20TH ST, SUITE 361","ELMENDORF AFB, AK 99506",907-552-3442,"NICK HILTON,",907-552-4400
50395.01,A,AIRPORT,'1KC,YUKON-KOYUKUK,KALAKAKET CREEK,KALAKAKET CREEK AS,US AIR FORCE,PRIVATE,US AIR FORCE,"10471 20TH ST, SUITE 302","ELMENDORF AFB, AK 99506",907-552-3442,JOHN SMITH,907-552-8757
50397,A,AIRPORT,'KLG,KUSKOKWIM,KALSKAG,KALSKAG,PUBLIC,PUBLIC,ALASKA DOT&PF CENTRAL REGION,PO BOX 196900,"ANCHORAGE, AK 99519",907-269-0749,RICHARD CILETTI,907-675-4345
50398,A,AIRPORT,'KAL,YUKON-KOYUKUK,KALTAG,KALTAG,PUBLIC,PUBLIC,ALASKA DOT&PF NORTHERN REGION,2301 PEGER RD,"FAIRBANKS, AK 99701",907-451-5280,TOM WILLIAMS,907-451-5280
50398.7,H,HELIPORT,'5Z4,BRISTOL BAY,KANAKANAK,ANS HOSPITAL,PUBLIC,PUBLIC,INDIAN HEALTH SERVICES,,,,MAINTANENCE SUPERINTENDANT,907-842-5201
50399,A,AIRPORT,'5Z5,DENALI,KANTISHNA,KANTISHNA,PUBLIC,PUBLIC,ALASKA DOT&PF NORTHERN REGION,2301 PEGER RD,"FAIRBANKS, AK 99709",907-451-2200,TOM WILLIAMS,907-451-5280
50399.1,A,AIRPORT,'Z90,YUKON-KOYUKUK,KANTISHNA,STAMPEDE,PUBLIC,PUBLIC,US PARK SERVICE,PO BOX 9,"DENALI PARK, AK 99755",907-683-2294,"SUPERINTENDENT, DENALI NAT. PARK",907-683-9581
50399.7,A,AIRPORT,'KYK,KODIAK ISLAND,KARLUK,KARLUK,PUBLIC,PUBLIC,ALASKA DOT&PF SOUTHCOAST REGION,BOX 196900,"ANCHORAGE, AK 99519",907-269-0760,ROBERT GREENE,907-487-4952
50399.71,C,SEAPLANE BASE,'KKL,KODIAK ISLAND,KARLUK LAKE,KARLUK LAKE,PUBLIC,PUBLIC,USFWS US FISH & WILDLIFE SERVICE,1390 BUSKIN RIVER RD,"KODIAK, AK 99811",907-487-2600,GARY WHEELER USF&W,907-487-2600
50400,C,SEAPLANE BASE,'KXA,PRINCE OF WALES,KASAAN,KASAAN,PUBLIC,PUBLIC,ALASKA DOT&PF SOUTHCOAST REGION,6860 GLACIER HWY,"JUNEAU, AK 99801",907-465-1786,TIM LACOUR,907-755-2229
50405.5,A,AIRPORT,'Z09,BETHEL,KASIGLUK,KASIGLUK,PUBLIC,PUBLIC,ALASKA DOT&PF CENTRAL REGION,PO BOX 196900,"ANCHORAGE, AK 99519",907-269-0760,LAWRENCE DAVIS,907-543-2498
50406.2,C,SEAPLANE BASE,'AK5,KENAI-COOK INLET,KASILOF,ENCELEWSKI LAKE,PUBLIC,PUBLIC,STATE OF AK DNR,"550 W 7TH AVE, SUITE 1260","ANCHORAGE, AK 99501",907-269-8400,DERRY THOMPSON,907-260-2087
50406,A,AIRPORT,'5KS,KENAI-COOK INLET,KASILOF,KASILOF,PUBLIC,PUBLIC,ALASKA DOT&PF CENTRAL REGION,BOX 196900,"ANCHORAGE, AK 99519",907-269-0767,SEAN MONTGOMERY/CARL HIGH,907-262-2199
50407.3,C,SEAPLANE BASE,'5Z9,BRISTOL BAY,KATMAI NATIONAL PARK,LAKE BROOKS,PUBLIC,PUBLIC,US DEPT OF INTERIOR,NATL PL SVC FEDERAL BLDG,"ANCHORAGE, AK 99502",,PUBLIC PARK SUPT.,907-246-3305
50409.11,A,AIRPORT,'RK1,NORTH SLOPE,KAVIK RIVER,KAVIK STRIP,PRIVATE,PUBLIC,KAVIK RIVER CAMP,"3875 GEIST RD, SUITE E267","FAIRBANKS, AK 99709",404-857-4707,SUSAN AIKENS,404-857-4707
50410.19,A,AIRPORT,'6AK3,KENAI-COOK INLET,KENAI,BUTLER AVIATION,PRIVATE,PRIVATE,PACIFIC ALASKA SHELLFISH,PO BOX 7498,"NIKISKI, AK 99635",907-776-8050,RUSTY ROESSLER,425-334-0883
50410.12,A,AIRPORT,'8AK2,KENAI PENINSULA,KENAI,CARTY'S AIRSTRIP,PRIVATE,PRIVATE,PATRICK E CARTY,PO BOX 2913,"KENAI, AK 96111",907-776-8811,PATRICK E CARTY,907-776-8811
50410.16,A,AIRPORT,'30AK,KENAI PENINSULA,KENAI,DOYLE ESTATES,PRIVATE,PRIVATE,JAMES H; JAMES C; & T M DOYLE,PO BOX 582,"KENAI, AK 99611",907-283-7655,KEVIN DOYLE,907-252-5520
50410.11,A,AIRPORT,'3AK5,KENAI-COOK INLET,KENAI,DRIFT RIVER,PRIVATE,PRIVATE,COOK INLET PIPELINE CO,PO BOX 244027,"ANCHORAGE, AK 99524",907-263-7990,ROD FICKEN,907-263-7990
50410.22,A,AIRPORT,'75AK,KENAI PENINSULA,KENAI,HENLEY,PRIVATE,PRIVATE,SAMUEL C. HENLEY,42311 KENAI SPUR HWY,"KENAI, AK 99611",907-283-4257,DALE MMORE,907-283-4350
50410.13,C,SEAPLANE BASE,'2R3,KENAI PENINSULA,KENAI,ISLAND LAKE,PUBLIC,PUBLIC,PUBLIC DOMAIN,,,,PATRICK E. CARTY,
50410.21,C,SEAPLANE BASE,'03AK,ALEUTIAN ISLANDS,KENAI,JOE CLOUDS,PRIVATE,PRIVATE,JOSEPH CLOUD,PO BOX 7066,"NIKISHKA, AK 99635",907-776-8660,JOSEPH CLOUD,907-776-8660
50410.17,A,AIRPORT,'3AK4,KENAI-COOK INLET,KENAI,JOHNSON,PRIVATE,PRIVATE,KENAI FLOATPLANE SVC,BOX 1267,"KENAI, AK 99611",907-283-4761,WARREN JOHNSON,907-283-4761
50410,A,AIRPORT,'ENA,KENAI-COOK INLET,KENAI,KENAI MUNI,PUBLIC,PUBLIC,CITY OF KENAI,210 FIDALGO ST,"KENAI, AK 99611",907-283-7951,MARY BONDURANT,907-283-7951
50410.24,H,HELIPORT,'82AK,KENAI PENINSULA,KENAI,PRL LOGISTICS,PRIVATE,PRIVATE,PRL LOGISTICS INC,"421 W 1ST AVE, SUITE 250","ANCHORAGE, AK 99501",907-251-9440,RONALD B HYDE JR,907-261-9498
50412.01,H,HELIPORT,'17AK,KETCHIKAN GATEWAY,KETCHIKAN,KETCHIKAN /TEMSCO H/,PRIVATE,PRIVATE,TEMSCO HELIC,BOX 5057,"KETCHIKAK, AK 99901",907-225-5141,JOSEPH R. HICKS,907-225-5141
50412.04,C,SEAPLANE BASE,'5KE,KETCHIKAN GATEWAY,KETCHIKAN,KETCHIKAN HARBOR,PRIVATE,PUBLIC,PROMECH AIR,1515 TONGASS AVE,"KETCHIKAN, AK 99901",907-225-3845,,
50412.03,A,AIRPORT,'KTN,KETCHIKAN GATEWAY,KETCHIKAN,KETCHIKAN INTL,PUBLIC,PUBLIC,ALASKA DOT&PF SOUTHCOAST REGION,6860 GLACIER HWY,"JUNEAU, AK 99801",907-465-1786,MIKE CARNEY,907-225-6800
50412.15,H,HELIPORT,'8AK4,KETCHIKAN GATEWAY,KETCHIKAN,MCCUES,PRIVATE,PRIVATE,RYAN MCCUE,4743 N TONGASS HWY,"KETCHIKAN, AK 99901",907-225-1974,RYAN MCCUE,907-225-1974
50412.1,C,SEAPLANE BASE,'8K9,KETCHIKAN GATEWAY,KETCHIKAN,MURPHYS PULLOUT,PUBLIC,PUBLIC,KETCHIKAN GATEWAY BOROUGH,1000 AIRPORT TERMINAL WAY,"KETCHIKAN, AK 99901",907-225-6800,MIKE CARNEY,907-225-6800
50412,C,SEAPLANE BASE,'9C0,KETCHIKAN GATEWAY,KETCHIKAN,PENINSULA POINT PULLOUT,PUBLIC,PUBLIC,STATE OF AK DOTPF SE REG,"6860 GLACIER HWY, PO BOX 112506","JUNEAU, AK 99801",904-465-1786,LOREN STARR,907-225-2513
50412.22,H,HELIPORT,'3AK0,JUNEAU,KETCHIKAN,WOLFE POINT,PRIVATE,PRIVATE,US COAST GUARD,709 W 9TH ST,"JUNEAU, AK 99801",907-463-2189,US COAST GUARD AIR STATION SITKA,907-966-5420
50412.9,A,AIRPORT,'IAN,KOBUK,KIANA,BOB BAKER MEMORIAL,PUBLIC,PUBLIC,ALASKA DOT&PF NORTHERN REGION,2301 PEGER RD,"FAIRBANKS, AK 99709",907-451-2200,ALVIN WERNEKE,907-442-3147
50414.1,A,AIRPORT,'KVC,ALEUTIAN ISLANDS,KING COVE,KING COVE,PUBLIC,PUBLIC,ALASKA DOT&PF SOUTHCOAST REGION,1500 ANTON LARSON RD,"KODIAK, AK 99615",907-487-4952,"HAROLD ""HAP"" KREMER",907-532-5000
50416,A,AIRPORT,'AKN,BRISTOL BAY,KING SALMON,KING SALMON,PUBLIC,PUBLIC,ALASKA DOT&PF SOUTHCOAST REGION,PO BOX 112500,"JUNEAU, AK 99811",907-465-4512,KYLER HYLTON,907-246-3325
50416.31,A,AIRPORT,'IIK,BETHEL,KIPNUK,KIPNUK,PUBLIC,PUBLIC,ALASKA DOT&PF CENTRAL REGION,PO BOX 196900,"ANCHORAGE, AK 99519",907-269-0747,LJ DAVIS,907-543-2495
50416.6,C,SEAPLANE BASE,'KKB,KODIAK ISLAND,KITOI BAY,KITOI BAY,PUBLIC,PUBLIC,AFOGNAK NATIVE CORP,"215 MISSION RD, SUITE 212","KODIAK, AK 99615",,KODIAK REGIONAL AQUACULTURE ASSOC.,877-628-4449
50417,A,AIRPORT,'KVL,NORTHWEST ARCTIC,KIVALINA,KIVALINA,PUBLIC,PUBLIC,ALASKA DOT&PF NORTHERN REGION,2301 PEGER RD,"FAIRBANKS, AK 99709",907-451-2200,ALVIN WERNEKE,907-442-3147
50420,C,SEAPLANE BASE,'AQC,PRINCE OF WALES,KLAWOCK,KLAWOCK,PUBLIC,PUBLIC,CITY OF KLAWOCK,PO BOX 469,"KLAWOCK, AK 99925",907-465-1786,CITY OF KLAWOCK,
50420.01,A,AIRPORT,'AKW,PRINCE OF WALES,KLAWOCK,KLAWOCK,PUBLIC,PUBLIC,ALASKA DOT&PF SOUTHCOAST REGION,PO BOX 112506,"JUNEAU, AK 99811",907-465-1786,TIM LACOUR,907-755-2229
50422.1,A,AIRPORT,'OBU,KOBUK,KOBUK,KOBUK,PUBLIC,PUBLIC,ALASKA DOT&PF NORTHERN REGION,2301 PEGER RD,"FAIRBANKS, AK 99709",907-451-2200,ALVIN WERNEKE,907-442-3147
50425,A,AIRPORT,'ADQ,KODIAK ISLAND,KODIAK,KODIAK,PUBLIC,PUBLIC,ALASKA DOT&PF SOUTHCOAST REGION,PO BOX 112500,"JUNEAU, AK 99811",907-465-4512,BRUCE MCNEIL,907-487-4952
50424,C,SEAPLANE BASE,'9Z3,KODIAK ISLAND,KODIAK,KODIAK /LILLY LAKE/,PUBLIC,PUBLIC,CITY OF KODIAK PUBLIC WORKS,2410 MILL BAY RD,"KODIAK, AK 99615",907-486-8060,MARK KOZAK,907-486-8060
50423,A,AIRPORT,'KDK,KODIAK ISLAND,KODIAK,KODIAK MUNI,PUBLIC,PUBLIC,CITY OF KODIAK PUBLIC WORKS,2410 MILL BAY RD,"KODIAK, AK 99615",907-486-8060,MARK KOZAK,907-486-8060
50425.1,C,SEAPLANE BASE,'T44,KODIAK ISLAND,KODIAK,TRIDENT BASIN,PUBLIC,PUBLIC,CITY OF KODIAK PUBLIC WORKS,2410 MILL BAY RD,"KODIAK, AK 99615",907-486-8060,PUBLIC WORKS DIRECTOR,907-486-8060
50426.25,A,AIRPORT,'9K2,LAKE AND PENINSULA,KOKHANOK,KOKHANOK,PUBLIC,PUBLIC,ALASKA DOT&PF SOUTHCOAST REGION,PO BOX 196900,"ANCHORAGE, AK 99519",907-269-0747,CLINT ANELON,907-571-1261
50426.4,A,AIRPORT,'JZZ,BRISTOL BAY,KOLIGANEK,KOLIGANEK,PUBLIC,PUBLIC,ALASKA DOT&PF CENTRAL REGION,PO BOX 196900,"ANCHORAGE, AK 99519",907-269-0749,NORMAN HEYANO,907-842-5511
50426.6,A,AIRPORT,'DUY,BETHEL,KONGIGANAK,KONGIGANAK,PUBLIC,PUBLIC,ALASKA DOT&PF CENTRAL REGION,PO BOX 196900,"ANCHORAGE, AK 99519",907-269-0749,LAWERENCE DAVIS,907-543-2495
50427.61,A,AIRPORT,'2A9,KUSILVAK,KOTLIK,KOTLIK,PUBLIC,PUBLIC,ALASKA DOT&PF NORTHERN REGION,2301 PEGER RD,"FAIRBANKS, AK 99709",907-451-2200,JOHN WILSON,907-625-1025
50429,A,AIRPORT,'OTZ,KOBUK,KOTZEBUE,RALPH WIEN MEMORIAL,PUBLIC,PUBLIC,ALASKA DOT&PF NORTHERN REGION,2301 PEGER RD,"FAIRBANKS, AK 99701",907-451-5250,ALVIN WERNEKE,907-442-3147
50433.2,A,AIRPORT,'KKA,NOME,KOYUK,KOYUK ALFRED ADAMS,PUBLIC,PUBLIC,ALASKA DOT&PF NORTHERN REGION,2301 PEGER RD,"FAIRBANKS, AK 99709",907-451-2200,JOHN WILSON,907-625-1025
50436,A,AIRPORT,'KYU,YUKON-KOYUKUK,KOYUKUK,KOYUKUK,PUBLIC,PUBLIC,ALASKA DOT&PF NORTHERN REGION,2301 PEGER RD,"FAIRBANKS, AK 99709",907-451-5280,TOM WILLIAMS,907-451-5280
50437,A,AIRPORT,'LKK,BRISTOL BAY,KULIK LAKE,KULIK LAKE,PUBLIC,PUBLIC,NPS KATMAI NATL PARK,PO BOX 7,"KING SALMON, AK 99613",907-246-3305,PUBLIC PARK SUPT.,907-246-3305
50437.53,H,HELIPORT,'AA38,NORTH SLOPE,KUPARUK,NIKAITCHUQ OPERATIONS CENTER,PRIVATE,PRIVATE,ENI PETROLEUM,"3800 CENTERPOINT DR, SUITE 300","ANCHORAGE, AK 99503",907-865-3351,MAC RAIL: LOGISTICS MGR - ALASKA,907-865-3351
50437.52,H,HELIPORT,'27AK,BARROW,KUPARUK,PAD-66,PRIVATE,PRIVATE,"CONOCO PHILLIPS ALASKA, INC",PO BOX 196105,"ANCHORAGE, AK 99515",907-659-7213,GARY EOFF,907-659-7448
50437.54,H,HELIPORT,'AA51,NORTH SLOPE,KUPARUK,SPY ISLAND DRILL-SITE,PRIVATE,PRIVATE,ENI PETROLEUM,"3800 CENTERPOINT DR, SUITE 300","ANCHORAGE, AK 99503",907-865-3351,MAC RAIL: LOGISTICS MGR - ALASKA,907-865-3351
50437.51,A,AIRPORT,'UBW,NORTH SLOPE,KUPARUK,UGNU-KUPARUK,PRIVATE,PRIVATE,PHILLIPS ALASKA INC.,PO BOX 100360,"ANCHORAGE, AK 99510",907-263-4393,GARY EOFF/RON ROGOSKY,907-659-7448
50438.5,A,AIRPORT,'KWT,BETHEL,KWETHLUK,KWETHLUK,PUBLIC,PUBLIC,ALASKA DOT&PF CENTRAL REGION,PO BOX 196900,"ANCHORAGE, AK 99519",907-269-0749,LAWRENCE DAVIS,907-543-2498
50438.61,A,AIRPORT,'GGV,BETHEL,KWIGILLINGOK,KWIGILLINGOK,PUBLIC,PUBLIC,KWIK INCORPORATED,PO BOX 50,"KWIGILLINGOK, AK 99622",907-588-8112,LAWERENCE DAVIS,907-543-2498
50439,A,AIRPORT,'Z55,VALDEZ-CHITNA-WHITIE,LAKE LOUISE,LAKE LOUISE,PUBLIC,PUBLIC,ALASKA DOT&PF NORTHERN REGION,2301 PEGER RD,"FAIRBANKS, AK 99701",907-451-2200,JOHN HOFFMAN,907-822-3222
50439.1,C,SEAPLANE BASE,'13S,VALDEZ-CHITNA-WHITIE,LAKE LOUISE,LAKE LOUISE,PRIVATE,PUBLIC,EVERGREEN LODGE,HC1 BOX 1760,"GLENNALLEN, AK 99588",907-822-3250,DENNIS OAKLAND,907-822-3250
50439.18,A,AIRPORT,'AK80,MATANUSKA-SUSITNA,LAKE LOUISE,RED CREEK,PRIVATE,PRIVATE,MINING SHARED SERVICES LLC,6341 QUIET CIR,"ANCHORAGE, AK 99502",907-320-0220,DENNIS WALKER,907-229-4709
50439.71,A,AIRPORT,'2A3,ALEUTIAN ISLANDS,LARSEN BAY,LARSEN BAY,PUBLIC,PUBLIC,ALASKA DOT&PF SOUTHCOAST REGION,PO BOX 196900,"ANCHORAGE, AK 99519",907-269-0747,ROBERT GREENE,907-487-4952
50447,A,AIRPORT,'9Z9,KENAI-COOK INLET,LAWING,LAWING,PUBLIC,PUBLIC,ALASKA DOT&PF CENTRAL REGION,PO BOX 196900,"ANCHORAGE, AK 99519",907-269-0770,KARL HORST/CARL HIGH,907-262-2199
50448,C,SEAPLANE BASE,'ALZ,KODIAK ISLAND,LAZY BAY,ALITAK,PRIVATE,PUBLIC,OCEAN BEAUTY,PO BOX 70739,"SEATTLE, WA 98127",206-285-6800,"WOODY KNEVEL, OCEAN BEAUTY",206-285-6800
50449.01,A,AIRPORT,'9Z8,BRISTOL BAY,LEVELOCK,LEVELOCK,PUBLIC,PUBLIC,ALASKA DOT&PF SOUTHCOAST REGION,PO BOX 196900,"ANCHORAGE, AK 99519",907-269-0767,KYLER HYLTON,907-246-3325
50449.5,A,AIRPORT,'2AK,KUSKOKWIM,LIME VILLAGE,LIME VILLAGE,PUBLIC,PUBLIC,ALASKA DOT&PF SOUTHCOAST REGION,PO BOX 196900,"ANCHORAGE, AK 99519",907-745-2102,STEFFEN STRICK,907-524-3241
50449.6,A,AIRPORT,'AK53,BETHEL,LIME VILLAGE,STONY MOUNTAIN LODGE,PRIVATE,PRIVATE,NORTHWARD BOUND LLC,12902 NORA DR,"ANCHORAGE, AK 99515",907-227-6774,KRIS OLDHAM,907-227-6774
50451,A,AIRPORT,'4AK,YUKON-KOYUKUK,LIVENGOOD,LIVENGOOD CAMP,PUBLIC,PUBLIC,ALASKA DOT&PF NORTHERN REGION,2301 PEGER RD,"FAIRBANKS, AK 99709",907-451-2200,JEFF RUSSELL,907-451-2207
50453,A,AIRPORT,'AK71,BARROW,LONELY,LONELY AS,US AIR FORCE,PRIVATE,US AIR FORCE,"10471 20TH ST, SUITE 361","ELMENDORF AFB, AK 99506",907-552-3442,NICK HILTON,907-552-4400
50454.5,A,AIRPORT,'4AK3,VALDEZ-CHITNA-WHITIE,LONG LAKE,LONG LAKE,PRIVATE,PRIVATE,C COLLINS,PO BOX 698,"CORDOVA, AK 99574",,,
50455.6,C,SEAPLANE BASE,'13Z,KETCHIKAN GATEWAY,LORING,LORING,PUBLIC,PUBLIC,KETCHIKAN GATEWAY BOROUGH,"1900 1ST AVE, SUITE 210","KETCHIKAN, AK 99901",907-228-6625,"RICHARD STAGE, CHAIRMAN",907-225-5859
50474,A,AIRPORT,'4AK5,VALDEZ-CHITNA-WHITIE,MANKOMEN LAKE,MANKOMEN LAKE,PRIVATE,PRIVATE,THOMAS R & DIANA M MILLER,BOX 211211,"AUKE BAY, AK 99821",907-789-5253,THOMAS R & DIANA M MILLER,907-789-5253
50475,A,AIRPORT,'MLY,YUKON-KOYUKUK,MANLEY HOT SPRINGS,MANLEY HOT SPRINGS,PUBLIC,PUBLIC,ALASKA DOT&PF NORTHERN REGION,2301 PEGER RD,"FAIRBANKS, AK 99709",907-451-2200,JEFF RUSSELL,907-451-2207
50476,A,AIRPORT,'MBA,BRISTOL BAY,MANOKOTAK,MANOKOTAK,PUBLIC,PUBLIC,ALASKA DOT&PF CENTRAL REGION,PO BOX 196900,"ANCHORAGE, AK 99519",907-269-0749,NORMAN HAYANO,907-842-5511
50480.01,A,AIRPORT,'MDM,KUSILVAK,MARSHALL,MARSHALL DON HUNTER SR,PUBLIC,PUBLIC,ALASKA DOT&PF NORTHERN REGION,2301 PEGER ROAD,"FAIRBANKS, AK 99709",907-451-2200,ERIK WEINGARTH,907-438-2416
50482,A,AIRPORT,'MYK,VALDEZ-CORDOVA,MAY CREEK,MAY CREEK,PUBLIC,PUBLIC,ALASKA DOT&PF NORTHERN REGION,2301 PEGER ROAD,"FAIRBANKS, AK 99701",907-451-2200,JOHN HOFFMAN,907-822-3222
50482.01,A,AIRPORT,'0AK5,VALDEZ-CORDOVA,MAY CREEK,YOUNG CREEK,PRIVATE,PRIVATE,GARY BOSLOUGH,1733 W 13TH AVE,"ANCHORAGE, AK 99501",907-274-5756,GARY BOSLOUGH,907-274-5756
50464.6,A,AIRPORT,'0AK8,CORDOVA-MCCARTHY,MCCARTHY,IVERSON FARM,PRIVATE,PRIVATE,ALFRED CLAYTON JR,"509 L ST, SUITE 200","ANCHORAGE, AK 99501",907-276-2999,ALFRED CLAYTON JR,907-276-2999
50465,A,AIRPORT,'AK0,CORDOVA-MCCARTHY,MCCARTHY,JAKES BAR,PUBLIC,PUBLIC,NPS WRANGELL-ST ELIAS,PO BOX 493,"COPPER CENTER, AK 99573",907-822-7250,DANNY ROSENKRANS,907-822-7240
50464.01,A,AIRPORT,'15Z,CORDOVA-MCCARTHY,MCCARTHY,MCCARTHY,PUBLIC,PUBLIC,ALASKA DOT&PF NORTHERN REGION,2301 PEGER RD,"FAIRBANKS, AK 99709",907-451-2200,JOHN HOFFMAN,907-822-3222
50464.1,A,AIRPORT,'AK31,CORDOVA-MCCARTHY,MCCARTHY,SWIFT CREEK,PRIVATE,PRIVATE,JAMES H. EDWARDS - MC CARTHY 14,PO BOX MXY - #14,"GLENNALLEN, AK 99588",,JAMES H. EDWARDS - MC CARTHY 14,907-554-4414
50466.8,A,AIRPORT,'56AK,KUSKOKWIM,MCGRATH,HINKES,PRIVATE,PRIVATE,MICHAEL T.  HINKES,3550 MOOSE MOUNTAIN RD,"FAIRBANKS, AK 99709",907-376-3226,MICHAEL T.  HINKES,907-376-3226
50467,A,AIRPORT,'MCG,KUSKOKWIM,MCGRATH,MC GRATH,PUBLIC,PUBLIC,ALASKA DOT&PF CENTRAL REGION,PO BOX 196900,"ANCHORAGE, AK 99519",907-269-0782,STEFFEN STRICK,907-524-3241
50467.1,C,SEAPLANE BASE,'16Z,KUSKOKWIM,MCGRATH,MC GRATH,PUBLIC,PUBLIC,PUBLIC DOMAIN,,,,,
50467.01,A,AIRPORT,'AK40,KUSKOKWIM,MCGRATH,NIXON FORK MINE,PRIVATE,PRIVATE,BUREAU OF LAND MANAGEMENT,6881 ABBOTT LOOP RD,"ANCHORAGE, AK 98507",907-267-1246,ANCHORAGE DISTRICT MANAGER,907-267-1246
50470.1,A,AIRPORT,'AK06,YUKON-KOYUKUK,MCKINLEY PARK,DENALI,PRIVATE,PRIVATE,RONALD ROSSO,PO BOX 82,"DENALI NATIONAL PARK, AK 99755",907-748-2800,RONALD ROSSO,907-748-2800
50470,A,AIRPORT,'INR,YUKON-KOYUKUK,MCKINLEY PARK,MC KINLEY NATIONAL PARK,PUBLIC,PUBLIC,US NATIONAL PARK SERVICE,PO BOX 9,"DENALI NATL PARK, AK 99755",907-683-2294,"SUPERINTENDENT, DENALI NAT. PARK",907-683-9581
50485,A,AIRPORT,'24AK,MATANUSKA-SUSITNA,MEADOW LAKES,TOAD LAKE STRIP,PRIVATE,PRIVATE,RICHARD P. ELMQUIST,PO BOX 940232,"HOUSTON, AK 99694",907-892-5767,RICHARD P. ELMQUIST,907-892-5767
50488.5,A,AIRPORT,'MYU,BETHEL,MEKORYUK,MEKORYUK,PUBLIC,PUBLIC,ALASKA DOT&PF CENTRAL REGION,PO BOX 196900,"ANCHORAGE, AK 99519",907-543-2498,LAWRENCE DAVIS,907-543-2498
50489,C,SEAPLANE BASE,'MTM,KETCHIKAN GATEWAY,METLAKATLA,METLAKATLA,PUBLIC,PUBLIC,ALASKA DOT&PF SOUTHCOAST REGION,6860 GLACIER HWY,"JUNEAU, AK 99801",907-465-1786,PAUL KHERA,907-465-1786
50490,C,SEAPLANE BASE,'84K,KETCHIKAN GATEWAY,MEYERS CHUCK,MEYERS CHUCK,PUBLIC,PUBLIC,ALASKA DOT&PF SOUTHCOAST REGION,PO BOX 531,"WRANGELL, AK 99929",907-874-2381,"GREG MEISSNER, HARBOR MASTER",907-874-3736
50492,A,AIRPORT,'MDO,CORDOVA-MCCARTHY,MIDDLETON ISLAND,MIDDLETON ISLAND,PUBLIC,PUBLIC,FAA-KENAI SUPPORT CENTER,427 N WILLOW ST,"KENAI, AK 99611",907-283-4526,"US GOV, FAA KENAI SSC",907-283-4526
50497,A,AIRPORT,'MHM,YUKON-KOYUKUK,MINCHUMINA,MINCHUMINA,PUBLIC,PUBLIC,ALASKA DOT&PF NORTHERN REGION,2301 PEGER RD,"FAIRBANKS, AK 99709",907-451-5280,TOM WILLIAMS,907-451-5280
50498.1,A,AIRPORT,'51Z,YUKON-KOYUKUK,MINTO,MINTO AL WRIGHT,PUBLIC,PUBLIC,ALASKA DOT&PF NORTHERN REGION,2301 PEGER RD,"FAIRBANKS, AK 99709",907-451-2200,JEFF RUSSELL,907-451-2207
50498.8,A,AIRPORT,'0AK3,MATANUSKA-SUSITNA,MONTANA CREEK,PARKER LAKE,PRIVATE,PRIVATE,BOROUGH TAX RECORDS,PO BOX 671029,"CHUGIAK, AK 99567",907-428-6770,ROGER PATCH,907-688-1555
50499,A,AIRPORT,'99AK,KUSKOKWIM,MOORE CREEK,MOORE CREEK,PRIVATE,PRIVATE,DON HARRIS,,"MCGRATH, AK",,,
50500.07,C,SEAPLANE BASE,'52Z,SEWARD,MOOSE PASS,SUMMIT LAKE,PRIVATE,PUBLIC,MARTY ARNOLDY,"SUMMIT LAKE LODGE, MILE 45 1/2 SEWARD HWY","MOOSE PASS, AK 99631",907-244-2031,MARTY ARNOLDY,907-244-2031
50500.7,C,SEAPLANE BASE,'KMY,KODIAK ISLAND,MOSER BAY,MOSER BAY,PRIVATE,PUBLIC,"AKHIOK-KAGUYAK, INC","1400 W BENSON BLVD, SUITE 425","ANCHORAGE, AK 99503",907-258-0604,"AKHIOK-KAGUYAK, INC.",907-258-0604
50502,A,AIRPORT,'MOU,KUSILVAK,MOUNTAIN VILLAGE,MOUNTAIN VILLAGE,PUBLIC,PUBLIC,ALASKA DOT&PF NORTHERN REGION,2301 PEGER RD,"FAIRBANKS, AK 99709",907-451-2200,ERIK WEINGARTH,907-438-2416
50515.1,A,AIRPORT,'IBN,VALDEZ-CHITNA-WHITIE,NABESNA,DEVILS MOUNTAIN LODGE,PRIVATE,PRIVATE,DEVILS MONTAIN LODGE,2211 YORKSHIRE LN,"ANCHORAGE, AK 99504",907-822-5312,KIRK ELLIS,907-339-9329
50516.7,A,AIRPORT,'76Z,BRISTOL BAY,NAKEEN,NAKEEN,PRIVATE,PUBLIC,ATLANTIC & PACIFIC TEA CO,,"NAKEEN, AK",,,
50517.4,A,AIRPORT,'5NK,BRISTOL BAY,NAKNEK,NAKNEK,PUBLIC,PUBLIC,ALASKA DOT&PF SOUTHCOAST REGION,PO BOX 196900,"ANCHORAGE, AK 99519",907-269-0760,KYLER HYLTON,907-246-3325
50517.5,A,AIRPORT,'4AK9,BRISTOL BAY,NAKNEK,TIBBETTS,PRIVATE,PRIVATE,PENINSULA,PO BOX 110,"NAKNEK, AK 99633",,G TIBBETTS,907-246-9220
50519.5,C,SEAPLANE BASE,'78Z,MATANUSKA-SUSITNA,NANCY LAKE,NANCY LAKE,PUBLIC,PUBLIC,"STATE OF ALASKA, DNR","550 W 7TH AVE, SUITE 900C","ANCHORAGE, AK 99501",907-269-8400,"MAT-SU AREA OFFICE, AK STATE PARKS",907-745-3975
50519.81,A,AIRPORT,'AK07,ANCHORAGE,NANWALEK,DOG FISH BAY,PRIVATE,PRIVATE,ENGLISH BAY CORP,"237 E FIREWEED LN, SUITE 200","ANCHORAGE, AK 99503",,ED HERRMAN,
50519.8,A,AIRPORT,'KEB,KENAI-COOK INLET,NANWALEK,NANWALEK,PUBLIC,PUBLIC,ALASKA DOT&PF CENTRAL REGION,PO BOX 196900,"ANCHORAGE, AK 99519",907-269-0767,KEVIN JONES,907-235-5217
50519.9,A,AIRPORT,'4AK8,KUSKOKWIM,NAPAIMUTE,NAPAIMUTE PIONEER AIRFIELD,PRIVATE,PRIVATE,NATIVE VILLAGE OF NAPAIMUTE,PO BOX 1301,"BETHEL, AK 99559",907-545-2877,MARK LEARY,907-545-2877
50520.01,A,AIRPORT,'WNA,BETHEL,NAPAKIAK,NAPAKIAK,PUBLIC,PUBLIC,ALASKA DOT&PF CENTRAL REGION,PO BOX 196900,"ANCHORAGE, AK 99519",907-266-1735,LAWRENCE DAVIS,907-543-2498
50520.18,A,AIRPORT,'PKA,BETHEL,NAPASKIAK,NAPASKIAK,PUBLIC,PUBLIC,ALASKA DOT&PF CENTRAL REGION,PO BOX 196900,"ANCHORAGE, AK 99519",907-269-0747,LAWRENCE DAVIS,907-543-2498
50523.35,A,AIRPORT,'OUL,ALEUTIAN ISLANDS,NELSON LAGOON,NELSON LAGOON,PUBLIC,PUBLIC,ALASKA DOT&PF SOUTHCOAST REGION,PO BOX 112506,"JUNEAU, AK 99811",907-465-1779,"HAROLD ""HAP"" KREMER",907-532-2579
50524,A,AIRPORT,'ENN,YUKON-KOYUKUK,NENANA,NENANA MUNI,PUBLIC,PUBLIC,CITY OF NENANA,PO BOX 70,"NENANA, AK 99760",907-832-5441,JASON MAYRAND,907-832-5501
50528.7,A,AIRPORT,'KNW,BRISTOL BAY,NEW STUYAHOK,NEW STUYAHOK,PUBLIC,PUBLIC,ALASKA DOT&PF CENTRAL REGION,PO BOX 196900,"ANCHORAGE, AK 99519",907-269-0749,NORMAN HEYAN0,907-842-5511
50529,A,AIRPORT,'EWU,BETHEL,NEWTOK,NEWTOK,PUBLIC,PUBLIC,ALASKA DOT&PF CENTRAL REGION,PO BOX 196900,"ANCHORAGE, AK 99519",907-269-0747,DAVID CUMMINGS,907-543-2495
50529.01,C,SEAPLANE BASE,'WWT,BETHEL,NEWTOK,NEWTOK,PUBLIC,PUBLIC,PUBLIC DOMAIN,,,,,
50529.75,A,AIRPORT,'IGT,BETHEL,NIGHTMUTE,NIGHTMUTE,PUBLIC,PUBLIC,ALASKA DOT&PF CENTRAL REGION,PO BOX 196900,"ANCHORAGE, AK 99519",907-269-0747,LAWRENCE DAVIS,907-543-2498
50529.81,A,AIRPORT,'AK73,KENAI-COOK INLET,NIKISHKA,MCGAHAN INDUSTRIAL AIRPARK,PRIVATE,PRIVATE,MAC MCGAHAN,PO BOX 7146,"NIKISKI, AK 99635",907-252-4051,MAC MCGAHAN,907-252-4051
50529.7,A,AIRPORT,'AK11,KENAI-COOK INLET,NIKISKI,HIGH VISTA,PRIVATE,PRIVATE,ROBERT BREEDEN,PO BOX 1107,"STERLING, AK 99672",907-260-2658,"TRY HERE WILD ALASKA, LLC",907-260-2658
50529.78,H,HELIPORT,'1AK5,KENAI PENINSULA,NIKISKI,OFFSHORE SYSTEMS-KENAI,PRIVATE,PRIVATE,OFFSHORE SYSTEMS-KENAI,PO BOX 8505,"NIKISKI, AK 99635",907-776-5551,MIKE PEEK,907-776-5551
50529.9,A,AIRPORT,'FSP,KUSKOKWIM,NIKOLAI,NIKOLAI,PUBLIC,PUBLIC,ALASKA DOT&PF CENTRAL REGION,PO BOX 196900,"ANCHORAGE, AK 99519",907-269-0782,STEFFEN STRICK,907-524-3241
50530,A,AIRPORT,'IKO,ALEUTIAN ISLANDS,NIKOLSKI,NIKOLSKI AS,PRIVATE,PRIVATE,CHALUKA CORPORATION,624 MAIN ST,"JUNEAU, AK 99801",907-561-4300,AAFFA-OL-D (BOB CAPLES),314-263-8041
50533,A,AIRPORT,'NIN,KENAI-COOK INLET,NINILCHIK,NINILCHIK,PUBLIC,PUBLIC,ALASKA DOT&PF CENTRAL REGION,PO BOX 196900,"ANCHORAGE, AK 99519",907-269-0767,SEAN MONTGOMERY/CARL HIGH,907-262-2199
50536.1,A,AIRPORT,'WTK,KOBUK,NOATAK,NOATAK,PUBLIC,PUBLIC,ALASKA DOT&PF NORTHERN REGION,2301 PEGER RD,"FAIRBANKS, AK 99709",907-451-2200,ALVIN WERNEKE,907-442-3147
50540,A,AIRPORT,'OME,NOME,NOME,NOME,PUBLIC,PUBLIC,ALASKA DOT&PF NORTHERN REGION,2301 PEGER RD,"FAIRBANKS, AK 99709",907-443-2500,JOSEPH JOHNSON,907-443-2500
50538,A,AIRPORT,'94Z,NOME,NOME,NOME CITY FIELD,PUBLIC,PUBLIC,ALASKA DOT&PF NORTHERN REGION,2301 PEGER RD,"FAIRBANKS, AK 997019",907-451-5230,JOSEPH JOHNSON,907-443-2500
50540.1,A,AIRPORT,'5NN,BRISTOL BAY,NONDALTON,NONDALTON,PUBLIC,PUBLIC,ALASKA DOT&PF SOUTHCOAST REGION,PO BOX 196900,"ANCHORAGE, AK 99519",907-269-0767,CLINT ANELON,907-571-1261
50541,A,AIRPORT,'D76,NORTHWEST ARCTIC,NOORVIK,ROBERT/BOB/CURTIS MEMORIAL,PUBLIC,PUBLIC,ALASKA DOT&PF NORTHERN REGION,2301 PEGER RD,"FAIRBANKS, AK 99709",907-451-2200,ALVIN WERNEKE,907-442-3147
50543.74,A,AIRPORT,'5AK3,FAIRBANKS NORTH STAR,NORTH POLE,AIRWAY,PRIVATE,PRIVATE,AIRWAY INC,PO BOX 55506,"NORTH POLE, AK 99705",907-488-5502,GENE SCARBORO,907-488-5502
50543.71,A,AIRPORT,'95Z,FAIRBANKS NORTH STAR,NORTH POLE,BRADLEY SKY-RANCH,PRIVATE,PUBLIC,BRADLEY BROTHERS,3007 GOODNEWS ST,"NORTH POLE, AK 99705",907-488-9792,JAMES BRADLEY,907-488-9792
50543.75,A,AIRPORT,'AK41,FAIRBANKS NORTH STAR,NORTH POLE,GREG'N SAGE,PRIVATE,PRIVATE,GREGORY GARRELS & LINDA PATTON,7710 JOHNSON RD,"SALCHA, AK 99714",907-490-6580,GREGORY GARRELS & LINOA PATTON,907-488-1593
50543.72,A,AIRPORT,'5AK2,FAIRBANKS NORTH STAR,NORTH POLE,HOWARDS,PRIVATE,PRIVATE,J HOWARD,PO BOX 55263,"NORTH POLE, AK 99705",,,
50543.77,A,AIRPORT,'78AA,FAIRBANKS NORTH STAR,NORTH POLE,LAKEWOOD,PRIVATE,PRIVATE,LAKEWOOD SUBDIVISION,3978 LAKEWOOD LP,"NORTH POLE, AK 99705",276-698-5787,BRANDON STEPHENS,276-698-5787
50543.7,A,AIRPORT,'0AK0,FAIRBANKS NORTH STAR,NORTH POLE,SCOTTS,PRIVATE,PRIVATE,GORDON & ANDREA SCOTT,PO BOX 140064,"SALCHA, AK 99714",(907) 488-9228,GORDON & ANDREA SCOTT,907-488-9228
50543.76,A,AIRPORT,'AA76,FAIRBANKS NORTH STAR,NORTH POLE,TIMBER TRAILS,PRIVATE,PRIVATE,THOMAS M. ZUCCARO,5505 N BERKELEY BLVD,"WHITEFISH BAY, WI 53217",907-388-1615,THOMAS M. ZUCCARO,907-388-1615
50544.4,C,SEAPLANE BASE,'96Z,PRINCE OF WALES,NORTH WHALE PASS,NORTH WHALE,PUBLIC,PUBLIC,ALASKA DOT&PF SOUTHCOAST REGION,6860 GLACIER HWY,"JUNEAU, AK 99901",907-465-1786,TIM LACOUR,907-755-2229
50544,A,AIRPORT,'ORT,FAIRBANKS NORTH STAR,NORTHWAY,NORTHWAY,PUBLIC,PUBLIC,ALASKA DOT&PF NORTHERN REGION,2301 PEGER RD,"FAIRBANKS, AK 99709",907-451-2200,DENNIS BISHOP,907-883-5128
50548,A,AIRPORT,'33AK,MATANUSKA-SUSITNA,NUGGET BENCH,NUGGET BENCH,PRIVATE,PRIVATE,NUGGET BENCH,,,,LEONARD KRAGNESS (AGENT FOR OWNER),907-279-1560
50548.82,A,AIRPORT,'AK20,NORTH SLOPE,NUIQSUT,CD-3 AIRSTRIP,PRIVATE,PRIVATE,CONOCO PHILLIPS ALASKA INC,6601 SOUTH AIRPARK PL,"ANCHORAGE, AK 99502",907-263-3502,MURRY & RODRIGUEZ,907-670-4048
50548.8,A,AIRPORT,'AQT,NORTH SLOPE,NUIQSUT,NUIQSUT,PUBLIC,PUBLIC,NORTH SLOPE BOROUGH,PO BOX 69,"BARROW, AK 99723",907-852-2611,TOM D. NICOLOS,907-852-2611
50548.81,H,HELIPORT,'AK32,NORTH SLOPE,NUIQSUT,OOOGURUK ISLAND,PRIVATE,PRIVATE,"CAELUS NATURAL RESOURCES AK, LLC","3700 CENTERPOINT DR, SUITE 500","ANCHORAGE, AK 99503",907-277-2700,GARY ROSS,907-343-2181
50548.83,H,HELIPORT,'AA27,NORTH SLOPE,NUIQSUT,PIONEER,PRIVATE,PRIVATE,PIONEER NATURAL RESOURCES AK INC,"700 G ST, SUITE 600","ANCHORAGE, AK 99501",907-277-2700,REX ALLEN,907-343-2185
50550,A,AIRPORT,'NUL,YUKON-KOYUKUK,NULATO,NULATO,PUBLIC,PUBLIC,ALASKA DOT&PF NORTHERN REGION,2301 PEGER RD,"FAIRBANKS, AK 99709",907-451-5280,TOM WILLIAMS,907-451-5280
50552.1,A,AIRPORT,'16A,BETHEL,NUNAPITCHUK,NUNAPITCHUK,PUBLIC,PUBLIC,ALASKA DOT&PF CENTRAL REGION,PO BOX 196900,"ANCHORAGE, AK 99516",907-269-0747,LAWRENCE DAVIS,907-543-2498
50555,A,AIRPORT,'ZNC,BETHEL,NYAC,NYAC,PRIVATE,PRIVATE,TULUKSAK DREDGING CO,,"16 NYAK, AK 99642",,CHAS HAWS,
50558.1,A,AIRPORT,'6R7,KODIAK ISLAND,OLD HARBOR,OLD HARBOR,PUBLIC,PUBLIC,ALASKA DOT&PF SOUTHCOAST REGION,PO BOX 196900,"ANCHORAGE, AK 99519",907-269-0760,ROBERT GREENE,907-487-4952
50559,C,SEAPLANE BASE,'KOY,KODIAK ISLAND,OLGA BAY,OLGA BAY,PRIVATE,PUBLIC,"AKHIOK-KAGUYAK, INC","1400 BENSON BLVD, SUITE 425","ANCHORAGE, AK 99503",,AKHIOK - KAGIUYAK INC,907- 258 0604
50575,A,AIRPORT,'Z17,KUSKOKWIM,OPHIR,OPHIR,PUBLIC,PUBLIC,ALASKA DOT&PF CENTRAL REGION,PO BOX 196900,"ANCHORAGE, AK 99619",907-269-0782,STEFFAN STRICK,907-524-3241
50580.1,A,AIRPORT,'4K5,KODIAK ISLAND,OUZINKIE,OUZINKIE,PUBLIC,PUBLIC,ALASKA DOT&PF SOUTHCOAST REGION,1500 ANTON LARSON RD,"KODIAK, AK 99615",907-487-4952,BRUCE MCNEIL,907-487-4952
50584.11,A,AIRPORT,'AK46,MATANUSKA-SUSITNA,PALMER,ABI,PRIVATE,PRIVATE,INTERACT MINISTRIES,16453 E CLARK RD,"PALMER, AK 99645",907-745-3124,DOUG PRINS,907-745-3124
50585.5,H,HELIPORT,'AA08,MATANUSKA-SUSITNA,PALMER,ALASKA HELIWORX,PRIVATE,PRIVATE,DAVID W. KING,1415 N 302 RD,"PALMER, AK 99645",907-745-5701,DAVID W. KING,907-745-5701
50585.13,A,AIRPORT,'3AK6,MATANUSKA-SUSITNA,PALMER,B & B BOYS RANCH,PRIVATE,PRIVATE,MITCH JENSEN,PO BOX 4045,"PALMER, AK 99645",907-232-0126,MITCH JENSEN,907-659-6538
50585.14,A,AIRPORT,'AK1,MATANUSKA-SUSITNA,PALMER,BUTTE MUNI,PRIVATE,PUBLIC,BUTTE AIRMANS ASSOC,4705 SOUTH MCKECHNIE LP,"PALMER, AK 99645",907-745-4557,GERALD HUPPERT,907-745-4557
50584.22,A,AIRPORT,'34AK,MATANUSKA-SUSITNA,PALMER,CARDWELL STRIP,PRIVATE,PRIVATE,BOB CARDWELL,PO BOX 1184,"PALMER, AK 99645",907-745-4618,BOB CARDWELL,907-745-4618
50584.2,A,AIRPORT,'5AK6,MATANUSKA-SUSITNA,PALMER,COLBERG,PRIVATE,PRIVATE,SIGURD COLBERG,PO BOX 874422,"WASILLA, AK 99687",907-232-9420,SIGURD COLBERG,907-232-9420
50584.43,A,AIRPORT,'AK88,MATANUSKA-SUSITNA,PALMER,EAGLE NEST,PRIVATE,PRIVATE,BRENT SHAFFER,PO BOX 670722,"CHUGIAK, AK 99567",907-707-3718,BRENT SHAFFER,907-707-3718
50585.2,A,AIRPORT,'9AA1,MATANUSKA-SUSITNA,PALMER,ELK RANCH,PRIVATE,PRIVATE,DELBERT AND JACKIE SIMINEO,8850 N SIMINEO CIR,"PALMER, AK 99645",907-746-6869,DELBERT SIMINEO,907-746-6869
50585.12,C,SEAPLANE BASE,'99Z,MATANUSKA-SUSITNA,PALMER,FINGER LAKE,PUBLIC,PUBLIC,STATE OF AK DNR,"550 W 7TH AVE, SUITE 900C","ANCHORAGE, AK 99501",907-269-8400,LIFETIME ADVENTURES,907-746-4644
50584.4,A,AIRPORT,'14AK,MATANUSKA-SUSITNA,PALMER,FOUR CORNERS,PRIVATE,PRIVATE,WICK AIR INC,80912 E PALMER WASILLA HWY,"PALMER, AK 99645",907-745-4322,WICK AIR INC,907-745-4322
50584.23,A,AIRPORT,'39AK,MATANUSKA-SUSITNA,PALMER,GILMORE STRIP,PRIVATE,PRIVATE,GINA GILMORE,PO BOX 226,"PALMER, AK 99645",907-745-2532,GINA GILMORE,907-745-2532
50584.41,C,SEAPLANE BASE,'2D3,MATANUSKA-SUSITNA,PALMER,GOODING LAKE,PUBLIC,PUBLIC,STATE OF AK DNR,"500 W 7TH AVE, SUITE 900C","ANCHORAGE, AK 99501",907-269-8565,CHARLES B & SANDRA L MCMAHAN,907-822-3553
50585.15,A,AIRPORT,'5AK9,MATANUSKA-SUSITNA,PALMER,GRANDVIEW SUBDIVISION,PRIVATE,PRIVATE,GRANDVIEW SUBDIVISION,PO BOX 102,"PALMER, AK 99645",907-745-0615,JORDAN H. GREER,907-745-0615
50584.24,A,AIRPORT,'AK93,MATANUSKA-SUSITNA,PALMER,GROUSE RIDGE,PRIVATE,PRIVATE,DAVE & DIANE CROCKETT,6946 TEX-AL DR,"WASILLA, AK 99654",907-242-5571,DAVE & DIANE CROCKETT,907-242-5571
50584.44,A,AIRPORT,'97AK,MATANUSKA-SUSITNA,PALMER,HIGH RIDGE ASSOCIATION,PRIVATE,PRIVATE,HIGH RIDGE ASSOCIATION,7801 EAST DALE CIR,"WASILLA, AK 99654",907-746-0124,HIGH RIDGE ASSOCIATION,907-746-0124
50584.16,A,AIRPORT,'AK66,MATANUSKA-SUSITNA,PALMER,HUNTER CREEK,PRIVATE,PRIVATE,PAUL POGUE,PO BOX 2802,"PALMER, AK 99645",907-746-6452,PAUL POGUE,907-746-6452
50584.45,A,AIRPORT,'AK92,MATANUSKA-SUSITNA,PALMER,MARTIN,PRIVATE,PRIVATE,KENNETH LLOYD MARTIN,PO BOX 100419,"ANCHORAGE, AK 99510",907-248-7223,KENNETH LLOYD MARTIN,907-248-7223
50585.19,H,HELIPORT,'92AK,MATANUSKA-SUSITNA,PALMER,MAT-SU RGNL MEDICAL CENTER,PRIVATE,PRIVATE,MAT-SU REGIONAL MEDICAL CENTER,2500 S WOODWORTH LP,"PALMER, AK 99645",907-861-6000,GENE BAKER,907-861-6719
50584.1,A,AIRPORT,'3AK2,MATANUSKA-SUSITNA,PALMER,NIKLASON LAKE ESTATES,PRIVATE,PRIVATE,JOHN S. PAKAN,PO BOX 876777,"WASILLA, AK 99687",907-746-7778,JOHN S. PAKAN,907-746-7778
50584,A,AIRPORT,'PAQ,MATANUSKA-SUSITNA,PALMER,PALMER MUNI,PUBLIC,PUBLIC,CITY OF PALMER,231 W EVERGREEN,"PALMER, AK 99645",907-745-3271,JEFF COMBS,907-761-1334
50584.15,A,AIRPORT,'AK63,MATANUSKA-SUSITNA,PALMER,PAT-MAR STRIP,PRIVATE,PRIVATE,MIKE MEEKIN,PO BOX 491,"PALMER, AK 99645",,MIKE MEEKIN,907-745-6159
50585,A,AIRPORT,'AK50,MATANUSKA-SUSITNA,PALMER,SKY RANCH AT PIONEER PEAK,PRIVATE,PRIVATE,SKY RANCH INC.,"3060 LAZY EIGHT CT #14, SUITE 3","WASILLA, AK 99654",907-373-4640,MARK STIGAR,907-373-8444
50584.42,C,SEAPLANE BASE,'9AK1,MATANUSKA-SUSITNA,PALMER,STORMY HILL,PRIVATE,PRIVATE,CHARLES B & SANDRA L MCMAHAN,PO BOX 110,"GAKONA, AK 99586",907-822-3553,CHARLES B & SANDRA L MCMAHAN,907-822-3553
50585.17,A,AIRPORT,'7AK9,MATANUSKA-SUSITNA,PALMER,VINDUSKA,PRIVATE,PRIVATE,JOHN VINDUSKA,15605 E HELMAUR PL,"PALMER, AK 99645",907-745-4054,JOHN VINDUSKA,907-745-4054
50585.11,C,SEAPLANE BASE,'AA85,MATANUSKA-SUSITNA,PALMER,WALBY LAKE,PRIVATE,PRIVATE,E. DEAN MILLIGAN,9550 E TERN DR,"PALMER, AK 99645",907-745-5349,E. DEAN MILLIGAN,907-745-5349
50584.14,A,AIRPORT,'05AK,MATANUSKA-SUSITNA,PALMER,WASILLA CREEK AIRPARK,PRIVATE,PRIVATE,MICHAEL JAMES GROW,4400 N PALMER-FISHHOOK RD,"PALMER, AK 99645",907-745-3573,MICHAEL JAMES GROW,907-745-3573
50584.21,A,AIRPORT,'4AK6,MATANUSKA-SUSITNA,PALMER,WOLF LAKE,PRIVATE,PRIVATE,D. E. NORTH FORK LLC.,6382 BEECHCRAFT RD,"WASILLA, AK 99687",907-746-1880,BARBARA DOTY,907-746-1880
50587,A,AIRPORT,'PXK,VALDEZ-CHITNA-WHITIE,PAXSON,PAXSON,PRIVATE,PUBLIC,BUREAU OF LAND MANAGEMENT,PO BOX 147,"GLENALLEN, AK 99588",907-822-3217,BUREAU OF LAND MANAGEMENT,907-822-3217
50587.7,A,AIRPORT,'4K0,BRISTOL BAY,PEDRO BAY,PEDRO BAY,PUBLIC,PUBLIC,ALASKA DOT&PF SOUTHCOAST REGION,PO BOX 196900,"ANCHORAGE, AK 99519",907-269-0760,CLINTON ANELON,907-571-1261
50588.1,C,SEAPLANE BASE,'PEC,SKAGWAY-YAKUTAT,PELICAN,PELICAN,PUBLIC,PUBLIC,CITY OF PELICAN,PO BOX 737,"PELICAN, AK 99832",,DAVID DUFFEY-HARBOR MASTER,907-735-2212
50588.3,C,SEAPLANE BASE,'PYL,VALDEZ-CHITNA-WHITIE,PERRY ISLAND,PERRY ISLAND,PRIVATE,PUBLIC,JON VAN HYNING,,"ANCHORAGE, AK 99502",907-355-3050,,
50588.61,A,AIRPORT,'PEV,LAKE AND PENINSULA,PERRYVILLE,PERRYVILLE,PUBLIC,PUBLIC,ALASKA DOT&PF SOUTHCOAST REGION,PO BOX 196900,"ANCHORAGE, AK 99519",907-269-0747,CLINT ANELON,907-246-3325
50590,C,SEAPLANE BASE,'63A,WRANGELL-PETERSBURG,PETERSBURG,LLOYD R ROUNDTREE SEAPLANE FACILITY,PUBLIC,PUBLIC,ALASKA DOT&PF SOUTHCOAST REGION,6860 GLACIER HWY,"JUNEAU, AK 99801",907-465-1786,TED SOKOL,907-772-4672
50590.2,A,AIRPORT,'PSG,WRANGELL-PETERSBURG,PETERSBURG,PETERSBURG JAMES A JOHNSON,PUBLIC,PUBLIC,ALASKA DOT&PF SOUTHCOAST REGION,6860 GLACIER HWY,"JUNEAU, AK 99801",907-465-1779,MICHAEL ETCHER,907-772-4624
50593,A,AIRPORT,'PNP,ALEUTIAN ISLANDS,PILOT POINT,PILOT POINT,PUBLIC,PUBLIC,ALASKA DOT&PF CENTRAL REGION,PO BOX 196900,"ANCHORAGE, AK 99519",907-269-0747,TYLER HYLTON,907-246-3325
50594.51,A,AIRPORT,'UGB,BRISTOL BAY,PILOT POINT,UGASHIK BAY,PUBLIC,PUBLIC,BLM--DIVISION OF LANDS,6881 ABBOTT LOOP RD,"ANCHORAGE, AK 99507",907-267-1248,"DISTRICT MGR, BLM-ANC",907-267-1248
50594.7,A,AIRPORT,'0AK,KUSILVAK,PILOT STATION,PILOT STATION,PUBLIC,PUBLIC,ALASKA DOT&PF NORTHERN REGION,2301 PEGER RD,"FAIRBANKS, AK 99709",907-451-2200,ERIK WEINGARTH,907-438-2416
50598,A,AIRPORT,'PTU,BETHEL,PLATINUM,PLATINUM,PUBLIC,PUBLIC,ALASKA DOT&PF CENTRAL REGION,PO BOX 196900,"ANCHORAGE, AK 99519",907-269-0747,LAWRENCE DAVIS,907-543-2498
50598.1,A,AIRPORT,'6AK1,BETHEL,PLATINUM,PLATINUM MINE,PRIVATE,PRIVATE,"XS PLATINUM, INC.",PO BOX 12800,"SEATTLE, WA 98111",206-515-9999,JIM SLADE - MINE MGR,206-515-9999
50599,C,SEAPLANE BASE,'KPB,PRINCE OF WALES,POINT BAKER,POINT BAKER,PUBLIC,PUBLIC,ALASKA DOT&PF SOUTHCOAST REGION,6860 GLACIER HWY,"JUNEAU, AK 99801",907-465-1786,PAUL KHERA,907-465-1786
50601,A,AIRPORT,'PHO,KOBUK,POINT HOPE,POINT HOPE,PUBLIC,PUBLIC,ALASKA DOT&PF NORTHERN REGION,2301 PEGER RD,"FAIRBANKS, AK 99709",907-451-2200,ALVIN WERNEKE,907-442-3147
50601.3,A,AIRPORT,'PIZ,BARROW,POINT LAY,POINT LAY LRRS,PUBLIC,PUBLIC,US GOV 11TCW/LGO ELEMDORF,"6900 9TH ST, SUITE 301","EAFB, AK 99506",907-557-4146,NORTH SLOPE BOROUGH-TOM D. NICOLOS,907-852-2611
50033.21,A,AIRPORT,'64AK,MATANUSKA-SUSITNA,POINT MACKENZIE,CARPENTIERS STRIP,PRIVATE,PRIVATE,"ALASKA USA TRUST COMPANY, TRE",PO BOX 196757,"ANCHORAGE, AK 99519",907-333-0431,DENISE A. CARPENTIER,907-333-0431
50037.02,A,AIRPORT,'0AK9,MATANUSKA-SUSITNA,POINT MACKENZIE,FALCON LAKE STRIP,PRIVATE,PRIVATE,RICHARD W. GATTIS,1650 W SHORELINE DR,"WASILLA, AK 99654",907-373-0300,RICHARD W. GATTIS,907-373-0300
50037.01,A,AIRPORT,'2AK0,MATANUSKA-SUSITNA,POINT MACKENZIE,MAC KENZIE COUNTRY AIRPARK,PRIVATE,PRIVATE,ELINOR JONES-ELG,PO BOX 610,"AGUILA, AZ 85320",907-243-7733,ELINOR JONES-ELG,928-671-2882
50033.12,A,AIRPORT,'AK36,MATANUSKA-SUSITNA,POINT MACKENZIE,POINT MAC,PRIVATE,PRIVATE,JOE CIZEK,27270 WEST LITTLE SU RIVER RD,"WASILLA, AK 99623",907-862-2337,JOE CIZEK,907-862-2337
50033.6,H,HELIPORT,'AK37,ANCHORAGE,POINT MACKENZIE,POINT MACKENZIE,PUBLIC,PRIVATE,CHUGACH ELECTRIC ASSN INC,PO BOX 196300,"ANCHORAGE, AK 99519",907-762-7644,"BILL BERNIER, VICE PRESIDENT",907-762-7644
50601.58,A,AIRPORT,'50AK,MATANUSKA-SUSITNA,POINT MACKENZIE,ROBIN'S LANDING,PRIVATE,PRIVATE,RICHARD GATTIS,1650 W SHORELINE DR,"WASILLA, AK 99654",907-373-0300,RICHARD GATTIS,907-373-0300
50601.51,A,AIRPORT,'6AK2,MATANUSKA-SUSITNA,POINT MACKENZIE,SLEEPERS STRIP,PRIVATE,PRIVATE,K. SLEEPER,2006 W 46TH AVE,"ANCHORAGE, AK 99517",907-248-0008,K. SLEEPER,907-248-0008
50601.52,A,AIRPORT,'AK14,MATANUSKA-SUSITNA,POINT MACKENZIE,TURINSKY AIRSTRIP,PRIVATE,PRIVATE,ANTHONY C. TURINSKY,11541 BARR RD,"ANCHORAGE, AK 99516",907-229-2932,ANTHONY C. TURINSKY,907-357-7703
50610,C,SEAPLANE BASE,'AHP,WRANGELL-PETERSBURG,PORT ALEXANDER,PORT ALEXANDER,PUBLIC,PUBLIC,ALASKA DOT&PF SOUTHCOAST REGION,6860 GLACIER HWY,"JUNEAU, AK 99801",907-465-1786,PAUL KHERA,907-465-1786
50610.4,C,SEAPLANE BASE,'16K,PRINCE OF WALES,PORT ALICE,PORT ALICE,PRIVATE,PUBLIC,ALASKA LOGGING & PULP,,"SITKA, AK 99835",,ALASKA LOGGING & PULP,
50610.8,A,AIRPORT,'TPO,BRISTOL BAY,PORT ALSWORTH,PORT ALSWORTH,PRIVATE,PRIVATE,"GLEN ALSWORTH, SR.",PO BOX 1,"PORT ALSWORTH, AK 99653",907-781-2211,GLEN ALSWORTH SR.,907-781-2211
50610.82,A,AIRPORT,'AK51,LAKE AND PENINSULA,PORT ALSWORTH,WILDER/NATWICK LLC,PRIVATE,PRIVATE,WILDER/NATWICK LLC,3323 DRY CREEK,"PORT ALSWORTH, AK 99653",907-781-2228,DAVID WILDER,907-781-2228
50612.3,C,SEAPLANE BASE,'KPY,KODIAK ISLAND,PORT BAILEY,PORT BAILEY,PRIVATE,PUBLIC,PB ENERGY INC,PO BOX KPY,"KODIAK, AK 99697",,PB ENERGY INC,305-898-3223
50612.6,A,AIRPORT,'KPC,NOME,PORT CLARENCE,PORT CLARENCE CGS,,PRIVATE,US COAST GUARD,USCG LORAN STA PC   BOX KPC,"NOME, AK 99762",907-642-3844,CMMD OFFICER MATTHEW BOYLE,907-642-3844
50614,A,AIRPORT,'PGM,KENAI-COOK INLET,PORT GRAHAM,PORT GRAHAM,PUBLIC,PUBLIC,ALASKA DOT&PF CENTRAL REGION,PO BOX 196900,"ANCHORAGE, AK 99519",907-266-0780,KEVIN JONES,907-235-8872
50615,A,AIRPORT,'PTH,LAKE AND PENINSULA,PORT HEIDEN,PORT HEIDEN,PUBLIC,PUBLIC,ALASKA DOT&PF SOUTHCOAST REGION,PO BOX 196900,"ANCHORAGE, AK 99519",907-269-0748,KYLER HYLTON,907-246-3325
50615.2,A,AIRPORT,'ORI,KODIAK ISLAND,PORT LIONS,PORT LIONS,PUBLIC,PUBLIC,ALASKA DOT&PF SOUTHCOAST REGION,PO BOX 196900,"ANCHORAGE, AK 99519",907-269-0767,ROBERT GREEN,907-487-4952
50616,C,SEAPLANE BASE,'19P,PRINCE OF WALES,PORT PROTECTION,PORT PROTECTION,PUBLIC,PUBLIC,ALASKA DOT&PF SOUTHCOAST REGION,6860 GLACIER HWY,"JUNEAU, AK 99801",907-465-1786,PAUL KHERA,907-465-1786
50619,C,SEAPLANE BASE,'PWR,SITKA,PORT WALTER,PORT WALTER,PUBLIC,PUBLIC,"US DEPT. OF COMMERCE, NOAA, NMFS",17109 POINT LENA LOOP RD,"JUNEAU, AK 99801",907-723-4457,FRANK THROWER,907-723-4457
50619.5,C,SEAPLANE BASE,'KPR,KODIAK ISLAND,PORT WILLIAMS,PORT WILLIAMS,PRIVATE,PUBLIC,BRUCE & YVONNE COOPER,PO BOX 670556,"CHUGIAK, AK 99567",,MARK KRALL,907-688-7623
50609.31,A,AIRPORT,'A14,BRISTOL BAY,PORTAGE CREEK,PORTAGE CREEK,PUBLIC,PUBLIC,ALASKA DOT&PF CENTRAL REGION,PO BOX 196900,"ANCHORAGE, AK 99519",907-269-0760,NORMAN HAYANO,907-842-5511
50620.2,A,AIRPORT,'PPC,UPPER YUKON,PROSPECT CREEK,PROSPECT CREEK,PUBLIC,PUBLIC,ALASKA DOT&PF NORTHERN REGION,2301 PEGER RD,"FAIRBANKS, AK 99701",907-451-2207,CASEY AHKVALUK,907-787-8964
50620.31,H,HELIPORT,'90AK,NORTH SLOPE,PRUDHOE BAY/DEADHORSE,NORTHSTAR,PRIVATE,PRIVATE,HILCORP ALASKA LLC,"3800 CENTERPOINT DR, STE 100","ANCHORAGE, AK 99503",713-655-6316,JEFF CARTER/ MARK WHITE,907-685-1200
50620.5,A,AIRPORT,'01A,KUSKOKWIM,PURKEYPILE,PURKEYPILE,PUBLIC,PUBLIC,STATE OF AK DPT NAT RESRCS,"550 W 7TH AVE, SUITE 1070","ANCHORAGE, AK 99501",907-269-8600,MGR DNR SOUTHCENTRAL REG OFC,907-269-8503
50622.5,A,AIRPORT,'20K,YUKON-KOYUKUK,QUAIL CREEK,QUAIL CREEK,PUBLIC,PUBLIC,AK DEPART OF NATURAL RESOURCES,3700 AIRPORT WAY,"FAIRBANKS, AK 99709",,STUART PECHEK,907-451-2733
50623,A,AIRPORT,'5QC,NOME,QUARTZ CREEK,QUARTZ CREEK /KOUGAROK/,PUBLIC,PUBLIC,ALASKA DOT&PF NORTHERN REGION,2301 PEGER RD,"FAIRBANKS, AK 99709",907-451-5230,JOSEPH JOHNSON,907-443-2500
50623.4,A,AIRPORT,'AQH,BETHEL,QUINHAGAK,QUINHAGAK,PUBLIC,PUBLIC,NATIVE VILLAGE OF KWINHAGAK,PO BOX 149,"QUINHAGAK, AK 99655",907-556-8165,ANNIE N. ROACH,907-556-8165
50642.1,A,AIRPORT,'6AK,KUSKOKWIM,RAINY PASS,RAINY PASS LODGE,PUBLIC,PUBLIC,STATE OF ALASKA - DNR,550 W 7TH AVE,"ANCHORAGE, AK 99501",907-762-2251,STEVEN H. PERRINS,907-248-7599
50645,A,AIRPORT,'RMP,YUKON-KOYUKUK,RAMPART,RAMPART,PUBLIC,PUBLIC,ALASKA DOT&PF NORTHERN REGION,2301 PEGER RD,"FAIRBANKS, AK 99709",907-451-5280,TOM WILLIAMS,907-451-5280
50648,A,AIRPORT,'RDV,KUSKOKWIM,RED DEVIL,RED DEVIL,PUBLIC,PUBLIC,ALASKA DOT&PF CENTRAL REGION,PO BOX 196900,"ANCHORAGE, AK 99519",907-269-0749,RICHARD CILETTI,907-675-4345
50651,A,AIRPORT,'DGG,NOME,RED DOG,RED DOG,PRIVATE,PRIVATE,NANA REGIONAL CORP. INC,1001 E BENSON,"ANCHORAGE, AK 99508",,MIKE SCHEIRMAN,907-754-5148
50670,A,AIRPORT,'RBY,YUKON-KOYUKUK,RUBY,RUBY,PUBLIC,PUBLIC,ALASKA DOT&PF NORTHERN REGION,2301 PEGER RD,"FAIRBANKS, AK 99709",907-451-5280,TOM WILLIAMS,907-451-5280
50672.01,A,AIRPORT,'9AK2,KUSILVAK,RUSSIAN MISSION,KAKO,PRIVATE,PRIVATE,DAVE PENZ,BOX 29,"RUSSIAN MISSION, AK 99657",907-584-5200,JONATHAN PENZ,907-584-5200
50672,A,AIRPORT,'RSH,KUSILVAK,RUSSIAN MISSION,RUSSIAN MISSION,PUBLIC,PUBLIC,ALASKA DOT&PF NORTHERN REGION,2301 PEGER RD,"FAIRBANKS, AK 99709",907-451-2200,ERIK WEINGARTH,907-438-2416
50680,C,SEAPLANE BASE,'A23,WRANGELL-PETERSBURG,SAGINAW BAY,SAGINAW,PRIVATE,PUBLIC,,,"SAGINAW BAY, AK",,,
50683,A,AIRPORT,'Z81,NOME,SALMON LAKE,SALMON LAKE,PUBLIC,PUBLIC,ALASKA DOT&PF NORTHERN REGION,2301 PEGER RD,"FAIRBANKS, AK 99709",907-451-5230,JOSEPH JOHNSON,907-443-3431
50684.8,C,SEAPLANE BASE,'WSJ,KODIAK ISLAND,SAN JUAN,SAN JUAN /UGANIK/,PRIVATE,PUBLIC,POLAR EQUIPMENT INC,"1035 W. NORTHERN LIGHTS, BLVD","ANCHORAGE, AK 99503",,MIKE SHUPE,907-272-0404
50684.4,A,AIRPORT,'SDP,ALEUTIAN ISLANDS,SAND POINT,SAND POINT,PUBLIC,PUBLIC,ALASKA DOT&PF SOUTHCOAST REGION,P.O. BOX 112506,"JUNEAU, AK 99811",907-465-1779,HAROLD KREMER,907-532-5000
50687,A,AIRPORT,'SVA,NOME,SAVOONGA,SAVOONGA,PUBLIC,PUBLIC,ALASKA DOT&PF NORTHERN REGION,2301 PEGER RD,"FAIRBANKS, AK 99709",907-451-2200,JOSEPH JOHNSON,907-443-2500
50690,A,AIRPORT,'SCM,KUSILVAK,SCAMMON BAY,SCAMMON BAY,PUBLIC,PUBLIC,ALASKA DOT&PF CENTRAL REGION,PO BOX 196900,"ANCHORAGE, AK 99519",907-266-1735,LAWRENCE DAVIS,907-543-2498
50692.1,A,AIRPORT,'8AK3,NORTHWEST ARCTIC,SELAWIK,ROLAND NORTON MEMORIAL AIRSTRIP,PRIVATE,PRIVATE,CITY OF SELAWIK,PO BOX 49,"SELAWIK, AK 99770",907-484-2132,,
50692,A,AIRPORT,'WLK,KOBUK,SELAWIK,SELAWIK,PUBLIC,PUBLIC,ALASKA DOT&PF NORTHERN REGION,2301 PEGER RD,"FAIRBANKS, AK 99709",907-451-2200,ALVIN WERNEKE,907-442-3147
50693,A,AIRPORT,'SOV,KENAI-COOK INLET,SELDOVIA,SELDOVIA,PUBLIC,PUBLIC,ALASKA DOT&PF CENTRAL REGION,BOX 196900,"ANCHORAGE, AK 99519",907-269-0783,KEVIN JONES,907-235-8872
50693.1,C,SEAPLANE BASE,'A27,KENAI-COOK INLET,SELDOVIA,SELDOVIA,PUBLIC,PUBLIC,CITY OF SELDOVIA,PO DRAWER B,"SELDOVIA, AK 99663",907-234-7643,"LELA PETERSON, HARBOUR MASTER",907-234-7886
50696.01,H,HELIPORT,'01AK,SEWARD,SEWARD,PROVIDENCE SEWARD MEDICAL CENTER,PRIVATE,PRIVATE,CITY OF SEWARD/PROVIDENCE,417 FIRST AVE,"SEWARD, AK 99664",907-224-5205,BEN FAUST,907-224-5205
50696,A,AIRPORT,'SWD,SEWARD,SEWARD,SEWARD,PUBLIC,PUBLIC,ALASKA DOT&PF CENTRAL REGION,PO BOX 196900,"ANCHORAGE, AK 99519",907-262-2199,KEVIN KNOTEK,907-288-2428
50696.7,A,AIRPORT,'SHX,KUSKOKWIM,SHAGELUK,SHAGELUK,PUBLIC,PUBLIC,ALASKA DOT&PF NORTHERN REGION,2301 PEGER RD,"FAIRBANKS, AK 99709",907-451-2200,ERIK WEINGARTH,907-438-2416
50697,A,AIRPORT,'2C7,NOME,SHAKTOOLIK,SHAKTOOLIK,PUBLIC,PUBLIC,ALASKA DOT&PF NORTHERN REGION,2301 PEGER RD,"FAIRBANKS, AK 99701",907-451-5230,JOHN WILSON,907-625-1025
50698,A,AIRPORT,'SMU,VALDEZ-CHITNA-WHITIE,SHEEP MOUNTAIN,SHEEP MOUNTAIN,PUBLIC,PUBLIC,ALASKA DOT&PF CENTRAL REGION,PO BOX 196900,"ANCHORAGE, AK 99519",269-0782,STEVE BANSE,907-745-2159
50698.71,A,AIRPORT,'SXP,KUSILVAK,SHELDON POINT,SHELDON POINT,PUBLIC,PUBLIC,ALASKA DOT&PF NORTHERN REGION,2301 PEGER RD,"FAIRBANKS, AK 99709",907-451-2200,JOHN WILSON,907-625-1025
50699,A,AIRPORT,'SYA,ALEUTIAN ISLANDS,SHEMYA,EARECKSON AS,US AIR FORCE,PRIVATE,U S AIR FORCE,"10471 20TH ST, SUITE 361","ELMENDORF AFB, AK 99506",907-552-3442,KIMBERLY HOPKINS,907-392-3361
50701.01,A,AIRPORT,'SHH,NOME,SHISHMAREF,SHISHMAREF,PUBLIC,PUBLIC,ALASKA DOT&PF NORTHERN REGION,2301 PEGER RD,"FAIRBANKS, AK 99709",907-451-2200,JOSEPH JOHNSON,907-443-2500
50702.1,A,AIRPORT,'SHG,KOBUK,SHUNGNAK,SHUNGNAK,PUBLIC,PUBLIC,ALASKA DOT&PF NORTHERN REGION,2301 PEGER RD,"FAIRBANKS, AK 99709",907-451-5230,ALVIN WERNEKE,907-442-3147
50703.01,C,SEAPLANE BASE,'AA12,SITKA,SITKA,DOVE ISLAND LODGE,PRIVATE,PRIVATE,HAROLD AND TRACY LUMBETH,PO BOX 1512,"SITKA, AK 99835",907-747-5660,HAROLD AND TRACY LUMBETH,907-747-5660
50703.2,C,SEAPLANE BASE,'A29,SITKA,SITKA,SITKA,PUBLIC,PUBLIC,CITY & BOROUGH OF SITKA,PO BOX 79,"SITKA, AK 99835",907-747-3294,STAN ELIASAN,907-747-3439
50703,A,AIRPORT,'SIT,SITKA,SITKA,SITKA ROCKY GUTIERREZ,PUBLIC,PUBLIC,ALASKA DOT&PF SOUTHCOAST REGION,6860 GLACIER HWY,"JUNEAU, AK 99801",907-465-1786,STEVE BELL,907-966-2960
50704,A,AIRPORT,'SGY,SKAGWAY-YAKUTAT,SKAGWAY,SKAGWAY,PUBLIC,PUBLIC,ALASKA DOT&PF SOUTHCOAST REGION,PO BOX 112506,"JUNEAU, AK 99811",907-465-1786,MISSY TYSON,907-983-2323
50708.03,A,AIRPORT,'3AK9,MATANUSKA-SUSITNA,SKWENTNA,RIVER JOHN,PRIVATE,PRIVATE,JOHN BERGGREN,16420 ST JAMES CIR,"ANCHORAGE, AK 99516",907-345-1842,JOHN BERGGREN,907-345-1842
50708,A,AIRPORT,'SKW,MATANUSKA-SUSITNA,SKWENTNA,SKWENTNA,PUBLIC,PUBLIC,ALASKA DOT&PF CENTRAL REGION,PO BOX 196900,"ANCHORAGE, AK 99519",907-269-0782,STEVE BANSE,907-745-3117
50699.5,A,AIRPORT,'1AK6,MATANUSKA-SUSITNA,SKWENTNA,TALACHULITNA RIVER,PRIVATE,PRIVATE,"TAL, INC.",PO BOX 220144,"ANCHORAGE, AK 99522",,STEVE JAKAB,907-232-7302
50708.02,A,AIRPORT,'1AK8,MATANUSKA-SUSITNA,SKWENTNA,TALAHEIM,PRIVATE,PRIVATE,MARK MILLER,PO BOX 190043,"ANCHORAGE, AK 99519",907-248-6205,MARK MILLER,907-440-0616
50709,A,AIRPORT,'DDT,VALDEZ-CHITNA-WHITIE,SLANA,DUFFYS TAVERN,PRIVATE,PRIVATE,GMAPA INC.,HCO1-BOX 450,"GAKONA, AK 99586",907-822-4653,D. M. MAC TURNEY,907-822-4653
50711,A,AIRPORT,'SLQ,KUSKOKWIM,SLEETMUTE,SLEETMUTE,PUBLIC,PUBLIC,ALASKA DOT&PF CENTRAL REGION,PO BOX 196900,"ANCHORAGE, AK 99519",907-269-0749,RICHARD CILETTI,907-675-4345
50711.6,A,AIRPORT,'7AK2,JUNEAU,SNETTISHAM,SNETTISHAM,PUBLIC,PRIVATE,AEL & P,5601 TONSGARD CT,"JUNEAU, AK 99801",907-780-2222,SCOTT WILLIS,907-780-2222
50713.23,A,AIRPORT,'70AK,KENAI PENINSULA,SOLDOTNA,BANGERTER FIELD,PRIVATE,PRIVATE,KENT BANGERTER,PO BOX 2737,"SOLDOTNA, AK 99669",801-558-9550,KENT BANGERTER,801-558-9550
50713.13,A,AIRPORT,'7AK5,KENAI-COOK INLET,SOLDOTNA,DAHLER HOMESTEAD,PRIVATE,PRIVATE,VIRGIL DAHLER,PO BOX 53,"SOLDOTNA, AK 99669",,,
50713.14,A,AIRPORT,'7AK6,KENAI-COOK INLET,SOLDOTNA,DAN FRANCE,PRIVATE,PRIVATE,DAN FRANCE,"HC 1, BOX 134","SOLDOTNA, AK 99669",907-262-4976,DAN FRANCE,907-262-4976
50713.11,A,AIRPORT,'7AK3,KENAI-COOK INLET,SOLDOTNA,GAEDE,PRIVATE,PRIVATE,ROGER J RUPP,PO BOX 4473,"SOLDOTNA, AK 99669",907-262-9265,ROGER J RUPP,907-262-9265
50713.1,A,AIRPORT,'1AK4,KENAI-COOK INLET,SOLDOTNA,KENAI RIVER AIRPARK,PRIVATE,PRIVATE,KENAI RIVER AIRPARK ASSOC.,3264 SUN VALLEY DR,"EAGLE RIVER, AK 99577",907-223-6771,JOHN W. SPRINGS,907-227-2149
50713.21,C,SEAPLANE BASE,'L85,KENAI-COOK INLET,SOLDOTNA,MACKEYS LAKES,PUBLIC,PUBLIC,PUBLIC DOMAIN,,,,UNKNOWN,
50713.22,A,AIRPORT,'AK55,KENAI PENINSULA,SOLDOTNA,MOOSE RUN AIRSTRIP,PRIVATE,PRIVATE,PAUL FEDORKA & GENEVIEVE KLEBBA,PO BOX 1749,"SOLDOTNA, AK 99669",907-260-5705,PAUL FEDORKA OR GENEVIEVE KLEBBA,907-260-5705
50713.2,A,AIRPORT,'SXQ,KENAI-COOK INLET,SOLDOTNA,SOLDOTNA,PUBLIC,PUBLIC,CITY OF SOLDOTNA,177 N BIRCH ST,"SOLDOTNA, AK 99669",907-262-9107,KYLE KORNELIS,907-262-9107
50713.19,H,HELIPORT,'SD1,KENAI-COOK INLET,SOLDOTNA,SOLDOTNA HOSPITAL H,PRIVATE,PUBLIC,CENTRAL PENINSULA GEN HOSPITAL,250 HOSPITAL PL,"SOLDOTNA, AK 99669",,MAINTENANCE DIRECTOR,907-714-4404
50714.2,A,AIRPORT,'AK26,NOME,SOLOMON,SOLOMON STATE FIELD,PRIVATE,PRIVATE,SOLOMON VILLAGE CORP,PO BOX 243,"NOME, AK 99762",907-222-6668,GREG TIMBERS,907-222-6668
50714.45,A,AIRPORT,'WSN,BRISTOL BAY,SOUTH NAKNEK,SOUTH NAKNEK NR 2,PUBLIC,PUBLIC,ALASKA DOT&PF SOUTHCOAST REGION,PO BOX 196900,"ANCHORAGE, AK 99519",907-269-0747,KYLER HYLTON,907-246-3325
50714.6,A,AIRPORT,'SVW,KUSKOKWIM,SPARREVOHN,SPARREVOHN LRRS,US AIR FORCE,PRIVATE,US AIR FORCE,"10471 20TH ST, SUITE 361","ELMENDORF AFB, AK 99506",907-552-3442,NICK HILTON,907-552-4400
50717.1,C,SEAPLANE BASE,'36H,ALEUTIAN ISLANDS,SQUAW HARBOR,SQUAW HARBOR,PUBLIC,PUBLIC,PUBLIC DOMAIN,,,,,
50680.4,A,AIRPORT,'PBV,BETHEL,ST GEORGE,ST GEORGE,PUBLIC,PUBLIC,ALASKA DOT&PF SOUTHCOAST REGION,PO BOX 112506,"JUNEAU, AK 99811",907-465-1779,HAROLD KREMER,907-532-5000
50680.8,A,AIRPORT,'KSM,KUSILVAK,ST MARY'S,ST MARY'S,PUBLIC,PUBLIC,ALASKA DOT&PF NORTHERN REGION,2301 PEGER RD,"FAIRBANKS, AK 99709",907-451-2200,ERIK WEINGARTH,907-438-2416
50681.11,A,AIRPORT,'SMK,NOME,ST MICHAEL,ST MICHAEL,PUBLIC,PUBLIC,ALASKA DOT&PF NORTHERN REGION,2301 PEGER RD,"FAIRBANKS, AK 99709",907-451-2200,JOHN WILSON,907-625-1025
50682,A,AIRPORT,'SNP,BETHEL,ST PAUL ISLAND,ST PAUL ISLAND,PUBLIC,PUBLIC,ALASKA DOT&PF SOUTHCOAST REGION,PO BOX 112506,"JUNEAU, AK 99811",907-465-1779,HAROLD KREMER,907-532-5000
50719,C,SEAPLANE BASE,'WSB,PRINCE OF WALES,STEAMBOAT BAY,STEAMBOAT BAY,PRIVATE,PUBLIC,STEAMBOAT BAY RESORT,PO BOX 549,"CRAIG, AK 99921",801-870-2570,BRIAN CUNNIGHAM,253-225-4256
50719.4,A,AIRPORT,'WBB,NOME,STEBBINS,STEBBINS,PUBLIC,PUBLIC,ALASKA DOT&PF NORTHERN REGION,2301 PEGER RD,"FAIRBANKS, AK 99709",907-451-2200,JOHN WILSON,907-625-1025
50720.07,A,AIRPORT,'AK01,KENAI PENINSULA,STERLING,ALASKA AIRPARK,PRIVATE,PRIVATE,ALASKA AIRPARK INC,PO BOX 1107,"STERLING, AK 99672",907-260-2658,ROBERT J. BREEDEN,907-260-2658
50720.06,A,AIRPORT,'AK05,KENAI PENINSULA,STERLING,BREEDEN,PRIVATE,PRIVATE,ROBERT J. BREEDEN,PO BOX 1107,"STERLING, AK 99672",907-260-2658,ROBERT J. BREEDEN,907-260-2658
50720,A,AIRPORT,'88AK,KENAI PENINSULA,STERLING,DUTCH LANDING STRIP,PRIVATE,PRIVATE,JERRY HOLLAND,36680 DUTCH LANDING LP,"STERLING, AK 99672",907-262-4316,JERRY HOLLAND,907-262-4316
50720.04,A,AIRPORT,'53AK,KENAI PENINSULA,STERLING,LAKEWOOD AIRSTRIP,PRIVATE,PRIVATE,"D & D DEVELOPMENT, INC.",PO BOX 446,"STERLING, AK 99611",907-262-1552,DENNIS DOWNS & DENNIS DIX,907-262-1552
50720.05,A,AIRPORT,'AK84,KENAI PENINSULA,STERLING,SCOOTER'S LANDING STRIP,PRIVATE,PRIVATE,SCOOTER'S LANDING H.O. ASSN.,PO BOX 1150,"STERLING, AK 99672",907-229-9193,SLHA PRESIDENT,907-229-9193
50720.2,A,AIRPORT,'AK39,KENAI-COOK INLET,STERLING,SOUTH GASLINE,PRIVATE,PRIVATE,ALASKA PIPELINE CO,3000 SPENARD RD,"ANCHORAGE, AK 99503",907-277-5551,JOSEPH LEPLEY,907-264-3748
50720.01,A,AIRPORT,'40AK,KENAI PENINSULA,STERLING,STERLING AIR PARK,PRIVATE,PRIVATE,STERLING AIR PARK H O ASSN.,39797 CROSSWIND ST,"STERLING, AK 99672",907-262-5100,"FRANK CHRISTENSEN, PRESIDENT",907-262-5100
50721,A,AIRPORT,'SVS,UPPER YUKON,STEVENS VILLAGE,STEVENS VILLAGE,PUBLIC,PUBLIC,ALASKA DOT&PF NORTHERN REGION,2301 PEGER RD,"FAIRBANKS, AK 99709",907-451-5280,TOM WILLIAMS,907-451-5280
50722.01,A,AIRPORT,'SRV,KUSKOKWIM,STONY RIVER,STONY RIVER 2,PUBLIC,PUBLIC,ALASKA DOT&PF CENTRAL REGION,PO BOX 196900,"ANCHORAGE, AK 99519",907-269-0749,RICHARD CILETTI,907-675-4345
50725,A,AIRPORT,'UMM,MATANUSKA-SUSITNA,SUMMIT,SUMMIT,PUBLIC,PUBLIC,ALASKA DOT&PF NORTHERN REGION,2301 PEGER RD,"FAIRBANKS, AK 99701",907-451-2200,TOM WILLIAMS,907-451-5280
50729,A,AIRPORT,'8AK6,MATANUSKA-SUSITNA,SUSITNA STATION,LITTLE SUSITNA,PRIVATE,PRIVATE,STING RAY LLC,PO BOX 241405,"ANCHORAGE, AK 99524",,STING RAY LLC,907-279-3411
50730.03,A,AIRPORT,'52AK,ANCHORAGE,SUTTON,CRAG MOUNTAIN,PRIVATE,PRIVATE,RICK DOLFI,PO BOX 52,"SUTTON, AK 99674",907-745-4799,RICK DOLFI,907-745-4799
50730.02,A,AIRPORT,'AK59,MATANUSKA-SUSITNA,SUTTON,KING RANCH,PRIVATE,PRIVATE,AIRPORT OPERATOR,39901 N GLENN HWY,"SUTTON, AK 99674",907-745-5701,DAVID KING,907-745-5701
50735,A,AIRPORT,'TCT,KUSKOKWIM,TAKOTNA,TAKOTNA,PUBLIC,PUBLIC,ALASKA DOT&PF CENTRAL REGION,PO BOX 196900,"ANCHORAGE, AK 99519",907-269-0747,STEFFAN STRICK,907-524-3241
50736,A,AIRPORT,'TLJ,KUSKOKWIM,TAKOTNA,TATALINA LRRS,US AIR FORCE,PRIVATE,US AIR FORCE,"10471 20TH ST, SUITE 361","ELMENDORF AFB, AK 99506",907-552-3442,"NICK HILTON,",907-552-4400
50736.4,C,SEAPLANE BASE,'A43,JUNEAU,TAKU HARBOR,TAKU HARBOR,PUBLIC,PUBLIC,CITY AND BOROUGH OF JUNEAU,155 S. SEWARD ST,"JUNEAU, AK 99801",907-586-5240,JUNEAU DOCKS AND HARBOR DEPARTMENT,907-586-5255
50736.7,C,SEAPLANE BASE,'TKL,JUNEAU,TAKU LODGE,TAKU LODGE,PRIVATE,PUBLIC,TAKU GLACIER LODGE,PO BOX 33597,"JUNEAU, AK 99803",907-789-5932,MIKE WARD,907-789-5932
50738.01,A,AIRPORT,'2AK7,MATANUSKA-SUSITNA,TALKEETNA,BALD MOUNTAIN,PRIVATE,PRIVATE,FRANK KNAPP,PO BOX 78,"PALMER, AK 99645",907-841-0298,KRIS KNAPP,907-841-5023
50738.09,A,AIRPORT,'51AK,MATANUSKA-SUSITNA,TALKEETNA,BIRCH CREEK LANDING,PRIVATE,PRIVATE,DREW HAAG,PO BOX 821,"TALKEETNA, AK 99676",907-355-4808,DREW HAAG,907-355-4808
50739.1,A,AIRPORT,'AA09,MATANUSKA-SUSITNA,TALKEETNA,BUSCH CREEK,PRIVATE,PRIVATE,BUSCH CREEK MINE,2400 COLLEGE,"FAIRBANKS, AK 99709",907-371-4816,DENNIS WALKER,907-320-0220
50738.04,A,AIRPORT,'AK19,MATANUSKA-SUSITNA,TALKEETNA,CARL'S LANDING,PRIVATE,PRIVATE,CARL'S LANDING AIRMAN'S ASSN,HC89 BOX 8320,"TALKEETNA, AK 99676",907-733-2796,CARL THOMAS,907-733-2796
50738.07,C,SEAPLANE BASE,'AK8,MATANUSKA-SUSITNA,TALKEETNA,CHRISTIANSEN LAKE,PRIVATE,PUBLIC,DON LEE,PO BOX 139,"TALKEETNA, AK 99676",907-733-4500,DON LEE,907-733-4500
50738.3,A,AIRPORT,'45AA,MATANUSKA-SUSITNA,TALKEETNA,DAVIDSON STRIP,PRIVATE,PRIVATE,DANNY DAVIDSON,12145 AVION ST,"ANCHORAGE, AK 99516",907-441-5969,DANNY DAVIDSON,907-441-5969
50738.06,A,AIRPORT,'21AK,MATANUSKA-SUSITNA,TALKEETNA,MONTANA CREEK,PRIVATE,PRIVATE,JOANNE POTTS,HC89 BOX 530,"WILLOW, AK 99688",907-733-6760,JOANNE POTTS,907-733-6760
50738.1,A,AIRPORT,'49AK,MATANUSKA-SUSITNA,TALKEETNA,SECLUDED LAKE,PRIVATE,PRIVATE,"SECLUDED LAKE AIRPORT, INC.",PO BOX 148,"TALKEETRA, AK 99676",907-235-5537,ANDREW MILLER,907-235-5537
50738.08,A,AIRPORT,'AA00,MATANUSKA-SUSITNA,TALKEETNA,SHUMP,PRIVATE,PRIVATE,ROBERT GERLACH,PO BOX 23,"TALKEETNA, AK 99676",907-733-2612,ROBERT GERLACH,907-733-2612
50738.02,A,AIRPORT,'3AK3,ALEUTIAN ISLANDS,TALKEETNA,SONGLO VISTA,PRIVATE,PRIVATE,LEONARD KRAGNESS,PO BOX 13409,"TRAPPER CREEK, AK 99683",907-733-8000,LEONARD KRAGNESS,907-733-8000
50738.03,A,AIRPORT,'AK61,MATANUSKA-SUSITNA,TALKEETNA,STEPHAN LAKE LODGE,PRIVATE,PRIVATE,JOHN MADSEN,5856 FREE STATE RD,"MARSHALL, VA 20115",907-331-8045,JOHN MADSEN,907-331-8045
50738,A,AIRPORT,'TKA,MATANUSKA-SUSITNA,TALKEETNA,TALKEETNA,PUBLIC,PUBLIC,ALASKA DOT&PF CENTRAL REGION,PO BOX 196900,"ANCHORAGE, AK 99519",907-269-0760,STEPHEN HANSON,907-733-2278
50739,A,AIRPORT,'AK44,MATANUSKA-SUSITNA,TALKEETNA,TALKEETNA VILLAGE STRIP,PUBLIC,PRIVATE,BLM/ANC FIELD OFFICE,4700 BLM RD,"ANCHORAGE, AK 99507",907-267-1246,BLM/ANC FIELD OFFICE,907-267-1246
50742,A,AIRPORT,'TSG,SOUTHEAST FAIRBANKS,TANACROSS,TANACROSS,PUBLIC,PUBLIC,BUREAU OF LAND MANAGEMENT,1150 UNIVERSITY AVE,"FAIRBANKS, AK 99709",907-474-2200,LANORE HEPPLER,907-474-2320
50746.01,A,AIRPORT,'7AK0,FAIRBANKS NORTH STAR,TANANA,ART Z,PRIVATE,PRIVATE, CHUCK JOHNSON,2382 SKILAND RD,"FAIRBANKS, AK 99712",,CHARLES DEER,907-479-6152
50746,A,AIRPORT,'TAL,YUKON-KOYUKUK,TANANA,RALPH M CALHOUN MEMORIAL,PUBLIC,PUBLIC,ALASKA DOT&PF NORTHERN REGION,2301 PEGER RD,"FAIRBANKS, AK 99709",907-451-5280,TOM WILLIAMS,907-451-5280
50749.1,A,AIRPORT,'7KA,VALDEZ-CHITNA-WHITIE,TATITLEK,TATITLEK,PUBLIC,PUBLIC,ALASKA DOT&PF NORTHERN REGION,2301 PEGER RD,"FAIRBANKS, AK 99701",907-451-2200,STEVE SEARLES,907-835-5658
50750,A,AIRPORT,'8KA,KUSKOKWIM,TATITNA,TATITNA,PUBLIC,PUBLIC,US BUREAU OF LAND MANAGEMENT,6881 ABBOT LOOP RD,"ANCHORAGE, AK 99507",907-267-1213,,
50752,A,AIRPORT,'AK49,NOME,TAYLOR,TAYLOR,PRIVATE,PRIVATE,N B TWEET,BOX 1107,"NOME, AK 99762",,BILL TWEET,
50753,A,AIRPORT,'AK64,KUSKOKWIM,TAYLOR MOUNTAIN MINE,TAYLOR MOUNTAIN,PUBLIC,PRIVATE,STATE OF AK DEPT OF NATL RESC,"550 W 7TH AVE, SUITE 900C","ANCHORAGE, AK 99510",907-269-8503,JAMIN KLOPMAN / JOE DAUGHTERY,907-745-5783
50754,A,AIRPORT,'Z14,VALDEZ-CHITNA-WHITIE,TAZLINA,TAZLINA,PUBLIC,PUBLIC,ALASKA DOT&PF NORTHERN REGION,2301 PEGER RD,"FAIRBANKS, AK 99701",907-451-2200,JOHN HOFFMAN,907-822-3222
50754.1,C,SEAPLANE BASE,'5AK,VALDEZ-CHITNA-WHITIE,TAZLINA,TAZLINA /SMOKEY LAKE/,PRIVATE,PUBLIC,ARTHUR WIKLE,"MILE 156 GLENN HWY, HC1 BOX 2640","GLENNALLEN, AK 99588",907-822-3061,ARTHUR WIKLE,907-822-3061
50755,A,AIRPORT,'2K5,KUSKOKWIM,TELIDA,TELIDA,PUBLIC,PUBLIC,PUBLIC DOMAIN,,,,,
50756.1,A,AIRPORT,'TER,NOME,TELLER,TELLER,PUBLIC,PUBLIC,ALASKA DOT&PF NORTHERN REGION,2301 PEGER RD,"FAIRBANKS, AK 99701",907-451-2200,JOSEPH JOHNSON,907-443-3431
50757.8,C,SEAPLANE BASE,'TKE,SITKA,TENAKEE SPRINGS,TENAKEE,PUBLIC,PUBLIC,ALASKA DOT&PF SOUTHCOAST REGION,6860 GLACIER HWY,"JUNEAU, AK 99801",907-465-1786,PAUL KHERA,907-465-1786
50759.01,A,AIRPORT,'3T4,ALEUTIAN ISLANDS,TETLIN,TETLIN,PUBLIC,PUBLIC,ALASKA DOT&PF NORTHERN REGION,2301 PEGER ROAD,"FAIRBANKS, AK 99709",907-451-2200,DENNIS BISHOP,907-883-5128
50759.36,C,SEAPLANE BASE,'KTB,PRINCE OF WALES,THORNE BAY,THORNE BAY,PUBLIC,PUBLIC,CITY OF THORNE BAY,"PO BOX 19110, PO BOX 112506","THORNE BAY, AK 99919",907-828-3380,"SHANE NYQUIST, HARBOR MASTER",907-823-3380
50759.45,C,SEAPLANE BASE,'AK56,BRISTOL BAY,TIKCHIK,TIKCHIK LODGE,PUBLIC,PRIVATE,PUBLIC DOMAIN,,,,,
50760,A,AIRPORT,'TNC,NOME,TIN CITY,TIN CITY LRRS,US ARMY,PRIVATE,US AIR FORCE,"10471 20TH ST, SUITE 361","ELMENDORF AFB, AK 99506",907-552-3442,NICK HILTON,907-552-4400
50764.4,A,AIRPORT,'TOG,BETHEL,TOGIAK VILLAGE,TOGIAK,PUBLIC,PUBLIC,ALASKA DOT&PF CENTRAL REGION,PO BOX 196900,"ANCHORAGE, AK 99519",907-269-0749,NORMAN HEYANO,907-842-5511
50764.711,A,AIRPORT,'9AK0,FAIRBANKS NORTH STAR,TOK,SPORTSMENS PARADISE,PRIVATE,PRIVATE,DOUG FREDRICK,HC63 BOX 1320,"SLANA, AK 99586",,DOUG FREDRICK,
50764.71,A,AIRPORT,'8AK9,FAIRBANKS NORTH STAR,TOK,TOK 2,PRIVATE,PRIVATE,BAYLESS & ROBERTS,PO BOX 225,"TOK, AK 99780",,BAYLESS AND ROBERTS,
50764.72,A,AIRPORT,'6K8,VALDEZ-CHITNA-WHITIE,TOK,TOK JUNCTION,PUBLIC,PUBLIC,ALASKA DOT&PF NORTHERN REGION,2301 PEGER RD,"FAIRBANKS, AK 99709",907-451-2200,DENNIS BISHOP,907-883-5128
50764.75,C,SEAPLANE BASE,'57A,PRINCE OF WALES,TOKEEN,TOKEEN,PRIVATE,PUBLIC,,,,,RONALD FRITZGERALD,907-247-1201
50766.4,A,AIRPORT,'OOK,KUSILVAK,TOKSOOK BAY,TOKSOOK BAY,PUBLIC,PUBLIC,ALASKA DOT&PF CENTRAL REGION,PO BOX 196900,"ANCHORAGE, AK 99519",907-269-0747,DAVID CUMMINGS,907-543-2495
50767.3,C,SEAPLANE BASE,'58A,VALDEZ-CHITNA-WHITIE,TOLSONA LAKE,TOLSONA LAKE,PUBLIC,PUBLIC,ALASKA DEPT FISH & GAME,PO BOX 47,"GLENNALLEN, AK 99588",,CHRISTINE HELLER,907-822-3433
50769.2,A,AIRPORT,'9AK,YUKON-KOYUKUK,TOTATLANIKA RIVER,TOTATLANIKA RIVER,PUBLIC,PUBLIC,PUBLIC DOMAIN,,,,,
50769.3,A,AIRPORT,'5AK0,KENAI-COOK INLET,TRADING BAY,TRADING BAY PRODUCTION,PRIVATE,PRIVATE,"HILCORP ALASKA, LLC","3800 CENTERPOINT DRIVE, #100, PO BOX 196247","ANCHORAGE, AK 99503",907-776-6725,"KENNETH LUCAS, LOGISTICS",907-776-6725
50769.82,A,AIRPORT,'8AK5,MATANUSKA-SUSITNA,TRAPPER CREEK,FORT CROSBY AIRPORT,PRIVATE,PRIVATE,KENNETH CROSBY,PO BOX 13355,"TRAPPER CREEK, AK 99683",907-733-1566,KENNETH CROSBY,907-733-1566
50769.8,A,AIRPORT,'81AK,ANCHORAGE,TRAPPER CREEK,MC KINLEY COUNTRY,PRIVATE,PRIVATE,SHARON HECIMOVICH,PO BOX 13469,"TRAPPER CREEK, AK 99683",907-947-8060,SHARON HECIMOVICH,907-947-8060
50769.81,A,AIRPORT,'0AA5,MATANUSKA-SUSITNA,TRAPPER CREEK,RANGEVIEW AIRSTRIP,PRIVATE,PRIVATE,MARY ANNA JURASEK,HC89 BOX 5400,"WILLOW, AK 99688",907-733-3090,MARY ANNA JURASEK,907-733-3090
50769.9,H,HELIPORT,'61AK,MATANUSKA-SUSITNA,TRAPPER CREEK/TALKEETNA,ERA CHULITNA RIVER,PRIVATE,PRIVATE,ERA HELICOPTERS LLC,6160 CARL BRADY DR,"ANCHORAGE, AK 99502",907-550-8627,ANCHORAGE OPERATIONS,907-550-8600
50771,A,AIRPORT,'TLT,BETHEL,TULUKSAK,TULUKSAK,PUBLIC,PUBLIC,ALASKA DOT&PF CENTRAL REGION,PO BOX 196900,"ANCHORAGE, AK 99519",907-269-0747,LAWERENCE DAVIS,907-543-2498
50772.4,C,SEAPLANE BASE,'Z20,BETHEL,TUNTUTULIAK,TUNTUTULIAK,PUBLIC,PUBLIC,PUBLIC DOMAIN,,,,,
50772.6,A,AIRPORT,'A61,BETHEL,TUNTUTULIAK,TUNTUTULIAK,PUBLIC,PUBLIC,ALASKA DOT&PF CENTRAL REGION,PO BOX 196900,"ANCHORAGE, AK 99519",907-269-0747,LAWERENCE DAVIS,907 543-2495
50773,A,AIRPORT,'4KA,BETHEL,TUNUNAK,TUNUNAK,PUBLIC,PUBLIC,ALASKA DOT&PF CENTRAL REGION,PO BOX 196900,"ANCHORAGE, AK 99519",907-543-3498,LAWRENCE DAVIS,907-543-2495
50773.5,C,SEAPLANE BASE,'AK62,KETCHIKAN GATEWAY,TUXEKAN ISLAND,NAUKATI BAY,PUBLIC,PUBLIC,NAUKATI BAY COMMUNITY,PO BOX NKI #1,"NAUKATI BAY, AK 99950",907-629-4104,ANDY RICHTER,907-629-4104
50776,A,AIRPORT,'A63,BETHEL,TWIN HILLS,TWIN HILLS,PUBLIC,PUBLIC,ALASKA DOT&PF CENTRAL REGION,PO BOX 196900,"ANCHORAGE, AK 99519",907-269-0749,NORMAN HEYANO,907-842-5511
50738.20,A,AIRPORT,'93AK,MATANUSKA-SUSITNA,TYONE CREEK,TYONE CREEK 907AU CAMP,PRIVATE,PRIVATE,DANIEL RODRIGUE,PO BOX 2977,"PALMER, AK 99654",907-331-8953,DENNIS WALKER,907-229-4709
50788.11,H,HELIPORT,'5AK1,ANCHORAGE,TYONEK,BELUGA,PRIVATE,PRIVATE,CHUGACH ELECTRIC ASSN,5601 ELECTRON DR,"ANCHORAGE, AK 99519",800-478-7494,CHUGACH ELECTRIC ASSN,800-478-7494
50788.1,A,AIRPORT,'9AK3,KENAI-COOK INLET,TYONEK,NIKOLAI CREEK,PRIVATE,PRIVATE,STATE OF ALASKA DNR,PO BOX 107005,"ANCHORAGE, AK 99510",907-269-8565,CLARK COX,907-269-8565
50788,A,AIRPORT,'TYE,KENAI-COOK INLET,TYONEK,TYONEK,PRIVATE,PRIVATE,VILLAGE OF TYONEK,GENERAL DELIVERY BOX 82009,"TYONEK, AK 99682",907-583-2201,AIRPORT MGR,907-583-2201
50790.19,A,AIRPORT,'AK96,KODIAK ISLAND,UGASHIK,RANDY BRIGGS MEM FLD,PRIVATE,PRIVATE,BRIGGS-WAY PROPERTIES,PO BOX 424,"PILOT POINT, AK 99649",907-797-4180,ROLAND BRIGGS,907-797-4180
50790.1,A,AIRPORT,'9A8,KODIAK ISLAND,UGASHIK,UGASHIK,PUBLIC,PUBLIC,ALASKA DOT&PF SOUTHCOAST REGION,PO BOX 196900,"ANCHORAGE, AK 99519",907-269-0747,TYLER HYLTON,907-246-3325
50795,A,AIRPORT,'UMT,BARROW,UMIAT,UMIAT,PUBLIC,PUBLIC,ALASKA DOT&PF NORTHERN REGION,2301 PEGER RD,"FAIRBANKS, AK 99709",907-451-5280,TOM WILLIAMS,907-451-5280
50799,A,AIRPORT,'UNK,NOME,UNALAKLEET,UNALAKLEET,PUBLIC,PUBLIC,ALASKA DOT&PF NORTHERN REGION,2301 PEGER RD,"FAIRBANKS, AK 99701",907-451-2200,JOHN WILSON,907-625-1025
50801,A,AIRPORT,'DUT,ALEUTIAN ISLANDS,UNALASKA,UNALASKA,PUBLIC,PUBLIC,ALASKA DOT&PF SOUTHCOAST REGION,PO BOX 112500,"JUNEAU, AK 99811",907-465-4512,DALE RUCKMAN,907-581-1786
50822,A,AIRPORT,'UTO,YUKON-KOYUKUK,UTOPIA CREEK,INDIAN MOUNTAIN LRRS,US AIR FORCE,PRIVATE,US AIR FORCE,"10471 20TH ST, SUITE 361","ELMENDORF AFB:, AK 99506",907-552-3442,NICK HILTON,907-552-4400
50825.13,H,HELIPORT,'3AA3,VALDEZ-CORDOVA,VALDEZ,CVTC FIELD,PRIVATE,PRIVATE,COPPER VALLEY TELEPHONE COOPERATIVE,PO BOX 337,"VALDEZ, AK 99686",907-835-2231,CHRIS MISHMASH,907-835-7700
50825.12,C,SEAPLANE BASE,'L93,ALEUTIAN ISLANDS,VALDEZ,ROBE LAKE,PUBLIC,PUBLIC,ALASKA DEPT OF NATURAL RESOURCES,550 W 7TH AVE,"ANCHORAGE, AK 99501",907-835-8718,DEAN CUMMINGS,907-831-1386
50759.3,A,AIRPORT,'K55,VALDEZ-CHITNA-WHITIE,VALDEZ,THOMPSON PASS,PUBLIC,PUBLIC,STATE OF ALASKA - DNR,"550 W 7TH AVE, SUITE 900C","ANCHORAGE, AK 99501",907-269-8503,MGR. DNR SOUTHCENTRAL REG,907-269-8508
50825.11,H,HELIPORT,'1AK7,VALDEZ-CHITNA-WHITIE,VALDEZ,VALDEZ HOSPITAL,PRIVATE,PRIVATE,CITY OF VALDEZ,212 CHENEGA AVE,"VALDEZ, AK 99686",907-835-4313,PAULINE DOUCET,907-835-2249
50825.1,A,AIRPORT,'VDZ,VALDEZ-CHITNA-WHITIE,VALDEZ,VALDEZ PIONEER FIELD,PUBLIC,PUBLIC,ALASKA DOT&PF NORTHERN REGION,2301 PEGER RD,"FAIRBANKS, AK 99709",907-451-5217,STEVE SEARLES,907-835-5658
50828,A,AIRPORT,'VEE,UPPER YUKON,VENETIE,VENETIE,PRIVATE,PUBLIC,VENETIE TRIBAL GOVERNMENT,BOX 81080,"VENETIE, AK 99781",907-849-8165,EDDIE FRANK,907-849-8165
50829.7,A,AIRPORT,'0AK6,MATANUSKA-SUSITNA,VICTORY BIBLE CAMP,VICTORY,PRIVATE,PRIVATE,RYAN COTE,64741 S VICTORY RD,"SUTTON, AK 99674",,RYAN COTE,907-745-4203
50855.2,A,AIRPORT,'AWI,BARROW,WAINWRIGHT,WAINWRIGHT,PUBLIC,PUBLIC,NORTH SLOPE BOROUGH,BOX 69,"BARROW, AK 99723",907-852-2611,TOM D. NICOLOS,907-852-2611
50855.1,A,AIRPORT,'AK03,BARROW,WAINWRIGHT,WAINWRIGHT AS,PRIVATE,PRIVATE,OLGOONIK CORPORATION,"3201 C ST, SUITE 700","ANCHORAGE, AK 99506",907-562-8728,CHUCK MILLER,907-244-9640
50860,A,AIRPORT,'IWK,NOME,WALES,WALES,PUBLIC,PUBLIC,ALASKA DOT&PF NORTHERN REGION,2301 PEGER RD,"FAIRBANKS, AK 99709",907-451-2200,JOSEPH JOHNSON,907-443-3431
50870.24,A,AIRPORT,'0AK1,MATANUSKA-SUSITNA,WASILLA,ANDERSON LAKE,PRIVATE,PRIVATE,SHAW TRI-LKS HOMEOWNER ASSOC,"3060 NORTH LAZY EIGHT CT, #14","WASILLA, AK 99654",907-373-4640,AVIATION COMMITTEE CHAIRMAN,907-373-4640
50870.73,A,AIRPORT,'AK85,MATANUSKA-SUSITNA,WASILLA,BIRCHWATER,PRIVATE,PRIVATE,JOSEPH FISCHER,14220 S RENEGADE AVE,"TUCSON, AZ 85736",907-376-0227,JOSEPH FISCHER,907-376-0227
50870.6,C,SEAPLANE BASE,'D75,MATANUSKA-SUSITNA,WASILLA,BLODGETT LAKE,PUBLIC,PUBLIC,STATE OF AK DNR,"550 W 7TH AVE, SUITE 900C","ANCHORAGE, AK 99501",907-269-8400,CLIFF LARSON,907-269-8508
50870.25,A,AIRPORT,'71AK,MATANUSKA-SUSITNA,WASILLA,BLUFF PARK FARM,PRIVATE,PRIVATE,RICHARD BESSE,1890 JAIME MARIE CIR,"WASILLA, AK 99654",907-357-4257,RICHARD BESSE,907-357-4257
50870.22,A,AIRPORT,'3AK8,MATANUSKA-SUSITNA,WASILLA,BOISSELLE'S STRIP,PRIVATE,PRIVATE,MARK FREDERICK BOISSELLE,PO BOX 871191,"WASILLA, AK 99687",907-376-7482,MARK FREDERICK BOISSELLE,907-376-7482
50870.74,H,HELIPORT,'60AK,MATANUSKA-SUSITNA,WASILLA,CAROL'S,PRIVATE,PRIVATE,MIKE SAGE,2508 NORTH POINTE CIR,"WASILLA, AK 99654",907-746-0290,MIKE SAGE,907-746-0290
50870.4,A,AIRPORT,'6AK9,MATANUSKA-SUSITNA,WASILLA,CIZEK NORTH,PRIVATE,PRIVATE,MARK A. CIZEK,5098 NORTH CUBS CIR,"WASILLA, AK 99654",907-373-6546,MARK A. CIZEK,907-373-6546
50870.35,C,SEAPLANE BASE,'3H3,MATANUSKA-SUSITNA,WASILLA,COTTONWOOD LAKE,PUBLIC,PUBLIC,STATE OF AK DNR,"550 W 7TH AVE, SUITE 900C","ALASKA, AK 99501",907-269-8400,RICK & LYNN GATTIS,907-373-0300
50870.42,A,AIRPORT,'58AK,MATANUSKA-SUSITNA,WASILLA,FAIRVIEW EAST,PRIVATE,PRIVATE,FAIRVIEW EAST,PO BOX 870948,"WASILLA, AK 99687",907-376-5265,B.H. TILTON,907-376-5265
50870.59,A,AIRPORT,'AK58,MATANUSKA-SUSITNA,WASILLA,FAIRVIEW WEST,PRIVATE,PRIVATE,WILLIAM S. JONES,HC 31 BOX 5120,"WASILLA, AK 99654",907-373-3699,WILLIAM S. JONES,907-373-3699
50870.52,A,AIRPORT,'36AK,MATANUSKA-SUSITNA,WASILLA,FLYWAY FARM AIRSTRIP,PRIVATE,PRIVATE,"FLYWAY FARM, LLC",127 EAST POTTER DR,"ANCHORAGE, AK 99518",907-562-2453,DEE HANSON,907-440-6488
50870.11,A,AIRPORT,'AK83,MATANUSKA-SUSITNA,WASILLA,GANNON'S LANDING,PRIVATE,PRIVATE,CHARLY CENTER,PO BOX 298783,"WASILLA, AK 99654",907-376-8069,CHARLY CENTER,907-376-8069
50870.26,A,AIRPORT,'16AK,ALEUTIAN ISLANDS,WASILLA,GATTIS STRIP,PRIVATE,PRIVATE,RICHARD GATTIS,1650 W SHORELINE DR,"WASILLA, AK 99654",907-373-0300,RICHARD GATTIS,907-373-0300
50870,A,AIRPORT,'AK99,MATANUSKA-SUSITNA,WASILLA,GRAND HOME,PRIVATE,PRIVATE,STEVE GRAND,PO BOX 877650,"WASILLA, AK 99687",907-373-2313,STEVE GRAND,907-373-2313
50870.09,A,AIRPORT,'AK45,MATANUSKA-SUSITNA,WASILLA,GREBE LAKE,PRIVATE,PRIVATE,BERNIE WILLIS,6800 E 99TH AVE,"ANCHORAGE, AK 99507",907-357-4233,BERNIE WILLIS,907-357-4233
50870.28,A,AIRPORT,'AK65,MATANUSKA-SUSITNA,WASILLA,GREEN'S STRIP,PRIVATE,PRIVATE,CURTIS G. GREEN JR.,4000 PALMDALE,"WASILLA, AK 99654",907-376-4654,CURTIS G. GREEN JR.,907-376-4654
50870.12,A,AIRPORT,'7AK8,MATANUSKA-SUSITNA,WASILLA,HESS,PRIVATE,PRIVATE,CHARLIE CENTER,PO BOX 298783,"WASILLA, AK 99629",907-376-8069,CHARLIE CENTER,907-376-8069
50870.29,A,AIRPORT,'10AK,MATANUSKA-SUSITNA,WASILLA,HUNT STRIP,PRIVATE,PRIVATE,JIMMIE & ROBBIE HUNT,PO BOX 874588,"WASILLA, AK 99687",907-373-3062,JIMMIE HUNT,907-373-3062
50870.7,A,AIRPORT,'79AK,MATANUSKA-SUSITNA,WASILLA,HUTTUNEN STRIP,PRIVATE,PRIVATE,DAN HUTTUNEN,PO BOX 874105,"WASILLA, AK 99687",907-376-2975,DAN HUTTUNEN,907-376-2975
50870.67,C,SEAPLANE BASE,'29A,MATANUSKA-SUSITNA,WASILLA,ISLAND LAKE,PUBLIC,PUBLIC,STATE OF AK DNR,PO BOX 298783,"WASILLA, AK 99629",907-269-8400,CHARLES CENTER,907-376-8069
50870.17,A,AIRPORT,'7AK4,MATANUSKA-SUSITNA,WASILLA,JACK FISH LANDING,PRIVATE,PRIVATE,JACK FISH LNDG HMOWNERS ASSN,425 JACK FISH RD,"WASILLA, AK 99654",907-376-4554,FRANK EVERETT,907-376-4554
50870.55,C,SEAPLANE BASE,'AK43,MATANUSKA-SUSITNA,WASILLA,JACOBSEN LAKE,PRIVATE,PRIVATE,WAYNE KUBAT,PO BOX 874867,"WASILLA, AK 99687",907-376-9568,WAYNE KUBAT,907-376-9568
50870.68,A,AIRPORT,'AK79,LAKE AND PENINSULA,WASILLA,JOLLY FIELD,PRIVATE,PRIVATE,LORRAINE JALLEN,PO BOX 872053,"WASILLA, AK 99687",907-357-0838,HOMARD J. LETTS IV,907-229-9405
50870.71,C,SEAPLANE BASE,'66AK,MATANUSKA-SUSITNA,WASILLA,JUNE LAKE,PRIVATE,PRIVATE,"JUNE LAKE AIRPARK OWNERS ASSOC, INC",4237 E MERIDIAN LP,"WASILLA, AK 99654",907-376-4711,HOWARD NUGENT,907-376-4711
50870.72,A,AIRPORT,'06AK,MATANUSKA-SUSITNA,WASILLA,JUNE LAKE AIRPARK,PRIVATE,PRIVATE,JUNE LAKE AIRPARK OWNERS ASSN.,4237 E MERIDIAN LP,"WASILLA, AK 99654",907-376-4711,HOWARD NUGENT,907-376-4711
50870.23,A,AIRPORT,'43AK,MATANUSKA-SUSITNA,WASILLA,KALMBACH,PRIVATE,PRIVATE,ANDY ROBINSON,PO BOX 872148,"WASILLA, AK 99687",907-745-6332,ANDY ROBINSON,907-745-6332
50870.5,C,SEAPLANE BASE,'54AK,MATANUSKA-SUSITNA,WASILLA,KALMBACH LAKE,PRIVATE,PRIVATE,PAUL G. SMITH,PO BOX 872148,"WASILLA, AK 99687",907-376-2153,PAUL G. SMITH,907-376-2153
50870.58,C,SEAPLANE BASE,'4A3,MATANUSKA-SUSITNA,WASILLA,LAKE LUCILLE,PUBLIC,PUBLIC,"STATE OF ALASKA, DNR","550 W 7TH AVE, SUITE 900C","ANCHORAGE, AK 99501",907-269-8400,BILL ODOM,907-373-1895
50870.49,A,AIRPORT,'55AK,MATANUSKA-SUSITNA,WASILLA,LAWRENCE AIRSTRIP,PRIVATE,PRIVATE,OWNERS LAWRENCE AIRFIELD #II,PO BOX 870948,"WASILLA, AK 99687",907-376-9115,OWNERS LAWRENCE AIRFIELD #II,907-376-9115
50870.38,A,AIRPORT,'9AK6,MATANUSKA-SUSITNA,WASILLA,LEISUREWOOD AIRSTRIP,PRIVATE,PRIVATE,MIKE KOSKOVICH,3120 N ALMA DR,"WASILLA, AK 99623",907-376-3465,MIKE KOSKOVICH,907-376-3465
50870.27,A,AIRPORT,'89AK,MATANUSKA-SUSITNA,WASILLA,LINCOLN VILLAGE AIRPARK,PRIVATE,PRIVATE,LINCOLN VILLAGE AIRPARK ASSOCIATION,PO BOX 870526,"WASILLA, AK 99687",907-892-2010,DENNIS GIESE,907-841-4933
50870.43,C,SEAPLANE BASE,'57AK,MATANUSKA-SUSITNA,WASILLA,LOST LAKE SPB,PRIVATE,PRIVATE,R.S. BERUS,2408 LOUSSAC DR,"ANCHORAGE, AK 99517",907-248-4707,R.S. BERUS,907-248-4707
50870.53,A,AIRPORT,'65AK,MATANUSKA-SUSITNA,WASILLA,MCDONALD RIDGE,PRIVATE,PRIVATE,CLEVE MCDONALD,PO BOX 875764,"WASILLA, AK 99687",907-864-0088,CLEVE MCDONALD,907-227-4686
50870.51,A,AIRPORT,'38AK,MATANUSKA-SUSITNA,WASILLA,MELS,PRIVATE,PRIVATE,MEL & PEGGY BEHNKE,PO BOX 298777,"WASILLA, AK 99629",907-631-5026,MEL & PEGGY BEHNKE,907-631-5026
50870.75,C,SEAPLANE BASE,'69AK,MATANUSKA-SUSITNA,WASILLA,MEMORY LAKE,PRIVATE,PRIVATE,LARRY LAGRONE,1365 E INVERNESS DR,"WASILLA, AK 99654",907-376-3858,LARRY LAGRONE,907-376-3858
50870.16,A,AIRPORT,'5AK8,MATANUSKA-SUSITNA,WASILLA,MEMORY LAKE,PRIVATE,PRIVATE,CURTIS MENARD,351 SWANSON AVE,"WASILLA, AK 99654",907-376-5855,JOE GRIFFITH,907-376-5855
50870.76,C,SEAPLANE BASE,'AA11,MATANUSKA-SUSITNA,WASILLA,MISTY LAKE,PRIVATE,PRIVATE,MICHAEL C HUGHES,8166 W MISTY LAKE RD,"WASILLA, AK 99623",907-354-4477,MICHAEL C HUGHES,907-354-4477
50870.64,C,SEAPLANE BASE,'4AK0,MATANUSKA-SUSITNA,WASILLA,NIKLASON LAKE,PRIVATE,PUBLIC,JOHN S PAKAN,7350 TWIN LAKES DR,"WASILLA, AK 99687",,JOHN S PAKAN,907-746-7778
50870.39,A,AIRPORT,'8AK8,MATANUSKA-SUSITNA,WASILLA,NORTH CUBS STRIP,PRIVATE,PRIVATE,NORTH CUBS HOME OWNERS ASSOCIATION,4631 N GUNFLINT TRAIL,"WASILLA, AK 99623",907-373-5117,ROBERT CASSELL,907-373-5117
50870.48,A,AIRPORT,'59AK,MATANUSKA-SUSITNA,WASILLA,PENDEROSA,PRIVATE,PRIVATE,JOSEPH AND LINDA PENDERGRASS,4395 E KILO DR,"WASILLA, AK 99654",907-357-4598,JOSEPH AND LINDA PENDERGRASS,907-357-4598
50870.13,A,AIRPORT,'AK25,MATANUSKA-SUSITNA,WASILLA,PIPER LANDING,PRIVATE,PRIVATE,FRANK CURT SCOGGIN,7362 W PARKS HWY #710,"WASILLA, AK 99654",907-376-6722,FRANK CURT SCOGGIN,907-376-6722
50870.37,A,AIRPORT,'6AK7,MATANUSKA-SUSITNA,WASILLA,RAINBOW HEIGHTS ESTATES AIRSTRIP,PRIVATE,PRIVATE,RAINBOW HEIGHTS H.O.A.,PO BOX 875235,"WASILLA, AK 99687",907-414-4460,BRETT WESTCOTT,907-414-4460
50870.15,A,AIRPORT,'41AK,MATANUSKA-SUSITNA,WASILLA,SETTLERS BAY AIRSTRIP,PRIVATE,PRIVATE,"SETTLERS BAY AIRSTRIP, INC.",PO BOX 879010,"WASILLA, AK 99687",907-841-6181,DOUGLAS RUDD,907-841-6181
50870.47,C,SEAPLANE BASE,'3A3,MATANUSKA-SUSITNA,WASILLA,SEYMOUR LAKE SPB,PUBLIC,PUBLIC,STATE OF ALASKA,"550 W 7TH AVE, SUITE 900C","ANCHORAGE, AK 99501",907-269-8400,ROBERT J. WESLEY,907-841-8626
50870.56,A,AIRPORT,'AK47,MATANUSKA-SUSITNA,WASILLA,SHAWN FIELD,PRIVATE,PRIVATE,RONALD R. HULL,"4785 W STACY ST, HC34 BOX 2070","WASILLA, AK 99623",907-376-5703,JANE HULL,907-376-5703
50870.31,A,AIRPORT,'87AK,MATANUSKA-SUSITNA,WASILLA,SOLOY STRIP,PRIVATE,PRIVATE,JAN & CHRIS SOLOY,PO BOX 872801,"WASILLA, AK 99687",907-376-3444,CHRIS SOLOY,907-376-3444
50870.63,A,AIRPORT,'67AK,MATANUSKA-SUSITNA,WASILLA,SOUTH HOLLYWOOD,PRIVATE,PRIVATE,"CROSS CREEK, INC",PO BOX 870948,"WASILLA, AK 99687",907-376-2697,"BERKELY TILTON, PRES",907-376-2697
50870.33,A,AIRPORT,'4AK2,MATANUSKA-SUSITNA,WASILLA,ST JOHN HOMESTEAD,PRIVATE,PRIVATE,RICHARD W. SMITH,PO BOX 874761,"WASILLA, AK 99687",907-376-8012,RICHARD W. SMITH,907-376-8012
50870.57,A,AIRPORT,'AK54,MATANUSKA-SUSITNA,WASILLA,STRO'S,PRIVATE,PRIVATE,DAVE PFEIFER,PO BOX 870202,"WASILLA, AK 99687",907-376-4344,,
50870.69,A,AIRPORT,'AK16,MATANUSKA-SUSITNA,WASILLA,SUNSET STRIP,PRIVATE,PRIVATE,MARK & JENNIE SANDLAND,"5167 S WHITTNI, PO BOX 879487","WASILLA, AK 99687",907-440-2745,MARK & JENNIE SANDLAND,907-240-7993
50870.66,A,AIRPORT,'77AK,MATANUSKA-SUSITNA,WASILLA,TIDEWATER,PRIVATE,PRIVATE,TIDEWATER BLUFFS LLC,3008 LA MESA DR,"HENDERSON, NV 89014",907-376-5113,ETHAN WILLIAMS,907-376-5113
50870.34,A,AIRPORT,'5AK5,MATANUSKA-SUSITNA,WASILLA,TODDS STRIP,PRIVATE,PRIVATE,LARRY & ELIZABETH TODD,BOX 871395,"WASILLA, AK 99687",907-376-2859,LARRY TODD,907-376-2859
50870.85,H,HELIPORT,'84AK,MATANUSKA-SUSITNA,WASILLA,T-TIME,PRIVATE,PRIVATE,TONY KILPATRICK,"1028 E 5TH AVE, SUITE C","ANCHORAGE, AK 99501",907-278-1123,TONY KILPATRICK,907-278-1123
50870.36,A,AIRPORT,'6AK8,MATANUSKA-SUSITNA,WASILLA,TULAKES,PRIVATE,PRIVATE,BOROUGH TAX RECORDS,7362 WEST PARKS HWY,"WASILLA, AK 99654",907-373-7028,BOROUGH TAX RECORDS,907-373-7028
50870.62,C,SEAPLANE BASE,'3K9,MATANUSKA-SUSITNA,WASILLA,UPPER WASILLA LAKE,PRIVATE,PUBLIC,DOUG MILLARD,700 N JESSICA BROOKE CIR,"WASILLA, AK 99654",907-376-2118,DOUG MILLARD,907-376-2118
50870.54,A,AIRPORT,'AK27,MATANUSKA-SUSITNA,WASILLA,VALLEY FLYING CROWN,PRIVATE,PRIVATE,JESSE D. PETERSON,6961 FLYING CROWN DR,"WASILLA, AK 99654",907-232-3930,JESSE D. PETERSON,907-232-3930
50870.18,C,SEAPLANE BASE,'T66,MATANUSKA-SUSITNA,WASILLA,VISNAW LAKE,PUBLIC,PUBLIC,"STATE OF ALASKA, DNR","550 W 7TH AVE, SUITE 900C","ANCHORAGE, AK 99501",907-269-8400,ROBERT W CASSELL,907-354-4611
50870.44,C,SEAPLANE BASE,'62AK,MATANUSKA-SUSITNA,WASILLA,WALLIS LAKE SPB,PRIVATE,PRIVATE,ERNEST BELANGER,PO BOX 298098,"WASILLA, AK 99629",907-376-2205,ERNEST BELANGER,907-376-2205
50870.3,A,AIRPORT,'IYS,MATANUSKA-SUSITNA,WASILLA,WASILLA,PUBLIC,PUBLIC,CITY OF WASILLA,290 E HERNING AVE,"WASILLA, AK 99687",907-373-9010,ARCHIE GIDDINGS,907-373-9018
50870.2,C,SEAPLANE BASE,'5L6,MATANUSKA-SUSITNA,WASILLA,WASILLA LAKE,PUBLIC,PUBLIC,"STATE OF ALASKA, DNR","550 W 7TH AVE, SUITE 900C","ANCHORAGE, AK 99501",907-269-8400,MANAGER,907-376-3228
50870.19,A,AIRPORT,'44AK,MATANUSKA-SUSITNA,WASILLA,WEST PAPOOSE LAKE AIRPARK,PRIVATE,PRIVATE,PAPOOSE LAKE HOMEOWNERS ASSOC,"C/O MR. HILL, HC 31 BOX 5215J","WASILLA, AK 99654",907-376-3681,PAPOOSE LAKE HOMEOWNERS ASSOC,907-243-1902
50870.41,A,AIRPORT,'9AK8,MATANUSKA-SUSITNA,WASILLA,WOLF TRACK,PRIVATE,PRIVATE,DALE CONOVER,7362 W PARKS HWY NR. 782,"WASILLA, AK 99654",907-376-5622,DALE CONOVER,907-376-5622
50870.45,A,AIRPORT,'23AK,MATANUSKA-SUSITNA,WASILLA,YUKNIS,PRIVATE,PRIVATE,LEN AND MARTY YUKNIS,5451 E FREEDOM,"WASILLA, AK 99654",907-376-3959,LEN AND MARTY YUKNIS,907-376-3959
50872,C,SEAPLANE BASE,'KWF,PRINCE OF WALES,WATERFALL,WATERFALL,PRIVATE,PUBLIC,WATERFALL CANNERY RESORT,PO BOX 6440,"KETCHIKAN, AK 99901",,STEVE COCKRELL,907-265-9650
50873.3,C,SEAPLANE BASE,'KWP,KODIAK ISLAND,WEST POINT,WEST POINT VILLAGE,PRIVATE,PUBLIC,JOHN & LINDA LINDBERG,PO BOX KWP,"KODIAK, AK 99697",,,
50874,A,AIRPORT,'WMO,NOME,WHITE MOUNTAIN,WHITE MOUNTAIN,PUBLIC,PUBLIC,ALASKA DOT&PF NORTHERN REGION,2301 PEGER RD,"FAIRBANKS, AK 99709",907-451-5230,JOSEPH JOHNSON,907-443-2500
50875,A,AIRPORT,'IEM,VALDEZ-CHITNA-WHITIE,WHITTIER,WHITTIER,PUBLIC,PUBLIC,ALASKA DOT&PF CENTRAL REGION,PO BOX 196900,"ANCHORAGE, AK 99519",907-269-0760,PAUL BERTHOLL,907-783-2232
50877.34,A,AIRPORT,'AK10,MATANUSKA-SUSITNA,WILLOW,AK-10 AIRSTRIP,PRIVATE,PRIVATE,ERNEST G. BROTEN,PO BOX 824,"WILLOW, AK 99688",907-495-1932,ERNEST G. BROTEN,907-495-1932
50877.02,A,AIRPORT,'78AK,MATANUSKA-SUSITNA,WILLOW,C T S,PRIVATE,PRIVATE,CHARLES T SCHRICKER,PO BOX 838,"WILLOW, AK 99688",907-357-2041,CHARLES T SCHRICKER,907-357-2041
50877.27,A,AIRPORT,'25AK,MATANUSKA-SUSITNA,WILLOW,HONEYBEE LAKE AERO PARK,PRIVATE,PRIVATE,HONEYBEE LAKE AERO PARK OWNERS ASOC,PO BOX 957,"WILLOW, AK 99688",907-495-3674,MIKE FRAHM,907-495-3674
50877.21,A,AIRPORT,'AK72,MATANUSKA-SUSITNA,WILLOW,JEWELL,PRIVATE,PRIVATE,ROBERT JEWELL,"1200 W DIAMOND, #1486","ANCHORAGE, AK 89515",907-344-1454,,
50877.24,C,SEAPLANE BASE,'AK34,MATANUSKA-SUSITNA,WILLOW,KASHWITNA LAKE,PRIVATE,PRIVATE,SUSITNA AIR SERVICE,HC89 BOX 133,"WILLOW, AK 99688",907-495-6789,DON E. GLASER,907-495-3475
50877.22,A,AIRPORT,'3AK7,MATANUSKA-SUSITNA,WILLOW,LAUB,PRIVATE,PRIVATE,JACK M LAUB,1101 E NORTH STAR CIR,"WASILLA, AK 99654",907-733-1935,JACK M LAUB,907-357-7899
50877.29,C,SEAPLANE BASE,'AK57,MATANUSKA-SUSITNA,WILLOW,LONG LAKE,PRIVATE,PRIVATE,LONG LAKE USERS,PO BOX 1003,"WILLOW, AK 99688",907-495-1005,"GEORGE MURPHY, PRESIDENT",907-495-1005
50877.3,A,AIRPORT,'AK69,MATANUSKA-SUSITNA,WILLOW,LONG LAKE,PRIVATE,PRIVATE,LONG LAKE ARPT USERS,PO BOX 1003,"WILLOW, AK 99688",907-495-1005,GEORGE MURPHY,907-495-1005
50877.32,C,SEAPLANE BASE,'MFN,MATANUSKA-SUSITNA,WILLOW,MINUTEMAN LAKE,PUBLIC,PUBLIC,"STATE OF ALASKA, DNR","550 W 7TH AVE, SUITE 900C","ANCHORAGE, AK 99510",907-269-8400,GREG A. ORIGER,907-495-5105
50877.28,A,AIRPORT,'AK68,MATANUSKA-SUSITNA,WILLOW,MINUTEMAN STRIP,PRIVATE,PRIVATE,GREG A. ORIGER,PO BOX 378,"WILLOW, AK 99687",907-495-5105,GREG A. ORIGER,907-495-5105
50877.262,A,AIRPORT,'07AA,MATANUSKA-SUSITNA,WILLOW,PAN LAKE STRIP,PRIVATE,PRIVATE,CRAIG EDWARD RAPPE,PO BOX 298293,"WASILLA, AK 99629",907-495-6655,CRAIG EDWARD RAPPE,907-495-6655
50877.255,A,AIRPORT,'35AK,MATANUSKA-SUSITNA,WILLOW,POKER BLUFF,PRIVATE,PRIVATE,DAWN DEISER,371 OLD MERIDIAN CIR,"WASILLA, AK 99654",907-373-6263,DAWN DEISER,907-373-6263
50877.25,A,AIRPORT,'02AK,MATANUSKA-SUSITNA,WILLOW,RUSTIC WILDERNESS,PRIVATE,PRIVATE,RUSTIC WILDERNESS SUBDIVISION,PO BOX 96,"WILLOW, AK 99688",,,
50877.2,A,AIRPORT,'AK90,MATANUSKA-SUSITNA,WILLOW,SHIRLEY LAKE,PRIVATE,PRIVATE,SHIRLEY LAKE SUBDIVISION OWNERS,GENERAL DELIVER,"WASILLA, AK 99687",,SHIRLEY LAKE SUBDIVISION OWNERS,907-272-8394
50877.31,A,AIRPORT,'AK67,MATANUSKA-SUSITNA,WILLOW,SKID MARKS,PRIVATE,PRIVATE,BUTCH CAVANAUGH,PO BOX 874805,"WASILLA, AK 99687",907-376-7070,BUTCH CAVANAUGH,907-376-7070
50877,A,AIRPORT,'AK08,MATANUSKA-SUSITNA,WILLOW,THOMAS STRIP,PRIVATE,PRIVATE,DANIEL & LAURA THOMAS,"PO BOX 143, 17500 N HEIGHTS PL","WILLOW, AK 99688",907-495-1126,DANIEL & LAURA THOMAS,907-495-1126
50878,A,AIRPORT,'UUO,MATANUSKA-SUSITNA,WILLOW,WILLOW,PUBLIC,PUBLIC,ALASKA DOT&PF CENTRAL REGION,PO BOX 196900,"ANCHORAGE, AK 99519",907-269-0770,RAY ADAMS,907-495-6286
50877.01,C,SEAPLANE BASE,'2X2,MATANUSKA-SUSITNA,WILLOW,WILLOW SPB,PUBLIC,PUBLIC,ALASKA DOT&PF CENTRAL REGION,PO BOX 196900,"ANCHORAGE, AK 99519",907-269-0760,RAY ADAMS,907-495-6286
50877.35,A,AIRPORT,'0AK2,MATANUSKA-SUSITNA,WILLOW,YENTNA BEND STRIP,PRIVATE,PRIVATE,MICHAEL C. HUGHES,8166 W MISTY LAKE RD,"WASILLA, AK 99623",907-354-4477,MICHAEL C. HUGHES,907-354-4477
50888,A,AIRPORT,'WSM,YUKON-KOYUKUK,WISEMAN,WISEMAN,PUBLIC,PUBLIC,ALASKA DOT&PF NORTHERN REGION,2301 PEGER RD,"FAIRBANKS, AK 99709",907-451-2200,JEFF RUSSELL,907-451-2207
50905,C,SEAPLANE BASE,'68A,WRANGELL-PETERSBURG,WRANGELL,WRANGELL,PUBLIC,PUBLIC,CITY OF WRANGELL,PO BOX 531,"WRANGELL, AK 99929",,GREG MEISSNER HARBOR MASTER,907-874-3736
50905.2,A,AIRPORT,'WRG,WRANGELL-PETERSBURG,WRANGELL,WRANGELL,PUBLIC,PUBLIC,ALASKA DOT&PF SOUTHCOAST REGION,6860 GLACIER HWY,"JUNEAU, AK 99801",907-465-1786,WILLIAM BLOOM,907-874-3107
50916,A,AIRPORT,'0AA1,CORDOVA-MCCARTHY,YAKATAGA,YAKATAGA,PUBLIC,PRIVATE,FEDERAL AVIATION ADMINISTRATION,"222 W 7TH AVE, #14","ANCHORAGE, AK 99513",907-271-5849,"US GOV, FAA TURNAGAIN SSC",907-271-2216
50920.31,A,AIRPORT,'A57,YAKUTAT,YAKUTAT,ALSEK RIVER,PUBLIC,PUBLIC,USFS TONGASS NATIONAL FOREST,PO BOX 327,"YAKUTAT, AK 99689",907-784-3359,LEE BENSON,907-784-3359
50918.1,A,AIRPORT,'3AK,ALEUTIAN ISLANDS,YAKUTAT,DRY BAY,PUBLIC,PUBLIC,GLACIER BAY NATIONAL PARK,PO BOX 137,"YAKUTAT, AK 99689",907-784-3295,DRY BAY DISTRICT RANGER,907-784-3295
50920.32,A,AIRPORT,'AK76,SKAGWAY-YAKUTAT,YAKUTAT,EAST ALSEK RIVER,PUBLIC,PUBLIC,NATL PARK SERVICE,PO BOX 137,"YAKUTAT, AK 99689",907-784-3295,NATL PARK SERVICE,907-784-3295
50920.01,A,AIRPORT,'A67,YAKUTAT,YAKUTAT,HARLEQUIN LAKE,PUBLIC,PUBLIC,US FOREST SERVICE,PO BOX 327,"YAKUTAT, AK 99689",907-784-3359,LEE BENSON,907-789-3359
50920.1,A,AIRPORT,'A68,SKAGWAY-YAKUTAT,YAKUTAT,SITUK,PUBLIC,PUBLIC,US FOREST SERVICE,PO BOX 327,"YAKUTAT, AK 99689",907-784-3359,USFS TONGASS NATIONAL FOREST,907-784-3359
50920.11,A,AIRPORT,'A69,SKAGWAY-YAKUTAT,YAKUTAT,TANIS MESA,PUBLIC,PUBLIC,US FOREST SERVICE,PO BOX 327,"YAKUTAT, AK 99689",907-784-3359,LEE BENSON,907-784-3359
50920.12,C,SEAPLANE BASE,'2Y3,SKAGWAY-YAKUTAT,YAKUTAT,YAKUTAT,PUBLIC,PUBLIC,CITY & BOROUGH OF YAKUTAT,PO BOX 160,"YAKUTAT, AK 99689",907-784-3323,CITY & BOROUGH OF YAKUTAT,907-784-3323
50920,A,AIRPORT,'YAK,SKAGWAY-YAKUTAT,YAKUTAT,YAKUTAT,PUBLIC,PUBLIC,ALASKA DOT&PF SOUTHCOAST REGION,6860 GLACIER HWY,"JUNEAU, AK 99801",907-465-1779,ROBERT LEKANOF,907-784-3293
50925.1,A,AIRPORT,'A77,KUSKOKWIM,YANKEE CREEK,YANKEE CREEK 2,PRIVATE,PUBLIC,DOYON LIMITED,"1 DOYON PL, SUITE 300","FAIRBANKS, AK 99701",907-459-2030,BEN MAGNUSON,907-524-3640
50928,C,SEAPLANE BASE,'78K,KETCHIKAN GATEWAY,YES BAY,YES BAY LODGE,PRIVATE,PUBLIC,KEVIN HACK,PO BOX 8660,"KETCHIKAN, AK 99901",907-225-7906,KEVIN HACK,907-225-7906
50990,A,AIRPORT,'L20,UPPER YUKON,YUKON CHARLEY RIVERS,COAL CREEK,PUBLIC,PUBLIC,NPS YUKON-CHARLEY RIVERS NATL PRES,PO BOX 167,"EAGLE, AK 99738",907-547-2233,PARK SUPERINTENDENT,907-547-2233
